{
"type": "FeatureCollection",
"name": "flood_roads_cluster",
"crs": { "type": "name", "properties": { "name": "urn:ogc:def:crs:OGC:1.3:CRS84" } },
"features": [
{"type":"Feature","properties":{"FULLNAME_L":"West Snoqualmie Val Rd NE","FULLNAME_R":"West Snoqualmie Val Rd NE"},"geometry":{"type":"LineString","coordinates":[[-121.979580628576002,47.674629898322003],[-121.979649614585995,47.674743761658398],[-121.980122829823003,47.675446378257497],[-121.980226079971004,47.675572149436803],[-121.980374777885004,47.675733788953501],[-121.980654215843003,47.676025032245001],[-121.980897023118999,47.676265920731097],[-121.981141680402999,47.676498564716603],[-121.981843088863997,47.677146098782899],[-121.983873280572993,47.679040756828499],[-121.984902920772996,47.6800235663368],[-121.985230225663003,47.680365726394903],[-121.985331331561994,47.680485340309403],[-121.985401523977998,47.680584023300099],[-121.985512207564994,47.6807693459441],[-121.985572784718997,47.680892113986403],[-121.985668585572995,47.681138591825103],[-121.985708229012005,47.681278710430803],[-121.985805075678996,47.6816636352792],[-121.986207523641994,47.683470517121599],[-121.986275684646998,47.683660381971698],[-121.986342101429997,47.6838173629435],[-121.986509547173,47.684135772658998],[-121.986759088713001,47.684585642637202],[-121.987274103000999,47.685470825337298],[-121.987469595630003,47.685771813531197],[-121.987677192918994,47.686069251556802],[-121.987870731187002,47.686327761132603],[-121.988073283521004,47.686580695475897]]}},
{"type":"Feature","properties":{"FULLNAME_L":"West Snoqualmie Val Rd NE","FULLNAME_R":"West Snoqualmie Val Rd NE"},"geometry":{"type":"LineString","coordinates":[[-122.005920417875998,47.708998424000399],[-122.006067640777999,47.709358585786902],[-122.006328898022005,47.709997720185001],[-122.006558937131999,47.710605145591003]]}},
{"type":"Feature","properties":{"FULLNAME_L":"NE Tolt Hill Rd","FULLNAME_R":"NE Tolt Hill Rd"},"geometry":{"type":"LineString","coordinates":[[-121.968216929030007,47.626335653353301],[-121.968249581625997,47.626414839613901],[-121.968250391088006,47.626544893680503],[-121.968224967531995,47.626657132696202],[-121.968150278015997,47.626753506055998],[-121.968019136489005,47.6268559071734],[-121.967919426481004,47.6269170106236],[-121.967798976496994,47.626953730289898],[-121.967654222484001,47.626987960515699],[-121.967517131785002,47.6270029874985],[-121.967363342189003,47.626993590969299],[-121.967192913446993,47.626962501772098],[-121.967058495142993,47.626914659845397],[-121.966890499366997,47.626809774788398],[-121.966677697666995,47.626634591364898],[-121.966382696929998,47.626381127331101],[-121.965823882177006,47.625932410184497],[-121.965610315583007,47.625812358094798],[-121.965542658679993,47.625779200189498]]}},
{"type":"Feature","properties":{"FULLNAME_L":"NE Tolt Hill Rd","FULLNAME_R":"NE Tolt Hill Rd"},"geometry":{"type":"LineString","coordinates":[[-121.924550171736001,47.638116464745003],[-121.924124225523997,47.638067410962698],[-121.921683817407001,47.637784118347298],[-121.921315843992005,47.637743424358803],[-121.920756438039007,47.637665742607197],[-121.920457558766003,47.637607036052898],[-121.920035013147995,47.637502597615097],[-121.919126613108006,47.637224193850599],[-121.918757251971996,47.637141007596902],[-121.918246245508996,47.637049444971403],[-121.918067205452999,47.637023349471697],[-121.917897978438006,47.637005040031603],[-121.917750193176005,47.636994065955797],[-121.917441723017006,47.636985737745597],[-121.917010027146006,47.637001330039098],[-121.916474694561998,47.637031914340398],[-121.916264060390006,47.637046595915002]]}},
{"type":"Feature","properties":{"FULLNAME_L":"NE Tolt Hill Rd","FULLNAME_R":"NE Tolt Hill Rd"},"geometry":{"type":"LineString","coordinates":[[-121.940402624797002,47.634359011474501],[-121.940041926714997,47.634469022526098],[-121.939855329471996,47.634516456625903],[-121.938300828042998,47.6348074454773],[-121.938145002420995,47.634847556408801],[-121.938035194780994,47.634881868670497],[-121.937837530297998,47.634957468838202],[-121.937617250613997,47.6350664935973],[-121.937494123248001,47.6351421871978],[-121.937415183121999,47.635197486580502],[-121.937236811348001,47.635369721450701],[-121.937075322338998,47.6355494610861],[-121.936954382172999,47.6357044276034],[-121.936481355883998,47.636376504005703],[-121.936163321579002,47.636801946463301],[-121.936040003152002,47.636924406635799]]}},
{"type":"Feature","properties":{"FULLNAME_L":"SE Reinig Rd","FULLNAME_R":"SE Reinig Rd"},"geometry":{"type":"LineString","coordinates":[[-121.806928694993999,47.529855554784703],[-121.806711928919,47.529871945831502],[-121.806174271930999,47.529935160204502],[-121.806019655700993,47.529960202498799],[-121.805870160309993,47.5299919755169],[-121.805760939123999,47.530036958671502],[-121.805652331774994,47.530100533489801]]}},
{"type":"Feature","properties":{"FULLNAME_L":"Neal Rd SE","FULLNAME_R":"Neal Rd SE"},"geometry":{"type":"LineString","coordinates":[[-121.914493258468994,47.587473856213997],[-121.915241568553995,47.5879654838376],[-121.915544700506004,47.588218401040798],[-121.915631728557997,47.5883107874186],[-121.915778235708999,47.588486239692102],[-121.915807995833006,47.588553129650798],[-121.915809818376005,47.588592053551999],[-121.915802415368006,47.588625839450003],[-121.915781167099993,47.588675949949902],[-121.915695800999003,47.588809737739602],[-121.915651234581006,47.588858956939703],[-121.915576709064993,47.588929580961398],[-121.915253250728995,47.589210132535698],[-121.915152532546998,47.589287859802702],[-121.914874090466995,47.589492029837601],[-121.914688637824,47.589587868317103],[-121.914656062004994,47.589604886288697],[-121.914547113018997,47.5896522768887],[-121.914483280100001,47.5896774196409],[-121.914383299666,47.589716803889203],[-121.914260555336,47.5897585840695],[-121.914133129489002,47.589794494618801],[-121.914002536385993,47.589824266151602],[-121.913341323308003,47.589941973940697],[-121.912873274578999,47.589993586162002],[-121.912745149654,47.5900202867197],[-121.912517571441001,47.590088251049401],[-121.912407959342005,47.590128232143698],[-121.912138997797996,47.5902527916164],[-121.912045865921002,47.5903057682794],[-121.911957901045,47.5903636228118],[-121.911879121533005,47.590424688519299],[-121.911818491142,47.590481469458098],[-121.911773995420006,47.590534541333597],[-121.911586468747998,47.590824203843702]]}},
{"type":"Feature","properties":{"FULLNAME_L":"Neal Rd SE","FULLNAME_R":"Neal Rd SE"},"geometry":{"type":"LineString","coordinates":[[-121.887421058453995,47.570315201248903],[-121.887550834167996,47.5703468141174],[-121.887684518358995,47.570371363496001],[-121.887820090359995,47.570389298564102],[-121.888633092128003,47.570449186703598],[-121.889552364511999,47.570505384077599],[-121.889694896218003,47.570516652879903],[-121.889787919743,47.570533867735698],[-121.889857675103002,47.570552411866998],[-121.889885969759007,47.570564198951303]]}},
{"type":"Feature","properties":{"FULLNAME_L":"NE Tolt Hill Rd","FULLNAME_R":"NE Tolt Hill Rd"},"geometry":{"type":"LineString","coordinates":[[-121.930966758126004,47.637856610689497],[-121.930264147578001,47.637943236107603],[-121.926978339431002,47.638260445796],[-121.926491458650005,47.638267737166601],[-121.926012783136002,47.638261550762998],[-121.925127984794003,47.638183004956097],[-121.924550171736001,47.638116464745003]]}},
{"type":"Feature","properties":{"FULLNAME_L":"West Snoqualmie Val Rd NE","FULLNAME_R":"West Snoqualmie Val Rd NE"},"geometry":{"type":"LineString","coordinates":[[-121.978839814948003,47.673517602756],[-121.978957496234997,47.673686223907403],[-121.979220067366995,47.674068009485403],[-121.979333582633004,47.674239786840602],[-121.979420506596,47.674390656750099],[-121.979580628576002,47.674629898322003]]}},
{"type":"Feature","properties":{"FULLNAME_L":"Neal Rd SE","FULLNAME_R":"Neal Rd SE"},"geometry":{"type":"LineString","coordinates":[[-121.890450724646996,47.571776574835802],[-121.890642778659,47.572331106772502],[-121.890694528805,47.572560206024498],[-121.890722712922994,47.5727929543242],[-121.890723734793994,47.572801378445398],[-121.890728532970996,47.573037680913302],[-121.890719484862004,47.573764326084003],[-121.890760927730994,47.5744334897988],[-121.890785239173994,47.574558268340198],[-121.890820668985,47.574681874202],[-121.890894254301003,47.574863771251998],[-121.891106203308993,47.575200151113798],[-121.891362806535994,47.57551546429]]}},
{"type":"Feature","properties":{"FULLNAME_L":"West Snoqualmie Val Rd NE","FULLNAME_R":"West Snoqualmie Val Rd NE"},"geometry":{"type":"LineString","coordinates":[[-121.970760417631993,47.664339699967002],[-121.970822212765,47.664507063841],[-121.971000835064004,47.664892526980502],[-121.971143239715005,47.665260201005097],[-121.971465545620006,47.665662384314203],[-121.971971604371006,47.666274502953101],[-121.972282713601004,47.666573932417997],[-121.972584344054994,47.6668492513787],[-121.973003725037003,47.667183897342198],[-121.973313921016,47.667440978125001],[-121.974039623503003,47.668008723843897],[-121.974302517599995,47.668278375162302],[-121.974432566108007,47.668464268041802],[-121.974563437371003,47.668687591629798],[-121.974720096634002,47.668937885388601],[-121.974840071795001,47.669123878754],[-121.975109805898995,47.669475145802501],[-121.975414136905002,47.669795434177502],[-121.975619545599997,47.669979956103703],[-121.976309037899,47.670620329965601],[-121.977282928617996,47.671507577459103],[-121.977575465160001,47.6718397025993],[-121.978113877957995,47.672491182233102],[-121.978421828616007,47.672878855316199],[-121.978839814948003,47.673517602756]]}},
{"type":"Feature","properties":{"FULLNAME_L":"West Snoqualmie Val Rd NE","FULLNAME_R":"West Snoqualmie Val Rd NE"},"geometry":{"type":"LineString","coordinates":[[-122.006558937131999,47.710605145591003],[-122.006826695491,47.711286040909599],[-122.007218740838994,47.712222027931197],[-122.007359171055995,47.712557296779799],[-122.007465562028997,47.712860710838797],[-122.007525688669006,47.713071892831202],[-122.007558770925002,47.7132099279562],[-122.007884789507997,47.715320496497199],[-122.008156752241007,47.716993533853298]]}},
{"type":"Feature","properties":{"FULLNAME_L":"NE Tolt Hill Rd","FULLNAME_R":"NE Tolt Hill Rd"},"geometry":{"type":"LineString","coordinates":[[-121.932260588545006,47.637721331655101],[-121.930966758126004,47.637856610689497]]}},
{"type":"Feature","properties":{"FULLNAME_L":"NE Tolt Hill Rd","FULLNAME_R":"NE Tolt Hill Rd"},"geometry":{"type":"LineString","coordinates":[[-121.946813131189998,47.631425674238898],[-121.946437562411006,47.631428880991201],[-121.944993404502995,47.6314411993867],[-121.944609760999001,47.631472746648001],[-121.944340023327001,47.631518447219001],[-121.944082922457994,47.631589143979902],[-121.943826297106995,47.631680626384302],[-121.943561789258993,47.631806671102296],[-121.943246910514006,47.632019574904902],[-121.942934290680995,47.632340772282603],[-121.942609219849999,47.632810579022497],[-121.942424323527007,47.633056483260297],[-121.942348125541002,47.633144880048803]]}},
{"type":"Feature","properties":{"FULLNAME_L":"NE Tolt Hill Rd","FULLNAME_R":"NE Tolt Hill Rd"},"geometry":{"type":"LineString","coordinates":[[-121.964400454273999,47.6223240649243],[-121.964980888414999,47.622697004561502],[-121.965146771586006,47.622818864372903],[-121.965412871801007,47.623050001834898]]}},
{"type":"Feature","properties":{"FULLNAME_L":"West Snoqualmie Rvr Rd NE","FULLNAME_R":"West Snoqualmie Rvr Rd NE"},"geometry":{"type":"LineString","coordinates":[[-121.933552047283001,47.624246948790898],[-121.933578714891993,47.625028481753397],[-121.933596563270996,47.625105550342802],[-121.9336293721,47.625194469555602],[-121.933676384164002,47.625283978029302],[-121.933725082812003,47.625352553225099],[-121.933745879048999,47.625381837164298],[-121.933799894505,47.625442919768702],[-121.934337818405993,47.625931537970203],[-121.936643434957006,47.628025687452698],[-121.936761933854001,47.628162743269598],[-121.936876036008002,47.628331498072697],[-121.936963419519003,47.628507363495302],[-121.936997269629003,47.628597387611002],[-121.937047940691002,47.628811138263103],[-121.937060493711996,47.628996557636498],[-121.937044647961002,47.629181824641798],[-121.93702581302,47.629273812696297],[-121.936848995385006,47.629781298509201],[-121.936668812722004,47.630297812369101],[-121.936315730990003,47.631411820736801],[-121.935907248429004,47.632639763989999],[-121.935600353438005,47.633566070557997],[-121.935584656721005,47.633639049410803],[-121.935526351229001,47.633806521855497],[-121.935492344349001,47.633876637339398],[-121.935439015208999,47.633968100841102],[-121.935376503014993,47.634056914181997],[-121.935304798611995,47.634142646977303],[-121.935159738207005,47.634284051203601],[-121.935016567180995,47.634395192500499],[-121.934938568248,47.634446927712403],[-121.934143387692004,47.634847764187597],[-121.934049723230999,47.634902265892997],[-121.933931702101006,47.634979872074098],[-121.933821906993003,47.635062846507999],[-121.933650798613996,47.635219624120701],[-121.933566112932994,47.635315118549997],[-121.933442561513004,47.6354909302053],[-121.933377879019005,47.635669169677698],[-121.933197307976997,47.636577537378898],[-121.933167248597996,47.636642730891403],[-121.933097278828996,47.636738897081997],[-121.933057060772001,47.636779298923798],[-121.932940230038,47.636865512636597],[-121.932812265383006,47.6369287782233],[-121.932409705401994,47.637075193095903],[-121.931209763026999,47.637519619989398],[-121.931088155769004,47.637562192559997],[-121.930992428118003,47.637621764636599],[-121.930968221563006,47.637684097650798],[-121.930959835077005,47.637770428310098],[-121.930966758126004,47.637856610689497]]}},
{"type":"Feature","properties":{"FULLNAME_L":"NE Tolt Hill Rd","FULLNAME_R":"NE Tolt Hill Rd"},"geometry":{"type":"LineString","coordinates":[[-121.965542658679993,47.625779200189498],[-121.965328575404001,47.625699273266399]]}},
{"type":"Feature","properties":{"FULLNAME_L":"NE Tolt Hill Rd","FULLNAME_R":"NE Tolt Hill Rd"},"geometry":{"type":"LineString","coordinates":[[-121.942348125541002,47.633144880048803],[-121.942045680459003,47.633442179894303],[-121.941792925396996,47.633644488946999],[-121.941657555841005,47.633740099195897],[-121.941068588847997,47.634083283302402],[-121.940878330863001,47.634172999943303],[-121.940681341624,47.634256185029599],[-121.940402624797002,47.634359011474501]]}},
{"type":"Feature","properties":{"FULLNAME_L":"NE Tolt Hill Rd","FULLNAME_R":"NE Tolt Hill Rd"},"geometry":{"type":"LineString","coordinates":[[-121.936040003152002,47.636924406635799],[-121.936037567854996,47.636926829270799],[-121.935995466988999,47.636968635000102],[-121.935880816029993,47.637061597347802],[-121.935762397917998,47.637144692783103],[-121.935549528929002,47.637269064095698],[-121.935432096187,47.637326536032901],[-121.935332069980007,47.637368118065197],[-121.935089909991007,47.637450526833298],[-121.934951783469003,47.6374888361469],[-121.934783747333995,47.637527519643498],[-121.934639289992006,47.637554234561897],[-121.934493195518002,47.637575481592599],[-121.932877012111007,47.637664660261898],[-121.932353654600007,47.637709981719702],[-121.932260588545006,47.637721331655101]]}},
{"type":"Feature","properties":{"FULLNAME_L":"NE Tolt Hill Rd","FULLNAME_R":"NE Tolt Hill Rd"},"geometry":{"type":"LineString","coordinates":[[-121.965412871801007,47.623050001834898],[-121.965803289666994,47.623402887405497],[-121.965918949132003,47.623499585445401],[-121.965944507923993,47.623519000691402],[-121.966061733141004,47.623608052620902],[-121.966222816767996,47.623718774934297],[-121.966416003277999,47.623837062830297],[-121.966505602872999,47.623900945545998],[-121.966606326730002,47.623986780588297],[-121.966696016213007,47.624078036256002],[-121.966794547969997,47.6242028345535],[-121.966840590421995,47.6242826637761],[-121.967322991534999,47.625119069021601],[-121.967364358853004,47.625202964081197],[-121.967448432658998,47.625338960769902],[-121.967528792189,47.625443718852701],[-121.967610363117998,47.625534454281201],[-121.967684952149995,47.625607226503],[-121.968089149209007,47.626125384711102],[-121.968179337791,47.626262468740599],[-121.968216929030007,47.626335653353301]]}},
{"type":"Feature","properties":{"FULLNAME_L":"Tolt River Rd NE","FULLNAME_R":"Tolt River Rd NE"},"geometry":{"type":"LineString","coordinates":[[-121.868328596035994,47.668889261917201],[-121.867901498581006,47.669199305088299],[-121.867660240511995,47.669346445655101],[-121.867440177603996,47.669443408788702],[-121.867146333826994,47.669551037395102],[-121.866889376993996,47.669653335154798],[-121.866536542988001,47.669771493678198],[-121.866322682754998,47.669808420242099],[-121.866050036755993,47.6698658720073],[-121.865873167500993,47.669902462397303],[-121.865711198005997,47.669943915668199],[-121.865564616406004,47.6700152210826],[-121.865447929574003,47.670101247262302],[-121.865368531941996,47.670201930056699],[-121.865289431703005,47.670317607367998],[-121.865209934226002,47.670413292774001],[-121.865064838471994,47.6705595539595],[-121.864861847626003,47.670771318185402],[-121.864704790234001,47.671008742814799],[-121.864625824694002,47.671183308051098],[-121.864540611653993,47.671364016417002],[-121.864462697407006,47.671539657737497],[-121.864413484893007,47.671670058416197],[-121.864342770123997,47.671835638138802],[-121.864300460048995,47.671940985425103],[-121.864250850217999,47.672051394179903],[-121.864186244617002,47.672151942245698],[-121.864069943111005,47.672257958895301],[-121.863909153875994,47.672359376933201],[-121.863682068767005,47.672476388833203],[-121.863549981532003,47.672532563213402],[-121.863395697881998,47.672588940860898],[-121.863220476205996,47.672612543750198]]}},
{"type":"Feature","properties":{"FULLNAME_L":"NE Tolt Hill Rd","FULLNAME_R":"NE Tolt Hill Rd"},"geometry":{"type":"LineString","coordinates":[[-121.965328575404001,47.625699273266399],[-121.965218950913993,47.625670417635703],[-121.964153679719004,47.625453780197603],[-121.963895603156999,47.625405533036897],[-121.963721606628994,47.625377145333601],[-121.963147152489995,47.625303852388299],[-121.962978533938994,47.6252896318097],[-121.962780657820005,47.625282128037199]]}},
{"type":"Feature","properties":{"FULLNAME_L":"West Snoqualmie Rvr Rd NE","FULLNAME_R":"West Snoqualmie Rvr Rd NE"},"geometry":{"type":"LineString","coordinates":[[-121.933665927324995,47.610432898424897],[-121.933729361483003,47.610580431085403],[-121.933808892306004,47.610722401278402],[-121.934050271977,47.611088275465299],[-121.934360040607999,47.611524351292097],[-121.934422774609004,47.611662974132003],[-121.934451430634994,47.611747776726901],[-121.934475793223996,47.611845046562799],[-121.934490416266001,47.611937310946303],[-121.934497414847002,47.612076429190303],[-121.934550142554002,47.614999032540297],[-121.934568624799994,47.6150580567381],[-121.934596552317998,47.615108339248998],[-121.934668697846007,47.615188309448399],[-121.934775601918005,47.615258133150498],[-121.934833925682,47.615283741596002],[-121.934896198429001,47.615304346442599],[-121.935014268475996,47.615326980165797],[-121.935233893442998,47.615358270586199],[-121.935356317135998,47.615394998371997],[-121.935408504085004,47.615418011918699],[-121.935507122817,47.6154794760116],[-121.935551028046007,47.615518291012499],[-121.935613052733004,47.615598745242799],[-121.935635323266993,47.615645309625798],[-121.935651334862996,47.615707269351702],[-121.935714779948,47.618630070370102],[-121.935771193191997,47.621483835747298],[-121.935744639106005,47.621594276466404],[-121.935683730421999,47.621710193472602],[-121.935591182847006,47.621816220204899],[-121.935470973605007,47.621908674259998],[-121.935200044496995,47.622041276491601],[-121.934743482889999,47.622241131550403],[-121.934429778753994,47.622365536671502],[-121.934260382648006,47.622432717279501],[-121.934213081639001,47.622456926736398],[-121.934079844101007,47.622525114512399],[-121.933996801451002,47.622577451873397],[-121.933930409490998,47.622628029717198]]}},
{"type":"Feature","properties":{"FULLNAME_L":"West Snoqualmie Val Rd NE","FULLNAME_R":"West Snoqualmie Val Rd NE"},"geometry":{"type":"LineString","coordinates":[[-121.965797728387003,47.661090191492796],[-121.965989627325996,47.6610201144942],[-121.966074946608998,47.6609775827352],[-121.966230400205006,47.660917943805202],[-121.966311651601998,47.660898458623201],[-121.966420399634004,47.660883665226102],[-121.966505548597993,47.660880079116097],[-121.966716195157005,47.660914778039903],[-121.966860994252002,47.660963456946597],[-121.967632047151994,47.661237705031802],[-121.967889337285996,47.661341647154103],[-121.968288909291999,47.661515981153102],[-121.968521871866997,47.661637039948303],[-121.968716395705002,47.661763408415403],[-121.968794819875995,47.661823502508199],[-121.968920585220005,47.661937403689798],[-121.969607574361007,47.662614370163297],[-121.970151613121004,47.663185585776802],[-121.970306227576003,47.663386989508901],[-121.970403832040006,47.663557250658499],[-121.970534203491994,47.663855376752899],[-121.970611712975,47.6640125571437]]}},
{"type":"Feature","properties":{"FULLNAME_L":"West Snoqualmie Val Rd NE","FULLNAME_R":"West Snoqualmie Val Rd NE"},"geometry":{"type":"LineString","coordinates":[[-121.970611712975,47.6640125571437],[-121.970660586902994,47.664130692494297],[-121.970719197742994,47.664276461015],[-121.970760417631993,47.664339699967002]]}},
{"type":"Feature","properties":{"FULLNAME_L":"Tolt River Rd NE","FULLNAME_R":"Tolt River Rd NE"},"geometry":{"type":"LineString","coordinates":[[-121.871903288428001,47.6652240053226],[-121.871568573245995,47.665814640332002],[-121.871487178387,47.666077785322898],[-121.871453083627998,47.666223043309202],[-121.871448081007003,47.666343045264398],[-121.871457774307999,47.666457917856697],[-121.871489062356005,47.666542601820098],[-121.871483860180007,47.666652609230603],[-121.871463463051001,47.666742765125903],[-121.871421071699004,47.6668431150635],[-121.871333993327994,47.666928877623903],[-121.871238918059007,47.666984723884298],[-121.871143539266996,47.667025581025499],[-121.870967385604999,47.667097160199098],[-121.870739840704005,47.667189199825799],[-121.870534592658998,47.667286034167901],[-121.870278654641993,47.667438312274498],[-121.870096591418999,47.667584916575699],[-121.869819652310994,47.667797362910697],[-121.869440727687007,47.668090707025399],[-121.868608983493999,47.668683061071903],[-121.868328596035994,47.668889261917201]]}},
{"type":"Feature","properties":{"FULLNAME_L":"Neal Rd SE","FULLNAME_R":"Neal Rd SE"},"geometry":{"type":"LineString","coordinates":[[-121.889885969759007,47.570564198951303],[-121.889916920272995,47.570577093692997],[-121.889967691894995,47.570608453621702],[-121.890011474066,47.570644758795602],[-121.890044724358006,47.570686132621098],[-121.890113867067996,47.570824206135597],[-121.890450724646996,47.571776574835802]]}},
{"type":"Feature","properties":{"FULLNAME_L":"West Snoqualmie Rvr Rd SE","FULLNAME_R":"West Snoqualmie Rvr Rd SE"},"geometry":{"type":"LineString","coordinates":[[-121.928644401344002,47.600557858006098],[-121.928721321393994,47.600312329672299],[-121.928849114960002,47.599739437839297],[-121.928954021329005,47.599331105079003]]}},
{"type":"Feature","properties":{"FULLNAME_L":"West Snoqualmie Rvr Rd SE","FULLNAME_R":"West Snoqualmie Rvr Rd SE"},"geometry":{"type":"LineString","coordinates":[[-121.929654218760007,47.608180444068402],[-121.929533152838005,47.608159245831203],[-121.929414505492005,47.6081323733857],[-121.929298784641006,47.608100071348296],[-121.929187005586002,47.608062420428801],[-121.929079171932003,47.608019590593898],[-121.928975795808995,47.607971834650002],[-121.928807576267999,47.607877108553502],[-121.928719650790001,47.607816991800597],[-121.928581422874004,47.6077024854347],[-121.928461141162003,47.607573793015398],[-121.928407435880999,47.607501993020499],[-121.928358662457995,47.607424110910401],[-121.928298543178002,47.607290627990402],[-121.928285831230994,47.607262403182901],[-121.928257291595003,47.607158449525002],[-121.928237555888998,47.606557635802901],[-121.928253089066999,47.605176493730099],[-121.928250555106004,47.603080562974696],[-121.928263734454006,47.602262018518701],[-121.928266581661006,47.602242431348202],[-121.928391215340994,47.6013847968497],[-121.928524758744004,47.600940373219501],[-121.928644401344002,47.600557858006098]]}},
{"type":"Feature","properties":{"FULLNAME_L":"West Snoqualmie Val Rd NE","FULLNAME_R":"West Snoqualmie Val Rd NE"},"geometry":{"type":"LineString","coordinates":[[-121.988073283521004,47.686580695475897],[-121.988102994982995,47.686615823839603],[-121.988114460478002,47.686629287751103],[-121.988354447182004,47.686899321203001],[-121.988840435116003,47.6873899734234],[-121.990411023042,47.6889937516682],[-121.993266391581002,47.6918456654371],[-121.995251844981993,47.693831905830002],[-121.995307990024997,47.693888069401901],[-121.995834132210007,47.694408152716001],[-121.996209173853998,47.694778872514597],[-121.997008162895,47.695593256468399],[-121.997633389574005,47.696218855351603],[-121.997743407339996,47.696318481498501],[-121.998476980055997,47.696982736041001],[-121.999174257497998,47.697582486377598],[-121.999417062922006,47.697814938966502],[-121.999657397359002,47.698072906820101],[-121.999806050177995,47.698249561301999],[-122.000230810980995,47.698807410851003],[-122.000456818353996,47.6991503933275],[-122.000595052074004,47.699382757143397],[-122.001070545060003,47.700118857567702],[-122.001634070681007,47.701021303513102],[-122.001690862230006,47.701116210002098],[-122.002086168388999,47.701776832297099],[-122.002102616417005,47.701812860861097],[-122.002192974587004,47.702010802408601],[-122.002256166343003,47.702201954109803],[-122.002300857302004,47.7024053703718],[-122.002356147978006,47.702809221173602],[-122.002427696601998,47.7030332297795],[-122.002507663472997,47.703202272197402],[-122.002559432077007,47.703291833943901],[-122.002936779324997,47.703905338953803],[-122.003584343845006,47.7048917866247]]}},
{"type":"Feature","properties":{"FULLNAME_L":"NE Tolt Hill Rd","FULLNAME_R":"NE Tolt Hill Rd"},"geometry":{"type":"LineString","coordinates":[[-121.948686971458997,47.631061016852698],[-121.948545981102001,47.631130045978402],[-121.948384743426004,47.631200641395097],[-121.948274083198001,47.631241820983902],[-121.948116958141995,47.631291428567501],[-121.947983841240003,47.631325718351697],[-121.947779864355994,47.631365713657402],[-121.947446037834993,47.631403212263102],[-121.947097640440006,47.631423244760398]]}},
{"type":"Feature","properties":{"FULLNAME_L":"NE Tolt Hill Rd","FULLNAME_R":"NE Tolt Hill Rd"},"geometry":{"type":"LineString","coordinates":[[-121.947097640440006,47.631423244760398],[-121.946813131189998,47.631425674238898]]}},
{"type":"Feature","properties":{"FULLNAME_L":"NE Tolt Hill Rd","FULLNAME_R":"NE Tolt Hill Rd"},"geometry":{"type":"LineString","coordinates":[[-121.950864098755005,47.629905685421299],[-121.9497196688,47.630513678673204],[-121.948801298592997,47.631001721652098],[-121.948686971458997,47.631061016852698]]}},
{"type":"Feature","properties":{"FULLNAME_L":"Tolt River Rd NE","FULLNAME_R":"Tolt River Rd NE"},"geometry":{"type":"LineString","coordinates":[[-121.876533309359004,47.6564542798126],[-121.876102211735997,47.656912667806502],[-121.876061317411995,47.656973102707099],[-121.875790870233004,47.657879923987302],[-121.875593012620996,47.6584101168323],[-121.875571402025997,47.658470805530399],[-121.875512198720998,47.658579388148802],[-121.875420822953004,47.658677298138002],[-121.875373873328996,47.658713926829897],[-121.875182149604996,47.658816483388797],[-121.875105296483994,47.658854413640597],[-121.874984656467007,47.658960262302202],[-121.874934162808998,47.659022583133897],[-121.874900828372006,47.659080505564702],[-121.874878191994,47.659140688053597],[-121.874846119688002,47.659590798894598],[-121.874780341662003,47.65990310291],[-121.874679497062004,47.6601616192983],[-121.874650474190005,47.660206909430002],[-121.874569670469,47.660300996019103],[-121.874496561260997,47.660374018738402],[-121.874357881931999,47.660491250762],[-121.874138581669996,47.660635783995303],[-121.874024138622005,47.660696720146497],[-121.873898958309994,47.660753468935603],[-121.873763472551005,47.660802259237499],[-121.873691803829999,47.6608206062715],[-121.873527439515001,47.6608459248393],[-121.873435716396997,47.660850790034999],[-121.873101059405002,47.660858687292297],[-121.872925827602998,47.660873309976097],[-121.872767225263999,47.660907743217699],[-121.872684569653003,47.660934798922298],[-121.872625234265996,47.660961087961098],[-121.872504977125999,47.661035828156301],[-121.872407323391002,47.661124709532601],[-121.872331890146,47.661233953896897],[-121.872293453650002,47.661341404899403],[-121.872251034121007,47.661706483735202],[-121.872252266253994,47.662021985914897],[-121.872285634445007,47.662791810335399],[-121.872289088477004,47.662871629128901],[-121.872308751394996,47.663325250832102],[-121.872327312243996,47.663543394945101],[-121.872419472152004,47.664016789508402],[-121.872425085231001,47.664119937219098],[-121.872418340139006,47.664188583251601],[-121.872395796776004,47.664279055030697],[-121.872278014700001,47.664614703253903],[-121.872150940132002,47.664838005752699],[-121.871939061046007,47.665160789262799],[-121.871903288428001,47.6652240053226]]}},
{"type":"Feature","properties":{"FULLNAME_L":"NE Tolt Hill Rd","FULLNAME_R":"NE Tolt Hill Rd"},"geometry":{"type":"LineString","coordinates":[[-121.952646725899996,47.629034280229398],[-121.951105412614993,47.629786664526897],[-121.951020618285,47.629828020571999],[-121.950864098755005,47.629905685421299]]}},
{"type":"Feature","properties":{"FULLNAME_L":"West Snoqualmie Rvr Rd SE","FULLNAME_R":"West Snoqualmie Rvr Rd SE"},"geometry":{"type":"LineString","coordinates":[[-121.925361039205001,47.591193986935899],[-121.925374983056997,47.591037572371697],[-121.925420848992999,47.590813595798799],[-121.925576262931003,47.590054643921903],[-121.925652457997003,47.589629752696098],[-121.926160415506999,47.5871362511093]]}},
{"type":"Feature","properties":{"FULLNAME_L":"NE Tolt Hill Rd","FULLNAME_R":"NE Tolt Hill Rd"},"geometry":{"type":"LineString","coordinates":[[-121.958675738961006,47.626402830674401],[-121.958635807294996,47.626455193173001],[-121.958595730862001,47.626524303890399],[-121.958556178766997,47.6266176604679],[-121.958529343378999,47.626712986048297],[-121.958514697303997,47.626809520897197],[-121.958512745763997,47.626906618449198],[-121.958522866869998,47.626999525119899],[-121.958559520422,47.627498723634098],[-121.958549277668993,47.627634581456597],[-121.958531057892003,47.627706352214602],[-121.958485774318007,47.627816043365499],[-121.958418149300996,47.627900719958298],[-121.958310171456006,47.627994922703103],[-121.958179587866994,47.628075340963498],[-121.958030907489004,47.628139481701297],[-121.957937709565002,47.628166964860498],[-121.957840842048995,47.628188869025102],[-121.957741823937994,47.628205102411798],[-121.957641665045998,47.628215471342301],[-121.957539858708003,47.628219989043103],[-121.957437924638995,47.628218596634198],[-121.957336875741007,47.628211242987497],[-121.957236714711001,47.628198051459201],[-121.957096894187998,47.628174854538202],[-121.956928717270003,47.628148189330297],[-121.956764790560001,47.628124316931],[-121.956567349317993,47.628100772262201],[-121.956357525192999,47.628085846195297],[-121.956139568086996,47.628082331742],[-121.955946805039005,47.628081400670403],[-121.955749914275998,47.628083342231498],[-121.955528134920002,47.628096857848597],[-121.955291737655998,47.628119002919199],[-121.955097212951003,47.628149796453599],[-121.954944598899004,47.628183294112603]]}},
{"type":"Feature","properties":{"FULLNAME_L":"Tolt River Rd NE","FULLNAME_R":"Tolt River Rd NE"},"geometry":{"type":"LineString","coordinates":[[-121.887626041556999,47.645653763520102],[-121.887526659927005,47.6456297063188],[-121.887190959107002,47.645556173670599],[-121.887109625039002,47.6455467736915],[-121.887027393205003,47.645543123173901],[-121.886944771463007,47.645545258542803],[-121.886863281,47.645553168465],[-121.886787097855006,47.645561706440397],[-121.886680270906993,47.645586874109398],[-121.886595432901004,47.645624617560003],[-121.886159173221998,47.645919660585903],[-121.885865361482004,47.646111644718403],[-121.885787421139995,47.6461697251099],[-121.885698210141001,47.646247277280096],[-121.885634621403995,47.646312852461399],[-121.885527895731002,47.646452208957399],[-121.885475991454001,47.646543854244399],[-121.885443027831002,47.646619131775303],[-121.885351327812998,47.646974815369198],[-121.885316405471002,47.647078641531799],[-121.885252094417993,47.647208867973802],[-121.885151067576004,47.647354299238899],[-121.885086108053002,47.647427426547097],[-121.885014486499998,47.647497358151803],[-121.884879423580003,47.647589727242099],[-121.884722711641999,47.647665110805498],[-121.884549381705995,47.647721293592497],[-121.884457995286994,47.647741628208998],[-121.884173360849999,47.647786233955799],[-121.883176378982,47.647867148098001],[-121.882521578872002,47.647965502808098],[-121.882194189966,47.648002705454999],[-121.882014735979993,47.6480322444175],[-121.881699145035,47.648101036999499],[-121.881516558588999,47.648151128682798],[-121.880893226403998,47.6484271863564],[-121.880140391661996,47.648921752364302],[-121.879602155114,47.649243320329198],[-121.879472976073004,47.649326934756502],[-121.879342501083997,47.649421179695501],[-121.879135066020993,47.649597870744998],[-121.878973123324997,47.649766946640902],[-121.878754445460004,47.650015239285501],[-121.878676421804997,47.650120314340299],[-121.878505275842002,47.650412037996396],[-121.878375519694998,47.650567709340102],[-121.878283222348998,47.6506692713183],[-121.878021615603998,47.650926823157299],[-121.877913953467001,47.651021246449801],[-121.877332436744993,47.651437455805002],[-121.876929555575003,47.6517326719434],[-121.876629288727997,47.652010710046902],[-121.876575313261995,47.652076019191497],[-121.876538417299997,47.652133078249697],[-121.876486543696004,47.652252602422102],[-121.876469768876007,47.652326613017301],[-121.876484088704998,47.6526358705703],[-121.876619226144996,47.653455654459002],[-121.876643348062004,47.654025843903199],[-121.876699038642997,47.654728375723302],[-121.876721322506995,47.655383833582597],[-121.876675459731004,47.656106358989],[-121.876669807856999,47.656153319159102],[-121.876621996393993,47.656298512666602],[-121.876533309359004,47.6564542798126]]}},
{"type":"Feature","properties":{"FULLNAME_L":"NE Tolt Hill Rd","FULLNAME_R":"NE Tolt Hill Rd"},"geometry":{"type":"LineString","coordinates":[[-121.962780657820005,47.625282128037199],[-121.962549023787005,47.625284212342798],[-121.962250906874004,47.625306361911399],[-121.962094192855005,47.625326763096503],[-121.960967752914996,47.625538124643398],[-121.960353018334999,47.625664675858602],[-121.960315589380002,47.6256742670571],[-121.960065141382998,47.6257384283021],[-121.959868105747006,47.625793201688801],[-121.959528838327998,47.6259052019861],[-121.959371969036994,47.625965400640403],[-121.959069143121994,47.626098158990303],[-121.958994963479,47.626137491392598],[-121.958816161949997,47.626261913052197],[-121.958714817238999,47.626357893117699],[-121.958675738961006,47.626402830674401]]}},
{"type":"Feature","properties":{"FULLNAME_L":"SE Reinig Rd","FULLNAME_R":"SE Reinig Rd"},"geometry":{"type":"LineString","coordinates":[[-121.805652331774994,47.530100533489801],[-121.805470002039996,47.529995399983903],[-121.805399024758998,47.529945184156901],[-121.805280321,47.529867438537103],[-121.805150948404005,47.529794990558003],[-121.805078554036996,47.5297660074948],[-121.804988985115003,47.529738840962899],[-121.804908716461,47.529721536275403],[-121.803484414169006,47.529565132713799],[-121.802764532371995,47.529504335649698],[-121.802189014871004,47.529455723769097]]}},
{"type":"Feature","properties":{"FULLNAME_L":"West Snoqualmie Rvr Rd SE","FULLNAME_R":"West Snoqualmie Rvr Rd SE"},"geometry":{"type":"LineString","coordinates":[[-121.928954021329005,47.599331105079003],[-121.929012082403005,47.599104522786597],[-121.929168601262006,47.598741101885302],[-121.929570439119004,47.598020729745897],[-121.930161266593004,47.597108408936201],[-121.930224159844997,47.596991277377398],[-121.930275850355002,47.596871509289997],[-121.930314828584002,47.5967495990553],[-121.930343640424994,47.596625944369897],[-121.930359759770994,47.596501463418299],[-121.930363716474005,47.5963766747752],[-121.930356528659999,47.596251993599097],[-121.930336180078001,47.596127910915399],[-121.930305212663001,47.596004829922897],[-121.930236540706005,47.595823636030602],[-121.930027189021999,47.595458257395201],[-121.929882302120006,47.595266743203098],[-121.929739689338007,47.595110981517003],[-121.929622926975,47.595003806930301],[-121.929498158580003,47.594901381346197],[-121.929364381734004,47.594804221623797],[-121.929221609261006,47.594712936280303],[-121.928714487226998,47.594430376192797],[-121.928677571300994,47.594409806473003],[-121.928647422563003,47.594393007318601],[-121.928508679968999,47.594300305933899],[-121.928378932417004,47.594202039745703],[-121.928259202744002,47.594097891861999],[-121.928147489988007,47.593989852902702],[-121.928046815808003,47.593876479060903],[-121.92795621,47.593760014242001],[-121.927876667386002,47.593639582499101],[-121.927777501109006,47.5934532848324],[-121.927147571727005,47.591926136200499],[-121.927087094483994,47.591845024005799],[-121.927014555271001,47.591768137660502],[-121.926933999631004,47.591695698716897],[-121.926843423500998,47.591628581854401],[-121.926778122913007,47.591590059874299],[-121.926691584945004,47.591539006477497],[-121.926581066512995,47.5914874185355],[-121.926403415387,47.591423323340699],[-121.926213965179002,47.591376348414499],[-121.925449552426997,47.591259496149704],[-121.925411713231,47.591242852251902],[-121.925381863362006,47.591220648109299],[-121.925361039205001,47.591193986935899]]}},
{"type":"Feature","properties":{"FULLNAME_L":"West Snoqualmie Rvr Rd NE","FULLNAME_R":"West Snoqualmie Rvr Rd NE"},"geometry":{"type":"LineString","coordinates":[[-121.933930409490998,47.622628029717198],[-121.933768744754005,47.622772052411399],[-121.933711851273998,47.622838404908201],[-121.933650820184994,47.622924847930797],[-121.933610257184,47.622996353311798],[-121.933570122545007,47.623088118951401],[-121.933546359876999,47.623163017983302],[-121.933521898031003,47.6233726570375],[-121.933535056340006,47.623754192317897],[-121.933552047283001,47.624246948790898]]}},
{"type":"Feature","properties":{"FULLNAME_L":"SE Mill Pond Rd","FULLNAME_R":"SE Mill Pond Rd"},"geometry":{"type":"LineString","coordinates":[[-121.832687930828001,47.540710904374997],[-121.832581889029996,47.540695645589999],[-121.832470385733004,47.540687487120401],[-121.832279011813995,47.540678506935599],[-121.832121402596002,47.540670753395098],[-121.831964729131002,47.540653090367599],[-121.831827084259004,47.540630690856503],[-121.831684781364999,47.540599954081699],[-121.831575683625005,47.5405735719944]]}},
{"type":"Feature","properties":{"FULLNAME_L":"SE Mill Pond Rd","FULLNAME_R":"SE Mill Pond Rd"},"geometry":{"type":"LineString","coordinates":[[-121.829898622491996,47.539994250347803],[-121.829724761034001,47.5399126856245],[-121.829549927036993,47.539827396997197],[-121.829381825433998,47.539741288269902],[-121.829135261142994,47.539610170601399],[-121.828845036914998,47.539448476740901],[-121.828059204100995,47.539008876361201],[-121.827937040917007,47.538939803502899],[-121.827828978737003,47.5388760137877],[-121.827712915440003,47.5388054403684],[-121.827601202897995,47.538730144537297],[-121.827505719369995,47.538662436901703],[-121.827425564639,47.538599279324899],[-121.827361562568001,47.5385457662885],[-121.827307072910003,47.538492817060401],[-121.827232511451001,47.5384163583225],[-121.827134915326994,47.538311541854398],[-121.826972671448004,47.538133987277902],[-121.825832122573999,47.536898108711],[-121.825587350326003,47.536626722070899],[-121.825348882738993,47.536358440404001],[-121.825246001661,47.536238359441199],[-121.825170483359997,47.536143896716297],[-121.825082347025997,47.536030351348003],[-121.825006121024998,47.535925155380497],[-121.824916371936993,47.535791975432304],[-121.824410933717999,47.535024057660898],[-121.824278036657006,47.534824614706601],[-121.823689844366996,47.5339796192794],[-121.823386579735001,47.533537466852998],[-121.823331232724996,47.533453440405196],[-121.823287441196001,47.533368143229502],[-121.823252251561001,47.533288596565598],[-121.823213714383996,47.533186956126798],[-121.823180896637993,47.533087283757098],[-121.823144888249999,47.532967647246601],[-121.822976397401007,47.532385547617402],[-121.822935854261004,47.532260923604603],[-121.822899103919994,47.532164408231203],[-121.822865386884004,47.532091398600201],[-121.822824697482005,47.5320213058639],[-121.822785576377001,47.531959768012499],[-121.822742239757005,47.531898266170799],[-121.822670323794,47.5318122616126],[-121.822601400817007,47.531735750884003],[-121.822533990953005,47.531664938626903],[-121.822459500462003,47.531591332471102],[-121.822380901982996,47.531523473711403],[-121.822278177029006,47.531443448775903],[-121.822154190009002,47.531354089543299],[-121.822027555887999,47.5312733203966],[-121.821865372065005,47.531170965730503],[-121.821058119254999,47.530703897173098],[-121.820927326022002,47.5306260191687],[-121.820815002041002,47.5305584524925],[-121.820701200729999,47.530487090985602],[-121.820610407068003,47.530425162475503],[-121.820511250690998,47.530355196553302],[-121.820434258896,47.530298302418501],[-121.820361050304001,47.530239165544003],[-121.820270376123005,47.530152879000902],[-121.820194394370006,47.530074524053902],[-121.820112540636003,47.529982892568697],[-121.820029009782999,47.529888723738203],[-121.819867975765007,47.529698201878901],[-121.819737084034998,47.529552221202898],[-121.819646304657994,47.529452610349999],[-121.819585535824004,47.529390687718497],[-121.819505425074993,47.529319870193603],[-121.819404060327997,47.529236975431999],[-121.819288678296999,47.529156105659702],[-121.819163616476999,47.529080574948097],[-121.819030679039997,47.529007854829601],[-121.818889545076004,47.528935852018101],[-121.818261166287002,47.528630687881403],[-121.818033225183001,47.528517902250101],[-121.817876545646001,47.5284372272273],[-121.817779744576995,47.528384297534103],[-121.817692198922998,47.5283332677771],[-121.817609359711,47.528281512438099],[-121.817526042802996,47.5282280853042],[-121.817462207408994,47.528182181250003],[-121.817374263722002,47.528113143684102],[-121.817285696341003,47.528037752043602],[-121.817187004740006,47.527947216405103],[-121.816814797277999,47.527588684621598],[-121.816755059789998,47.527533339254099],[-121.816680776286006,47.527470008389201],[-121.816611221364994,47.527418822793997],[-121.816552027927997,47.527380493870403],[-121.816491796633997,47.527346743652203],[-121.816422585742998,47.5273138326138],[-121.816327460547001,47.527278099702698],[-121.816231353937994,47.527249991003501],[-121.816148868184001,47.527228618000699],[-121.816024718803007,47.527207111117001],[-121.815881073048004,47.527192169814299],[-121.815730562802997,47.527185855546698],[-121.815554366713997,47.5271857791519],[-121.814689812734002,47.527192488636103],[-121.814376221922004,47.5271990051289],[-121.814169505788996,47.527208405706702],[-121.813980919882994,47.527225265216998],[-121.813803662086997,47.527246596406499],[-121.813604063792994,47.527275735872401],[-121.813420260344003,47.527307784777904],[-121.813285809902993,47.5273333156238],[-121.813135776948997,47.527367358000198],[-121.813014959905004,47.527400386059398],[-121.812890913435993,47.5274410583133],[-121.812761445430993,47.527492439692303],[-121.812647717054006,47.527543684567803],[-121.812540833406999,47.5276002015977],[-121.812255233653005,47.527780112597],[-121.812168473211997,47.527833485922301],[-121.812090472406993,47.527871285497902],[-121.811974510170003,47.527920378179097],[-121.811889567658994,47.527947765432998],[-121.811802247103003,47.527968318818999],[-121.811716961364993,47.527977430580798],[-121.811641678542998,47.527980363374503],[-121.811556121218004,47.527975007276503],[-121.811499593592998,47.527958739351298],[-121.811456429127006,47.527935502071898],[-121.811419810502002,47.527901545902502],[-121.811399030939,47.527872784632599]]}},
{"type":"Feature","properties":{"FULLNAME_L":"SE Mill Pond Rd","FULLNAME_R":"SE Mill Pond Rd"},"geometry":{"type":"LineString","coordinates":[[-121.831575683612002,47.540573571309103],[-121.831145629787997,47.540434550291998],[-121.830707127503999,47.540294649752298],[-121.830441099170002,47.540204640967801],[-121.830200427967,47.540117266012899],[-121.829898622504999,47.5399942510331]]}},
{"type":"Feature","properties":{"FULLNAME_L":"NE Tolt Hill Rd","FULLNAME_R":"NE Tolt Hill Rd"},"geometry":{"type":"LineString","coordinates":[[-121.954944598899004,47.628183294112603],[-121.954704596632993,47.628243504701999],[-121.954490082608004,47.628301719973898],[-121.954318723396995,47.628353000888801],[-121.954097701452,47.628424516809702],[-121.953877176120997,47.628511959885103],[-121.953558048716005,47.628645253079199],[-121.952646725899996,47.629034280229398]]}},
{"type":"Feature","properties":{"FULLNAME_L":"West Snoqualmie Rvr Rd NE","FULLNAME_R":"West Snoqualmie Rvr Rd NE"},"geometry":{"type":"LineString","coordinates":[[-121.933045508592002,47.608198439607001],[-121.933118118346002,47.6082050227322],[-121.933247428130997,47.608232734181797],[-121.933312779898003,47.608255580233298],[-121.933364467454993,47.608279326039401],[-121.933449474807006,47.608344948272702],[-121.933481063716997,47.608383578742099],[-121.933513464200004,47.608423199360601],[-121.933556991529002,47.608516212543698],[-121.933566453284001,47.608556433302397],[-121.933578317306001,47.608973753064497],[-121.933583257579002,47.610046167790898],[-121.933620763044999,47.610286137732103],[-121.933665927324995,47.610432898424897]]}},
{"type":"Feature","properties":{"FULLNAME_L":"West Snoqualmie Val Rd NE","FULLNAME_R":"West Snoqualmie Val Rd NE"},"geometry":{"type":"LineString","coordinates":[[-122.008156752241007,47.716993533853298],[-122.008249413586,47.717542482375499],[-122.008328140085993,47.7178570629465],[-122.008396655713995,47.718034573791599],[-122.008902785898002,47.719371212288301],[-122.009015819628999,47.719877276875501],[-122.009030061274999,47.7200350411645],[-122.009030953993999,47.720231670978102],[-122.009023369911006,47.720435069947101],[-122.008989650695,47.720987116692399],[-122.008980753301998,47.721491444246702],[-122.008998328356,47.721751733853999],[-122.009028039672998,47.721987222156102],[-122.009125740719,47.722435296657601],[-122.009180500059003,47.7226864345742],[-122.010001879005998,47.725379749458803],[-122.010561884184995,47.727250475943997],[-122.010587782423002,47.727384553970097],[-122.010618519917998,47.727620034040399],[-122.010608749987995,47.727973226349903],[-122.010587728724005,47.728099050574301],[-122.010520649987001,47.728375109914801],[-122.010353557035003,47.729062725243701],[-122.010355547670002,47.729284790291999],[-122.010372498264999,47.7293602725208],[-122.010390036879997,47.729419207414999],[-122.010424735857995,47.729535803422202],[-122.010633064440995,47.729919136212402],[-122.010957861674996,47.730465253085598],[-122.012277679101004,47.7325260491953],[-122.012345998528005,47.732603996979101],[-122.012499157229001,47.732749099923304],[-122.012758779942999,47.732973984903801],[-122.013672036759999,47.733713602845199],[-122.013858562517001,47.733864659391998],[-122.013959785515993,47.733959577417401],[-122.014058236093007,47.734066601677803],[-122.014101193521995,47.734123732031897],[-122.014174510523006,47.734242499022997],[-122.014238724560002,47.734363076578099],[-122.014289569390002,47.734476587068499],[-122.014396662896999,47.734784788788502],[-122.014531521148001,47.735286630331203],[-122.014949486453006,47.736841924329703],[-122.014970455088005,47.736959604465703],[-122.014975873878996,47.737153015131902],[-122.014963989937996,47.7372557034385],[-122.014941409564003,47.737357553879498],[-122.014908639148999,47.7374581389657],[-122.014865675096004,47.737556946008503],[-122.014812497362001,47.737653632478803],[-122.014750116179997,47.737747584703399],[-122.014618024314998,47.737904209736797],[-122.014507111724001,47.738009031115901],[-122.01403587643,47.738426594021],[-122.013443319466006,47.738951649201901],[-122.013268350648005,47.739144359507698],[-122.013210231214003,47.739220184599802],[-122.013129200075994,47.739325901898901],[-122.013063347663007,47.739423829002],[-122.012981339166998,47.7395668721555],[-122.012942633864,47.739634394329897],[-122.012754413394006,47.739991107062899],[-122.012656703489,47.740176286460297],[-122.012484471473996,47.7404674141386],[-122.012354646719004,47.740657166755],[-122.012197437327998,47.740849261288702],[-122.011992858558003,47.741058638518503],[-122.011473508663002,47.741525225381501],[-122.011085395603004,47.7418643296471],[-122.010583682597002,47.742325156120401],[-122.009560705034005,47.743237248408199],[-122.009245698357006,47.743529313616897],[-122.009121768149001,47.743644216377398],[-122.008929697165001,47.743846003990797]]}},
{"type":"Feature","properties":{"FULLNAME_L":"Neal Rd SE","FULLNAME_R":"Neal Rd SE"},"geometry":{"type":"LineString","coordinates":[[-121.913436849777995,47.597256342547396],[-121.913645411185001,47.596136653408799],[-121.913654228518993,47.595798609301902],[-121.913657486250997,47.595531780383901],[-121.913650813553005,47.595295033774299],[-121.913643981576001,47.595220128636299],[-121.913601785216002,47.595051787682301],[-121.913550609758005,47.594959453383197],[-121.913494554235001,47.594886205555298],[-121.913429778109005,47.594816610271501],[-121.913302256688993,47.594690491539097],[-121.913048178140997,47.594484652916499],[-121.912624430468995,47.5941559497547],[-121.912105498695993,47.593817914118198],[-121.911836092659996,47.593636018752697],[-121.911640953981006,47.593472458959603],[-121.911479110846997,47.593302632981498],[-121.911382842635007,47.593156223052702],[-121.911271908128995,47.592981154637897],[-121.911141883697994,47.592733676171598],[-121.911071349516007,47.592555606404197],[-121.911034631806999,47.592396494910503],[-121.911020605673997,47.592228837597801],[-121.911043391570004,47.592054881914002],[-121.911069635595993,47.591963002987796],[-121.911125595350995,47.591777070906303],[-121.911280637391002,47.591363862175598],[-121.911428957487004,47.591050914523699],[-121.911515695861993,47.590907291976698],[-121.911586468761996,47.590824204529]]}},
{"type":"Feature","properties":{"FULLNAME_L":"Neal Rd SE","FULLNAME_R":"Neal Rd SE"},"geometry":{"type":"LineString","coordinates":[[-121.891362806535994,47.57551546429],[-121.891446501136002,47.575596724224802],[-121.891544394104002,47.575678622409903],[-121.891651290656,47.575754953221796],[-121.891767201216993,47.575826229245301],[-121.891954484341994,47.575920452719799],[-121.892325945815998,47.576055748676097],[-121.892473698027004,47.576098797254403],[-121.892625851055001,47.576134094846097],[-121.892860633354005,47.576173033887002],[-121.893019981522002,47.576188556211299],[-121.893174116403003,47.576196973671102],[-121.893791199267994,47.5762218826316],[-121.893967048595997,47.5762214325906],[-121.894145450287994,47.576216793062301],[-121.894330978460005,47.576216649039502],[-121.894506512567006,47.5762007314557],[-121.894717308354004,47.576189244178202],[-121.894898432990999,47.576188743459703],[-121.895042682200994,47.576190966575403],[-121.895172790467996,47.576206887737499],[-121.895316768824003,47.576230295813097],[-121.895511616937,47.576264651406198],[-121.89562472755,47.5762921550131],[-121.895769133583997,47.576336502086797],[-121.895899512531003,47.576382883506803],[-121.896050011121005,47.576450021011397],[-121.896235046553997,47.576554915726597],[-121.896474815822998,47.576722129849401],[-121.896900130435995,47.577018984233298],[-121.897171200252998,47.5772030401465],[-121.897465478138002,47.577421150185401],[-121.897677706044007,47.577617179712199],[-121.897902888496006,47.577922905098802],[-121.898392474543002,47.578631733559],[-121.898486382970006,47.578790388473898],[-121.898570705481006,47.578950852184903],[-121.898895681561001,47.579658991314098],[-121.898966785970003,47.579767438665002],[-121.899090532691005,47.579923672215102],[-121.899871500358998,47.580934098446598],[-121.900775161512996,47.582170933750902],[-121.900842787312001,47.582307000179398],[-121.900873719413994,47.582382752412997],[-121.900907355271997,47.5824915475647],[-121.901014689698002,47.582884283420903],[-121.901036542309001,47.583011271026997],[-121.901070516271005,47.583136516233402],[-121.901115610191994,47.5832605850077],[-121.901171283519005,47.583381815425497],[-121.901238571025999,47.583501261556897],[-121.901722424260996,47.584246842477398],[-121.901812291133993,47.584355671228998],[-121.901911709198998,47.584461106363896],[-121.902273661511003,47.584770268067203],[-121.902422805008001,47.5848796496565],[-121.902580454420999,47.5849834648401],[-121.902746068439995,47.585080613744999],[-121.902892999835998,47.585156001312697],[-121.903039075825006,47.585214389628398],[-121.903190081245995,47.585266134728002],[-121.903346534804996,47.585311829414401],[-121.903506387723993,47.5853503797887],[-121.903752981186997,47.585394671928199],[-121.904210714661005,47.585434231322303],[-121.904409801428002,47.585459212222297],[-121.904705647639005,47.5855090785805],[-121.905713269827999,47.585709028404104],[-121.906317335807998,47.585794366052198],[-121.907093892776004,47.585842985981898],[-121.907678108674006,47.585825389052502],[-121.908422108172999,47.585793683301603],[-121.908846925041999,47.585808859403997],[-121.909319783192998,47.5858200234008],[-121.909689922805995,47.585836527895097],[-121.910757202165001,47.585907304865401],[-121.911086184637,47.585942572700297],[-121.911317876621993,47.585976017201901],[-121.911489744714999,47.586007292046901],[-121.911658716136003,47.586045448496201],[-121.911826845107996,47.586091832481699],[-121.912047145700996,47.5861624000256],[-121.912453450567,47.586310713641403],[-121.912864413807995,47.586488323936699],[-121.913138748034996,47.586623624969597],[-121.913497546841995,47.586825850240501],[-121.913928308544001,47.587102534205997],[-121.914493258468994,47.587473856213997]]}},
{"type":"Feature","properties":{"FULLNAME_L":"NE Tolt Hill Rd","FULLNAME_R":"NE Tolt Hill Rd"},"geometry":{"type":"LineString","coordinates":[[-121.966913512694006,47.622799226174301],[-121.965933069038996,47.622820894097899],[-121.965687242949002,47.622846047447901],[-121.965512107161999,47.622881247670499],[-121.96545451675,47.622913734891803],[-121.965416942301999,47.622957508342402],[-121.965407789829001,47.622979533657997],[-121.965404053236995,47.623017484232001],[-121.965412871801007,47.623050001834898]]}},
{"type":"Feature","properties":{"FULLNAME_L":"West Snoqualmie Val Rd NE","FULLNAME_R":"West Snoqualmie Val Rd NE"},"geometry":{"type":"LineString","coordinates":[[-122.003584344860997,47.704891786614297],[-122.004599299570003,47.706459387836702],[-122.005047476708,47.707172151899599],[-122.005187177653994,47.707400168847798],[-122.005392136639998,47.707774845270897],[-122.005483250726002,47.707964765081798],[-122.005920418906996,47.7089984246753]]}}
]
}
