{
"type": "FeatureCollection",
"name": "named_flood_roads",
"crs": { "type": "name", "properties": { "name": "urn:ogc:def:crs:OGC:1.3:CRS84" } },
"features": [
{"type":"Feature","properties":{"FULLNAME_L":"West Snoqualmie Val Rd NE","FULLNAME_R":"West Snoqualmie Val Rd NE","CITY_L":"King County","CITY_R":"King County"},"geometry":{"type":"LineString","coordinates":[[-121.979580628576002,47.674629898322003],[-121.979649614585995,47.674743761658398],[-121.980122829823003,47.675446378257497],[-121.980226079971004,47.675572149436803],[-121.980374777885004,47.675733788953501],[-121.980654215843003,47.676025032245001],[-121.980897023118999,47.676265920731097],[-121.981141680402999,47.676498564716603],[-121.981843088863997,47.677146098782899],[-121.983873280572993,47.679040756828499],[-121.984902920772996,47.6800235663368],[-121.985230225663003,47.680365726394903],[-121.985331331561994,47.680485340309403],[-121.985401523977998,47.680584023300099],[-121.985512207564994,47.6807693459441],[-121.985572784718997,47.680892113986403],[-121.985668585572995,47.681138591825103],[-121.985708229012005,47.681278710430803],[-121.985805075678996,47.6816636352792],[-121.986207523641994,47.683470517121599],[-121.986275684646998,47.683660381971698],[-121.986342101429997,47.6838173629435],[-121.986509547173,47.684135772658998],[-121.986759088713001,47.684585642637202],[-121.987274103000999,47.685470825337298],[-121.987469595630003,47.685771813531197],[-121.987677192918994,47.686069251556802],[-121.987870731187002,47.686327761132603],[-121.988073283521004,47.686580695475897]]}},
{"type":"Feature","properties":{"FULLNAME_L":"West Snoqualmie Val Rd NE","FULLNAME_R":"West Snoqualmie Val Rd NE","CITY_L":"King County","CITY_R":"King County"},"geometry":{"type":"LineString","coordinates":[[-122.005920417875998,47.708998424000399],[-122.006067640777999,47.709358585786902],[-122.006328898022005,47.709997720185001],[-122.006558937131999,47.710605145591003]]}},
{"type":"Feature","properties":{"FULLNAME_L":"NE Tolt Hill Rd","FULLNAME_R":"NE Tolt Hill Rd","CITY_L":"King County","CITY_R":"King County"},"geometry":{"type":"LineString","coordinates":[[-121.968216929030007,47.626335653353301],[-121.968249581625997,47.626414839613901],[-121.968250391088006,47.626544893680503],[-121.968224967531995,47.626657132696202],[-121.968150278015997,47.626753506055998],[-121.968019136489005,47.6268559071734],[-121.967919426481004,47.6269170106236],[-121.967798976496994,47.626953730289898],[-121.967654222484001,47.626987960515699],[-121.967517131785002,47.6270029874985],[-121.967363342189003,47.626993590969299],[-121.967192913446993,47.626962501772098],[-121.967058495142993,47.626914659845397],[-121.966890499366997,47.626809774788398],[-121.966677697666995,47.626634591364898],[-121.966382696929998,47.626381127331101],[-121.965823882177006,47.625932410184497],[-121.965610315583007,47.625812358094798],[-121.965542658679993,47.625779200189498]]}},
{"type":"Feature","properties":{"FULLNAME_L":"NE Tolt Hill Rd","FULLNAME_R":"NE Tolt Hill Rd","CITY_L":"King County","CITY_R":"King County"},"geometry":{"type":"LineString","coordinates":[[-121.924550171736001,47.638116464745003],[-121.924124225523997,47.638067410962698],[-121.921683817407001,47.637784118347298],[-121.921315843992005,47.637743424358803],[-121.920756438039007,47.637665742607197],[-121.920457558766003,47.637607036052898],[-121.920035013147995,47.637502597615097],[-121.919126613108006,47.637224193850599],[-121.918757251971996,47.637141007596902],[-121.918246245508996,47.637049444971403],[-121.918067205452999,47.637023349471697],[-121.917897978438006,47.637005040031603],[-121.917750193176005,47.636994065955797],[-121.917441723017006,47.636985737745597],[-121.917010027146006,47.637001330039098],[-121.916474694561998,47.637031914340398],[-121.916264060390006,47.637046595915002]]}},
{"type":"Feature","properties":{"FULLNAME_L":"NE Tolt Hill Rd","FULLNAME_R":"NE Tolt Hill Rd","CITY_L":"King County","CITY_R":"King County"},"geometry":{"type":"LineString","coordinates":[[-121.940402624797002,47.634359011474501],[-121.940041926714997,47.634469022526098],[-121.939855329471996,47.634516456625903],[-121.938300828042998,47.6348074454773],[-121.938145002420995,47.634847556408801],[-121.938035194780994,47.634881868670497],[-121.937837530297998,47.634957468838202],[-121.937617250613997,47.6350664935973],[-121.937494123248001,47.6351421871978],[-121.937415183121999,47.635197486580502],[-121.937236811348001,47.635369721450701],[-121.937075322338998,47.6355494610861],[-121.936954382172999,47.6357044276034],[-121.936481355883998,47.636376504005703],[-121.936163321579002,47.636801946463301],[-121.936040003152002,47.636924406635799]]}},
{"type":"Feature","properties":{"FULLNAME_L":"SE Reinig Rd","FULLNAME_R":"SE Reinig Rd","CITY_L":"King County","CITY_R":"King County"},"geometry":{"type":"LineString","coordinates":[[-121.806928694993999,47.529855554784703],[-121.806711928919,47.529871945831502],[-121.806174271930999,47.529935160204502],[-121.806019655700993,47.529960202498799],[-121.805870160309993,47.5299919755169],[-121.805760939123999,47.530036958671502],[-121.805652331774994,47.530100533489801]]}},
{"type":"Feature","properties":{"FULLNAME_L":"SE Reinig Rd","FULLNAME_R":"SE Reinig Rd","CITY_L":"King County","CITY_R":"King County"},"geometry":{"type":"LineString","coordinates":[[-121.795669020402002,47.528055159303101],[-121.794591039110998,47.527796669611803]]}},
{"type":"Feature","properties":{"FULLNAME_L":"West Snoqualmie Val Rd NE","FULLNAME_R":"West Snoqualmie Val Rd NE","CITY_L":"King County","CITY_R":"King County"},"geometry":{"type":"LineString","coordinates":[[-122.003278045041,47.759547558369398],[-122.002499355376997,47.761410947624299],[-122.002248023874003,47.762012353195701],[-122.002231604599999,47.762050651402603],[-122.001342341717006,47.764161930362697]]}},
{"type":"Feature","properties":{"FULLNAME_L":"Neal Rd SE","FULLNAME_R":"Neal Rd SE","CITY_L":"King County","CITY_R":"King County"},"geometry":{"type":"LineString","coordinates":[[-121.914493258468994,47.587473856213997],[-121.915241568553995,47.5879654838376],[-121.915544700506004,47.588218401040798],[-121.915631728557997,47.5883107874186],[-121.915778235708999,47.588486239692102],[-121.915807995833006,47.588553129650798],[-121.915809818376005,47.588592053551999],[-121.915802415368006,47.588625839450003],[-121.915781167099993,47.588675949949902],[-121.915695800999003,47.588809737739602],[-121.915651234581006,47.588858956939703],[-121.915576709064993,47.588929580961398],[-121.915253250728995,47.589210132535698],[-121.915152532546998,47.589287859802702],[-121.914874090466995,47.589492029837601],[-121.914688637824,47.589587868317103],[-121.914656062004994,47.589604886288697],[-121.914547113018997,47.5896522768887],[-121.914483280100001,47.5896774196409],[-121.914383299666,47.589716803889203],[-121.914260555336,47.5897585840695],[-121.914133129489002,47.589794494618801],[-121.914002536385993,47.589824266151602],[-121.913341323308003,47.589941973940697],[-121.912873274578999,47.589993586162002],[-121.912745149654,47.5900202867197],[-121.912517571441001,47.590088251049401],[-121.912407959342005,47.590128232143698],[-121.912138997797996,47.5902527916164],[-121.912045865921002,47.5903057682794],[-121.911957901045,47.5903636228118],[-121.911879121533005,47.590424688519299],[-121.911818491142,47.590481469458098],[-121.911773995420006,47.590534541333597],[-121.911586468747998,47.590824203843702]]}},
{"type":"Feature","properties":{"FULLNAME_L":"Neal Rd SE","FULLNAME_R":"Neal Rd SE","CITY_L":"King County","CITY_R":"King County"},"geometry":{"type":"LineString","coordinates":[[-121.887421058453995,47.570315201248903],[-121.887550834167996,47.5703468141174],[-121.887684518358995,47.570371363496001],[-121.887820090359995,47.570389298564102],[-121.888633092128003,47.570449186703598],[-121.889552364511999,47.570505384077599],[-121.889694896218003,47.570516652879903],[-121.889787919743,47.570533867735698],[-121.889857675103002,47.570552411866998],[-121.889885969759007,47.570564198951303]]}},
{"type":"Feature","properties":{"FULLNAME_L":"NE Tolt Hill Rd","FULLNAME_R":"NE Tolt Hill Rd","CITY_L":"King County","CITY_R":"King County"},"geometry":{"type":"LineString","coordinates":[[-121.930966758126004,47.637856610689497],[-121.930264147578001,47.637943236107603],[-121.926978339431002,47.638260445796],[-121.926491458650005,47.638267737166601],[-121.926012783136002,47.638261550762998],[-121.925127984794003,47.638183004956097],[-121.924550171736001,47.638116464745003]]}},
{"type":"Feature","properties":{"FULLNAME_L":"Snoqualmie River Rd","FULLNAME_R":"Snoqualmie River Rd","CITY_L":"Bellevue","CITY_R":"Bellevue"},"geometry":{"type":"LineString","coordinates":[[-122.151742121859002,47.6026515157468],[-122.151747977347995,47.6020825052058]]}},
{"type":"Feature","properties":{"FULLNAME_L":"West Snoqualmie Rvr Rd NE","FULLNAME_R":"West Snoqualmie Rvr Rd NE","CITY_L":"King County","CITY_R":"King County"},"geometry":{"type":"LineString","coordinates":[[-121.991681893220004,47.743767442943401],[-121.991684471173002,47.743837420021698],[-121.991669762398004,47.744020756238001],[-121.991627643361994,47.7473929784544],[-121.991615115913007,47.747469187405301],[-121.991553789535004,47.747521903871899]]}},
{"type":"Feature","properties":{"FULLNAME_L":"West Snoqualmie Val Rd NE","FULLNAME_R":"West Snoqualmie Val Rd NE","CITY_L":"King County","CITY_R":"King County"},"geometry":{"type":"LineString","coordinates":[[-121.978839814948003,47.673517602756],[-121.978957496234997,47.673686223907403],[-121.979220067366995,47.674068009485403],[-121.979333582633004,47.674239786840602],[-121.979420506596,47.674390656750099],[-121.979580628576002,47.674629898322003]]}},
{"type":"Feature","properties":{"FULLNAME_L":"Mill Pond Dr SE","FULLNAME_R":"Mill Pond Dr SE","CITY_L":"Auburn","CITY_R":"Auburn"},"geometry":{"type":"LineString","coordinates":[[-122.218172576121006,47.262856298833697],[-122.218291821332997,47.2626045074351]]}},
{"type":"Feature","properties":{"FULLNAME_L":"Mill Pond Dr SE","FULLNAME_R":"Mill Pond Dr SE","CITY_L":"Auburn","CITY_R":"Auburn"},"geometry":{"type":"LineString","coordinates":[[-122.217075488335993,47.2651355014209],[-122.217368770996998,47.264542184825999]]}},
{"type":"Feature","properties":{"FULLNAME_L":"Neal Rd SE","FULLNAME_R":"Neal Rd SE","CITY_L":"King County","CITY_R":"King County"},"geometry":{"type":"LineString","coordinates":[[-121.890450724646996,47.571776574835802],[-121.890642778659,47.572331106772502],[-121.890694528805,47.572560206024498],[-121.890722712922994,47.5727929543242],[-121.890723734793994,47.572801378445398],[-121.890728532970996,47.573037680913302],[-121.890719484862004,47.573764326084003],[-121.890760927730994,47.5744334897988],[-121.890785239173994,47.574558268340198],[-121.890820668985,47.574681874202],[-121.890894254301003,47.574863771251998],[-121.891106203308993,47.575200151113798],[-121.891362806535994,47.57551546429]]}},
{"type":"Feature","properties":{"FULLNAME_L":"Snoqualmie River Rd","FULLNAME_R":"Snoqualmie River Rd","CITY_L":"Kent","CITY_R":"Kent"},"geometry":{"type":"LineString","coordinates":[[-122.151408889658001,47.349020470124401],[-122.151405774249,47.349550591194003],[-122.151447409122994,47.349677025360897],[-122.151499556548998,47.349784675896103],[-122.151590611624002,47.349910537395203],[-122.151714336786995,47.350024817844997]]}},
{"type":"Feature","properties":{"FULLNAME_L":"West Snoqualmie Val Rd NE","FULLNAME_R":"West Snoqualmie Val Rd NE","CITY_L":"King County","CITY_R":"King County"},"geometry":{"type":"LineString","coordinates":[[-121.970760417631993,47.664339699967002],[-121.970822212765,47.664507063841],[-121.971000835064004,47.664892526980502],[-121.971143239715005,47.665260201005097],[-121.971465545620006,47.665662384314203],[-121.971971604371006,47.666274502953101],[-121.972282713601004,47.666573932417997],[-121.972584344054994,47.6668492513787],[-121.973003725037003,47.667183897342198],[-121.973313921016,47.667440978125001],[-121.974039623503003,47.668008723843897],[-121.974302517599995,47.668278375162302],[-121.974432566108007,47.668464268041802],[-121.974563437371003,47.668687591629798],[-121.974720096634002,47.668937885388601],[-121.974840071795001,47.669123878754],[-121.975109805898995,47.669475145802501],[-121.975414136905002,47.669795434177502],[-121.975619545599997,47.669979956103703],[-121.976309037899,47.670620329965601],[-121.977282928617996,47.671507577459103],[-121.977575465160001,47.6718397025993],[-121.978113877957995,47.672491182233102],[-121.978421828616007,47.672878855316199],[-121.978839814948003,47.673517602756]]}},
{"type":"Feature","properties":{"FULLNAME_L":"West Snoqualmie Val Rd NE","FULLNAME_R":"West Snoqualmie Val Rd NE","CITY_L":"King County","CITY_R":"King County"},"geometry":{"type":"LineString","coordinates":[[-122.006558937131999,47.710605145591003],[-122.006826695491,47.711286040909599],[-122.007218740838994,47.712222027931197],[-122.007359171055995,47.712557296779799],[-122.007465562028997,47.712860710838797],[-122.007525688669006,47.713071892831202],[-122.007558770925002,47.7132099279562],[-122.007884789507997,47.715320496497199],[-122.008156752241007,47.716993533853298]]}},
{"type":"Feature","properties":{"FULLNAME_L":"NE Tolt Hill Rd","FULLNAME_R":"NE Tolt Hill Rd","CITY_L":"King County","CITY_R":"King County"},"geometry":{"type":"LineString","coordinates":[[-121.932260588545006,47.637721331655101],[-121.930966758126004,47.637856610689497]]}},
{"type":"Feature","properties":{"FULLNAME_L":"NE Tolt Hill Rd","FULLNAME_R":"NE Tolt Hill Rd","CITY_L":"King County","CITY_R":"King County"},"geometry":{"type":"LineString","coordinates":[[-121.946813131189998,47.631425674238898],[-121.946437562411006,47.631428880991201],[-121.944993404502995,47.6314411993867],[-121.944609760999001,47.631472746648001],[-121.944340023327001,47.631518447219001],[-121.944082922457994,47.631589143979902],[-121.943826297106995,47.631680626384302],[-121.943561789258993,47.631806671102296],[-121.943246910514006,47.632019574904902],[-121.942934290680995,47.632340772282603],[-121.942609219849999,47.632810579022497],[-121.942424323527007,47.633056483260297],[-121.942348125541002,47.633144880048803]]}},
{"type":"Feature","properties":{"FULLNAME_L":"NE Tolt Hill Rd","FULLNAME_R":"NE Tolt Hill Rd","CITY_L":"King County","CITY_R":"King County"},"geometry":{"type":"LineString","coordinates":[[-121.964400454273999,47.6223240649243],[-121.964980888414999,47.622697004561502],[-121.965146771586006,47.622818864372903],[-121.965412871801007,47.623050001834898]]}},
{"type":"Feature","properties":{"FULLNAME_L":"SE Reinig Rd","FULLNAME_R":"SE Reinig Rd","CITY_L":"King County","CITY_R":"King County"},"geometry":{"type":"LineString","coordinates":[[-121.796262145523002,47.528197374546998],[-121.795669020402002,47.528055159303101]]}},
{"type":"Feature","properties":{"FULLNAME_L":"Snoqualmie River Rd","FULLNAME_R":"Snoqualmie River Rd","CITY_L":"Bellevue","CITY_R":"Bellevue"},"geometry":{"type":"LineString","coordinates":[[-122.150250146554995,47.599664194463102],[-122.149919579816995,47.599176451417101]]}},
{"type":"Feature","properties":{"FULLNAME_L":"West Snoqualmie Rvr Rd NE","FULLNAME_R":"West Snoqualmie Rvr Rd NE","CITY_L":"King County","CITY_R":"King County"},"geometry":{"type":"LineString","coordinates":[[-121.933552047283001,47.624246948790898],[-121.933578714891993,47.625028481753397],[-121.933596563270996,47.625105550342802],[-121.9336293721,47.625194469555602],[-121.933676384164002,47.625283978029302],[-121.933725082812003,47.625352553225099],[-121.933745879048999,47.625381837164298],[-121.933799894505,47.625442919768702],[-121.934337818405993,47.625931537970203],[-121.936643434957006,47.628025687452698],[-121.936761933854001,47.628162743269598],[-121.936876036008002,47.628331498072697],[-121.936963419519003,47.628507363495302],[-121.936997269629003,47.628597387611002],[-121.937047940691002,47.628811138263103],[-121.937060493711996,47.628996557636498],[-121.937044647961002,47.629181824641798],[-121.93702581302,47.629273812696297],[-121.936848995385006,47.629781298509201],[-121.936668812722004,47.630297812369101],[-121.936315730990003,47.631411820736801],[-121.935907248429004,47.632639763989999],[-121.935600353438005,47.633566070557997],[-121.935584656721005,47.633639049410803],[-121.935526351229001,47.633806521855497],[-121.935492344349001,47.633876637339398],[-121.935439015208999,47.633968100841102],[-121.935376503014993,47.634056914181997],[-121.935304798611995,47.634142646977303],[-121.935159738207005,47.634284051203601],[-121.935016567180995,47.634395192500499],[-121.934938568248,47.634446927712403],[-121.934143387692004,47.634847764187597],[-121.934049723230999,47.634902265892997],[-121.933931702101006,47.634979872074098],[-121.933821906993003,47.635062846507999],[-121.933650798613996,47.635219624120701],[-121.933566112932994,47.635315118549997],[-121.933442561513004,47.6354909302053],[-121.933377879019005,47.635669169677698],[-121.933197307976997,47.636577537378898],[-121.933167248597996,47.636642730891403],[-121.933097278828996,47.636738897081997],[-121.933057060772001,47.636779298923798],[-121.932940230038,47.636865512636597],[-121.932812265383006,47.6369287782233],[-121.932409705401994,47.637075193095903],[-121.931209763026999,47.637519619989398],[-121.931088155769004,47.637562192559997],[-121.930992428118003,47.637621764636599],[-121.930968221563006,47.637684097650798],[-121.930959835077005,47.637770428310098],[-121.930966758126004,47.637856610689497]]}},
{"type":"Feature","properties":{"FULLNAME_L":"NE Tolt Hill Rd","FULLNAME_R":"NE Tolt Hill Rd","CITY_L":"King County","CITY_R":"King County"},"geometry":{"type":"LineString","coordinates":[[-121.965542658679993,47.625779200189498],[-121.965328575404001,47.625699273266399]]}},
{"type":"Feature","properties":{"FULLNAME_L":"NE Tolt Hill Rd","FULLNAME_R":"NE Tolt Hill Rd","CITY_L":"King County","CITY_R":"King County"},"geometry":{"type":"LineString","coordinates":[[-121.942348125541002,47.633144880048803],[-121.942045680459003,47.633442179894303],[-121.941792925396996,47.633644488946999],[-121.941657555841005,47.633740099195897],[-121.941068588847997,47.634083283302402],[-121.940878330863001,47.634172999943303],[-121.940681341624,47.634256185029599],[-121.940402624797002,47.634359011474501]]}},
{"type":"Feature","properties":{"FULLNAME_L":"NE Tolt Hill Rd","FULLNAME_R":"NE Tolt Hill Rd","CITY_L":"King County","CITY_R":"King County"},"geometry":{"type":"LineString","coordinates":[[-121.936040003152002,47.636924406635799],[-121.936037567854996,47.636926829270799],[-121.935995466988999,47.636968635000102],[-121.935880816029993,47.637061597347802],[-121.935762397917998,47.637144692783103],[-121.935549528929002,47.637269064095698],[-121.935432096187,47.637326536032901],[-121.935332069980007,47.637368118065197],[-121.935089909991007,47.637450526833298],[-121.934951783469003,47.6374888361469],[-121.934783747333995,47.637527519643498],[-121.934639289992006,47.637554234561897],[-121.934493195518002,47.637575481592599],[-121.932877012111007,47.637664660261898],[-121.932353654600007,47.637709981719702],[-121.932260588545006,47.637721331655101]]}},
{"type":"Feature","properties":{"FULLNAME_L":"NE Tolt Hill Rd","FULLNAME_R":"NE Tolt Hill Rd","CITY_L":"King County","CITY_R":"King County"},"geometry":{"type":"LineString","coordinates":[[-121.965412871801007,47.623050001834898],[-121.965803289666994,47.623402887405497],[-121.965918949132003,47.623499585445401],[-121.965944507923993,47.623519000691402],[-121.966061733141004,47.623608052620902],[-121.966222816767996,47.623718774934297],[-121.966416003277999,47.623837062830297],[-121.966505602872999,47.623900945545998],[-121.966606326730002,47.623986780588297],[-121.966696016213007,47.624078036256002],[-121.966794547969997,47.6242028345535],[-121.966840590421995,47.6242826637761],[-121.967322991534999,47.625119069021601],[-121.967364358853004,47.625202964081197],[-121.967448432658998,47.625338960769902],[-121.967528792189,47.625443718852701],[-121.967610363117998,47.625534454281201],[-121.967684952149995,47.625607226503],[-121.968089149209007,47.626125384711102],[-121.968179337791,47.626262468740599],[-121.968216929030007,47.626335653353301]]}},
{"type":"Feature","properties":{"FULLNAME_L":"Tolt River Rd NE","FULLNAME_R":"Tolt River Rd NE","CITY_L":"King County","CITY_R":"King County"},"geometry":{"type":"LineString","coordinates":[[-121.868328596035994,47.668889261917201],[-121.867901498581006,47.669199305088299],[-121.867660240511995,47.669346445655101],[-121.867440177603996,47.669443408788702],[-121.867146333826994,47.669551037395102],[-121.866889376993996,47.669653335154798],[-121.866536542988001,47.669771493678198],[-121.866322682754998,47.669808420242099],[-121.866050036755993,47.6698658720073],[-121.865873167500993,47.669902462397303],[-121.865711198005997,47.669943915668199],[-121.865564616406004,47.6700152210826],[-121.865447929574003,47.670101247262302],[-121.865368531941996,47.670201930056699],[-121.865289431703005,47.670317607367998],[-121.865209934226002,47.670413292774001],[-121.865064838471994,47.6705595539595],[-121.864861847626003,47.670771318185402],[-121.864704790234001,47.671008742814799],[-121.864625824694002,47.671183308051098],[-121.864540611653993,47.671364016417002],[-121.864462697407006,47.671539657737497],[-121.864413484893007,47.671670058416197],[-121.864342770123997,47.671835638138802],[-121.864300460048995,47.671940985425103],[-121.864250850217999,47.672051394179903],[-121.864186244617002,47.672151942245698],[-121.864069943111005,47.672257958895301],[-121.863909153875994,47.672359376933201],[-121.863682068767005,47.672476388833203],[-121.863549981532003,47.672532563213402],[-121.863395697881998,47.672588940860898],[-121.863220476205996,47.672612543750198]]}},
{"type":"Feature","properties":{"FULLNAME_L":"NE Tolt Hill Rd","FULLNAME_R":"NE Tolt Hill Rd","CITY_L":"King County","CITY_R":"King County"},"geometry":{"type":"LineString","coordinates":[[-121.965328575404001,47.625699273266399],[-121.965218950913993,47.625670417635703],[-121.964153679719004,47.625453780197603],[-121.963895603156999,47.625405533036897],[-121.963721606628994,47.625377145333601],[-121.963147152489995,47.625303852388299],[-121.962978533938994,47.6252896318097],[-121.962780657820005,47.625282128037199]]}},
{"type":"Feature","properties":{"FULLNAME_L":"West Snoqualmie Rvr Rd NE","FULLNAME_R":"West Snoqualmie Rvr Rd NE","CITY_L":"King County","CITY_R":"King County"},"geometry":{"type":"LineString","coordinates":[[-121.933665927324995,47.610432898424897],[-121.933729361483003,47.610580431085403],[-121.933808892306004,47.610722401278402],[-121.934050271977,47.611088275465299],[-121.934360040607999,47.611524351292097],[-121.934422774609004,47.611662974132003],[-121.934451430634994,47.611747776726901],[-121.934475793223996,47.611845046562799],[-121.934490416266001,47.611937310946303],[-121.934497414847002,47.612076429190303],[-121.934550142554002,47.614999032540297],[-121.934568624799994,47.6150580567381],[-121.934596552317998,47.615108339248998],[-121.934668697846007,47.615188309448399],[-121.934775601918005,47.615258133150498],[-121.934833925682,47.615283741596002],[-121.934896198429001,47.615304346442599],[-121.935014268475996,47.615326980165797],[-121.935233893442998,47.615358270586199],[-121.935356317135998,47.615394998371997],[-121.935408504085004,47.615418011918699],[-121.935507122817,47.6154794760116],[-121.935551028046007,47.615518291012499],[-121.935613052733004,47.615598745242799],[-121.935635323266993,47.615645309625798],[-121.935651334862996,47.615707269351702],[-121.935714779948,47.618630070370102],[-121.935771193191997,47.621483835747298],[-121.935744639106005,47.621594276466404],[-121.935683730421999,47.621710193472602],[-121.935591182847006,47.621816220204899],[-121.935470973605007,47.621908674259998],[-121.935200044496995,47.622041276491601],[-121.934743482889999,47.622241131550403],[-121.934429778753994,47.622365536671502],[-121.934260382648006,47.622432717279501],[-121.934213081639001,47.622456926736398],[-121.934079844101007,47.622525114512399],[-121.933996801451002,47.622577451873397],[-121.933930409490998,47.622628029717198]]}},
{"type":"Feature","properties":{"FULLNAME_L":"West Snoqualmie Val Rd NE","FULLNAME_R":"West Snoqualmie Val Rd NE","CITY_L":"King County","CITY_R":"King County"},"geometry":{"type":"LineString","coordinates":[[-121.965797728387003,47.661090191492796],[-121.965989627325996,47.6610201144942],[-121.966074946608998,47.6609775827352],[-121.966230400205006,47.660917943805202],[-121.966311651601998,47.660898458623201],[-121.966420399634004,47.660883665226102],[-121.966505548597993,47.660880079116097],[-121.966716195157005,47.660914778039903],[-121.966860994252002,47.660963456946597],[-121.967632047151994,47.661237705031802],[-121.967889337285996,47.661341647154103],[-121.968288909291999,47.661515981153102],[-121.968521871866997,47.661637039948303],[-121.968716395705002,47.661763408415403],[-121.968794819875995,47.661823502508199],[-121.968920585220005,47.661937403689798],[-121.969607574361007,47.662614370163297],[-121.970151613121004,47.663185585776802],[-121.970306227576003,47.663386989508901],[-121.970403832040006,47.663557250658499],[-121.970534203491994,47.663855376752899],[-121.970611712975,47.6640125571437]]}},
{"type":"Feature","properties":{"FULLNAME_L":"SE Reinig Rd","FULLNAME_R":"SE Reinig Rd","CITY_L":"King County","CITY_R":"King County"},"geometry":{"type":"LineString","coordinates":[[-121.802189014871004,47.529455723769097],[-121.801752428222997,47.529418857545998],[-121.801264602361002,47.529377669309902],[-121.801079111579995,47.5293619820931],[-121.800682661568999,47.5293215374287],[-121.800447251560996,47.529288025374399],[-121.800233540378997,47.529251287624398],[-121.800021747608,47.529208838625202],[-121.799832200847007,47.529165382971001],[-121.798674011605002,47.528840872526501],[-121.798654901320006,47.528835652921501],[-121.798312414137001,47.528742111729997],[-121.796708897553003,47.528304497584799],[-121.796262145523002,47.528197374546998]]}},
{"type":"Feature","properties":{"FULLNAME_L":"West Snoqualmie Val Rd NE","FULLNAME_R":"West Snoqualmie Val Rd NE","CITY_L":"King County","CITY_R":"King County"},"geometry":{"type":"LineString","coordinates":[[-121.970611712975,47.6640125571437],[-121.970660586902994,47.664130692494297],[-121.970719197742994,47.664276461015],[-121.970760417631993,47.664339699967002]]}},
{"type":"Feature","properties":{"FULLNAME_L":"Mill Pond Loop SE","FULLNAME_R":"Mill Pond Loop SE","CITY_L":"Auburn","CITY_R":"Auburn"},"geometry":{"type":"LineString","coordinates":[[-122.216911421337997,47.265626720262198],[-122.217004558743,47.265626733237802],[-122.217102653075003,47.265622074259802],[-122.218140634947005,47.265527322101903],[-122.218217571433001,47.265517239430103],[-122.218288875547003,47.265505703269099],[-122.218348934014003,47.265492019469697],[-122.218412227906995,47.265473725923997],[-122.218481013187002,47.265451557232801],[-122.218537493792994,47.265429539280603],[-122.218601644196994,47.2654013341105],[-122.218670107099001,47.265366982853202],[-122.218718576369,47.2653382082243],[-122.218779027503004,47.265298378051703],[-122.219751772993007,47.264622490273702],[-122.219821586047999,47.264569137467099],[-122.219878397182995,47.264521164687899],[-122.219919994706999,47.264482626946197],[-122.219959132317996,47.264439494453299],[-122.219998189264999,47.264393317363499],[-122.220031653144005,47.264347208186699],[-122.220063266631001,47.264299368250398],[-122.220091730283997,47.264249742893703],[-122.220119299670998,47.2641922818501],[-122.220142333943002,47.264132591059401],[-122.220158738471994,47.264076028544899],[-122.220169630645998,47.264022579915498],[-122.220176905580999,47.263959274640598],[-122.220179685776003,47.263895262260696],[-122.220175937107996,47.263838185433798],[-122.220168308354005,47.263789733579202],[-122.220161194707998,47.263746208094098],[-122.220147641685003,47.263699152577203],[-122.220125011652996,47.263625426851299],[-122.219901239693002,47.262971000162999]]}},
{"type":"Feature","properties":{"FULLNAME_L":"Tolt River Rd NE","FULLNAME_R":"Tolt River Rd NE","CITY_L":"King County","CITY_R":"King County"},"geometry":{"type":"LineString","coordinates":[[-121.871903288428001,47.6652240053226],[-121.871568573245995,47.665814640332002],[-121.871487178387,47.666077785322898],[-121.871453083627998,47.666223043309202],[-121.871448081007003,47.666343045264398],[-121.871457774307999,47.666457917856697],[-121.871489062356005,47.666542601820098],[-121.871483860180007,47.666652609230603],[-121.871463463051001,47.666742765125903],[-121.871421071699004,47.6668431150635],[-121.871333993327994,47.666928877623903],[-121.871238918059007,47.666984723884298],[-121.871143539266996,47.667025581025499],[-121.870967385604999,47.667097160199098],[-121.870739840704005,47.667189199825799],[-121.870534592658998,47.667286034167901],[-121.870278654641993,47.667438312274498],[-121.870096591418999,47.667584916575699],[-121.869819652310994,47.667797362910697],[-121.869440727687007,47.668090707025399],[-121.868608983493999,47.668683061071903],[-121.868328596035994,47.668889261917201]]}},
{"type":"Feature","properties":{"FULLNAME_L":"Neal Rd SE","FULLNAME_R":"Neal Rd SE","CITY_L":"King County","CITY_R":"King County"},"geometry":{"type":"LineString","coordinates":[[-121.889885969759007,47.570564198951303],[-121.889916920272995,47.570577093692997],[-121.889967691894995,47.570608453621702],[-121.890011474066,47.570644758795602],[-121.890044724358006,47.570686132621098],[-121.890113867067996,47.570824206135597],[-121.890450724646996,47.571776574835802]]}},
{"type":"Feature","properties":{"FULLNAME_L":"Snoqualmie River Rd","FULLNAME_R":"Snoqualmie River Rd","CITY_L":"Bellevue","CITY_R":"Bellevue"},"geometry":{"type":"LineString","coordinates":[[-122.151291224670004,47.556513941559601],[-122.150879889455993,47.5570433904726],[-122.150779819703004,47.557190641117202]]}},
{"type":"Feature","properties":{"FULLNAME_L":"West Snoqualmie Rvr Rd SE","FULLNAME_R":"West Snoqualmie Rvr Rd SE","CITY_L":"King County","CITY_R":"King County"},"geometry":{"type":"LineString","coordinates":[[-121.928644401344002,47.600557858006098],[-121.928721321393994,47.600312329672299],[-121.928849114960002,47.599739437839297],[-121.928954021329005,47.599331105079003]]}},
{"type":"Feature","properties":{"FULLNAME_L":"West Snoqualmie Rvr Rd SE","FULLNAME_R":"West Snoqualmie Rvr Rd SE","CITY_L":"King County","CITY_R":"King County"},"geometry":{"type":"LineString","coordinates":[[-121.929654218760007,47.608180444068402],[-121.929533152838005,47.608159245831203],[-121.929414505492005,47.6081323733857],[-121.929298784641006,47.608100071348296],[-121.929187005586002,47.608062420428801],[-121.929079171932003,47.608019590593898],[-121.928975795808995,47.607971834650002],[-121.928807576267999,47.607877108553502],[-121.928719650790001,47.607816991800597],[-121.928581422874004,47.6077024854347],[-121.928461141162003,47.607573793015398],[-121.928407435880999,47.607501993020499],[-121.928358662457995,47.607424110910401],[-121.928298543178002,47.607290627990402],[-121.928285831230994,47.607262403182901],[-121.928257291595003,47.607158449525002],[-121.928237555888998,47.606557635802901],[-121.928253089066999,47.605176493730099],[-121.928250555106004,47.603080562974696],[-121.928263734454006,47.602262018518701],[-121.928266581661006,47.602242431348202],[-121.928391215340994,47.6013847968497],[-121.928524758744004,47.600940373219501],[-121.928644401344002,47.600557858006098]]}},
{"type":"Feature","properties":{"FULLNAME_L":"West Snoqualmie Rvr Rd NE","FULLNAME_R":"West Snoqualmie Rvr Rd NE","CITY_L":"King County","CITY_R":"King County"},"geometry":{"type":"LineString","coordinates":[[-121.992018507902003,47.737674434503703],[-121.991922592955007,47.737726660232902],[-121.991832423581002,47.737847163118097],[-121.991836362536006,47.7380236557484],[-121.991947585701993,47.738324872480597],[-121.992018087491999,47.738456104848197],[-121.992726009202997,47.739738324847202],[-121.992912196736995,47.7401125671202],[-121.992917473578999,47.740121342033902],[-121.992920338608002,47.740128049480099],[-121.992959834469005,47.740220641167902],[-121.992971957915998,47.740285893081101],[-121.992965327286996,47.740398461454603],[-121.992945427855005,47.740462922976903],[-121.992914303310997,47.740525272265202],[-121.992739606003994,47.740756502468003],[-121.992731955099998,47.740765732306599],[-121.992461060783,47.741092714984603],[-121.992044586004994,47.741486794871101],[-121.991899483509002,47.741632897750897],[-121.991801517382001,47.7417738086613],[-121.991763025460997,47.741847457290802],[-121.99170797184,47.7419989872336],[-121.991692422735994,47.742076340079201],[-121.991675116796003,47.743577643137897],[-121.991681893220004,47.743767442943401]]}},
{"type":"Feature","properties":{"FULLNAME_L":"West Snoqualmie Val Rd NE","FULLNAME_R":"West Snoqualmie Val Rd NE","CITY_L":"King County","CITY_R":"King County"},"geometry":{"type":"LineString","coordinates":[[-121.988073283521004,47.686580695475897],[-121.988102994982995,47.686615823839603],[-121.988114460478002,47.686629287751103],[-121.988354447182004,47.686899321203001],[-121.988840435116003,47.6873899734234],[-121.990411023042,47.6889937516682],[-121.993266391581002,47.6918456654371],[-121.995251844981993,47.693831905830002],[-121.995307990024997,47.693888069401901],[-121.995834132210007,47.694408152716001],[-121.996209173853998,47.694778872514597],[-121.997008162895,47.695593256468399],[-121.997633389574005,47.696218855351603],[-121.997743407339996,47.696318481498501],[-121.998476980055997,47.696982736041001],[-121.999174257497998,47.697582486377598],[-121.999417062922006,47.697814938966502],[-121.999657397359002,47.698072906820101],[-121.999806050177995,47.698249561301999],[-122.000230810980995,47.698807410851003],[-122.000456818353996,47.6991503933275],[-122.000595052074004,47.699382757143397],[-122.001070545060003,47.700118857567702],[-122.001634070681007,47.701021303513102],[-122.001690862230006,47.701116210002098],[-122.002086168388999,47.701776832297099],[-122.002102616417005,47.701812860861097],[-122.002192974587004,47.702010802408601],[-122.002256166343003,47.702201954109803],[-122.002300857302004,47.7024053703718],[-122.002356147978006,47.702809221173602],[-122.002427696601998,47.7030332297795],[-122.002507663472997,47.703202272197402],[-122.002559432077007,47.703291833943901],[-122.002936779324997,47.703905338953803],[-122.003584343845006,47.7048917866247]]}},
{"type":"Feature","properties":{"FULLNAME_L":"NE Tolt Hill Rd","FULLNAME_R":"NE Tolt Hill Rd","CITY_L":"King County","CITY_R":"King County"},"geometry":{"type":"LineString","coordinates":[[-121.948686971458997,47.631061016852698],[-121.948545981102001,47.631130045978402],[-121.948384743426004,47.631200641395097],[-121.948274083198001,47.631241820983902],[-121.948116958141995,47.631291428567501],[-121.947983841240003,47.631325718351697],[-121.947779864355994,47.631365713657402],[-121.947446037834993,47.631403212263102],[-121.947097640440006,47.631423244760398]]}},
{"type":"Feature","properties":{"FULLNAME_L":"Mill Pond Dr SE","FULLNAME_R":"Mill Pond Dr SE","CITY_L":"Auburn","CITY_R":"Auburn"},"geometry":{"type":"LineString","coordinates":[[-122.217706087121002,47.263834718701403],[-122.218172576121006,47.262856298833697]]}},
{"type":"Feature","properties":{"FULLNAME_L":"NE Tolt Hill Rd","FULLNAME_R":"NE Tolt Hill Rd","CITY_L":"King County","CITY_R":"King County"},"geometry":{"type":"LineString","coordinates":[[-121.947097640440006,47.631423244760398],[-121.946813131189998,47.631425674238898]]}},
{"type":"Feature","properties":{"FULLNAME_L":"Mill Pond Dr SE","FULLNAME_R":"Mill Pond Dr SE","CITY_L":"Auburn","CITY_R":"Auburn"},"geometry":{"type":"LineString","coordinates":[[-122.217368770996998,47.264542184825999],[-122.217706087121002,47.263834718701403]]}},
{"type":"Feature","properties":{"FULLNAME_L":"Mill Pond Dr SE","FULLNAME_R":"Mill Pond Dr SE","CITY_L":"Auburn","CITY_R":"Auburn"},"geometry":{"type":"LineString","coordinates":[[-122.216911421337997,47.265626720262198],[-122.216914468735993,47.265541713397603],[-122.216933655822004,47.265442084514603],[-122.216957387028998,47.265376864377302],[-122.216998216356998,47.265281159524299],[-122.217075488335993,47.2651355014209]]}},
{"type":"Feature","properties":{"FULLNAME_L":"West Snoqualmie Val Rd NE","FULLNAME_R":"West Snoqualmie Val Rd NE","CITY_L":"King County","CITY_R":"King County"},"geometry":{"type":"LineString","coordinates":[[-122.004129851450003,47.749290437358802],[-122.004132048174,47.749545489088398],[-122.004163525376995,47.750062248608899],[-122.004314256643994,47.752057926173897],[-122.004360025663004,47.752442162548299],[-122.004406242585006,47.752756135929999],[-122.004704599655994,47.754176323117598],[-122.004871750858996,47.754894327049598],[-122.004900638582001,47.755183368832903],[-122.004901241951998,47.7553676685082],[-122.004887610162001,47.755551763381099],[-122.004862488398999,47.755722185007301],[-122.004419304327001,47.756834721416503]]}},
{"type":"Feature","properties":{"FULLNAME_L":"NE Tolt Hill Rd","FULLNAME_R":"NE Tolt Hill Rd","CITY_L":"King County","CITY_R":"King County"},"geometry":{"type":"LineString","coordinates":[[-121.950864098755005,47.629905685421299],[-121.9497196688,47.630513678673204],[-121.948801298592997,47.631001721652098],[-121.948686971458997,47.631061016852698]]}},
{"type":"Feature","properties":{"FULLNAME_L":"West Snoqualmie Val Rd NE","FULLNAME_R":"West Snoqualmie Val Rd NE","CITY_L":"King County","CITY_R":"King County"},"geometry":{"type":"LineString","coordinates":[[-122.008929697165001,47.743846003990797],[-122.008923250295993,47.743853009903297],[-122.008677222665,47.744050815379701],[-122.008511277677997,47.744217032495897],[-122.008304280071002,47.744455471515401],[-122.008079886024007,47.744733587545099],[-122.007610040512006,47.745347615329898],[-122.007275297562998,47.745779640849399],[-122.007139100550006,47.745936208463803],[-122.006961926672005,47.746123357152797],[-122.006676842440996,47.746392331007897],[-122.006205021027,47.746785403676],[-122.005459219464996,47.747354965396397],[-122.004928756845999,47.747762341214802],[-122.004827098754006,47.747851210116302],[-122.004732626104001,47.747943429648899],[-122.004644837374002,47.748038752734303],[-122.004564732521004,47.7481369936487],[-122.004491799985999,47.748237820419199],[-122.004426543763003,47.748341046928502],[-122.004369464449994,47.748446336295501],[-122.004320050024006,47.748553515571501],[-122.004195763414003,47.748900857168699],[-122.004152372223004,47.749094856416299],[-122.004129851450003,47.749290437358802]]}},
{"type":"Feature","properties":{"FULLNAME_L":"Snoqualmie River Rd","FULLNAME_R":"Snoqualmie River Rd","CITY_L":"Kent","CITY_R":"Kent"},"geometry":{"type":"LineString","coordinates":[[-122.151376926791997,47.348407088300803],[-122.151408890683001,47.349020470798003]]}},
{"type":"Feature","properties":{"FULLNAME_L":"Mill Pond Dr SE","FULLNAME_R":"Mill Pond Dr SE","CITY_L":"Auburn","CITY_R":"Auburn"},"geometry":{"type":"LineString","coordinates":[[-122.218597572730999,47.261958892539703],[-122.218932464161,47.261275937425197]]}},
{"type":"Feature","properties":{"FULLNAME_L":"Snoqualmie River Rd","FULLNAME_R":"Snoqualmie River Rd","CITY_L":"Bellevue","CITY_R":"Bellevue"},"geometry":{"type":"LineString","coordinates":[[-122.150231524649001,47.6031739051339],[-122.150240321916002,47.603201137225298],[-122.150224870005999,47.603231348012301],[-122.150180564357001,47.6032427845158],[-122.150131584907996,47.603229729682702],[-122.150118826311996,47.603186133210301],[-122.150145787593999,47.603150305448203],[-122.150198272313006,47.603141513440399],[-122.150227515810002,47.603015478431303],[-122.150234835449993,47.602824102905601],[-122.150230251146994,47.602642933388999]]}},
{"type":"Feature","properties":{"FULLNAME_L":"Meadowbrook Way SE","FULLNAME_R":"Meadowbrook Way SE","CITY_L":"Snoqualmie","CITY_R":"Snoqualmie"},"geometry":{"type":"LineString","coordinates":[[-121.813874039504,47.524070022141203],[-121.813736643699997,47.524230260243897],[-121.813685750459001,47.5242881691848],[-121.813563957932999,47.5244203473789],[-121.813281694660006,47.524725104400197]]}},
{"type":"Feature","properties":{"FULLNAME_L":"Tolt River Rd NE","FULLNAME_R":"Tolt River Rd NE","CITY_L":"King County","CITY_R":"King County"},"geometry":{"type":"LineString","coordinates":[[-121.876533309359004,47.6564542798126],[-121.876102211735997,47.656912667806502],[-121.876061317411995,47.656973102707099],[-121.875790870233004,47.657879923987302],[-121.875593012620996,47.6584101168323],[-121.875571402025997,47.658470805530399],[-121.875512198720998,47.658579388148802],[-121.875420822953004,47.658677298138002],[-121.875373873328996,47.658713926829897],[-121.875182149604996,47.658816483388797],[-121.875105296483994,47.658854413640597],[-121.874984656467007,47.658960262302202],[-121.874934162808998,47.659022583133897],[-121.874900828372006,47.659080505564702],[-121.874878191994,47.659140688053597],[-121.874846119688002,47.659590798894598],[-121.874780341662003,47.65990310291],[-121.874679497062004,47.6601616192983],[-121.874650474190005,47.660206909430002],[-121.874569670469,47.660300996019103],[-121.874496561260997,47.660374018738402],[-121.874357881931999,47.660491250762],[-121.874138581669996,47.660635783995303],[-121.874024138622005,47.660696720146497],[-121.873898958309994,47.660753468935603],[-121.873763472551005,47.660802259237499],[-121.873691803829999,47.6608206062715],[-121.873527439515001,47.6608459248393],[-121.873435716396997,47.660850790034999],[-121.873101059405002,47.660858687292297],[-121.872925827602998,47.660873309976097],[-121.872767225263999,47.660907743217699],[-121.872684569653003,47.660934798922298],[-121.872625234265996,47.660961087961098],[-121.872504977125999,47.661035828156301],[-121.872407323391002,47.661124709532601],[-121.872331890146,47.661233953896897],[-121.872293453650002,47.661341404899403],[-121.872251034121007,47.661706483735202],[-121.872252266253994,47.662021985914897],[-121.872285634445007,47.662791810335399],[-121.872289088477004,47.662871629128901],[-121.872308751394996,47.663325250832102],[-121.872327312243996,47.663543394945101],[-121.872419472152004,47.664016789508402],[-121.872425085231001,47.664119937219098],[-121.872418340139006,47.664188583251601],[-121.872395796776004,47.664279055030697],[-121.872278014700001,47.664614703253903],[-121.872150940132002,47.664838005752699],[-121.871939061046007,47.665160789262799],[-121.871903288428001,47.6652240053226]]}},
{"type":"Feature","properties":{"FULLNAME_L":"SE Reinig Rd","FULLNAME_R":"SE Reinig Rd","CITY_L":"King County","CITY_R":"King County"},"geometry":{"type":"LineString","coordinates":[[-121.777004353874005,47.522622620310102],[-121.777068869223001,47.522619359138602],[-121.777292436381998,47.522616089726],[-121.777497394275002,47.522618926762497],[-121.777701948781996,47.522627422905998],[-121.777905593257998,47.522641535762901],[-121.778192512049003,47.522672179035297],[-121.778783881806007,47.522751607380101],[-121.779022878752997,47.522790058185201],[-121.779703699617997,47.522919505145801],[-121.779798330137993,47.522948403918498],[-121.780002631263997,47.523026427535399],[-121.780185920370002,47.523117728498796],[-121.780288487552994,47.5231933450764],[-121.780387639777004,47.523276140383999],[-121.780493735226003,47.523379053886501],[-121.780957323196006,47.523999138409998],[-121.781281685737,47.524418697997],[-121.781337943286005,47.524479615227797],[-121.781434671471004,47.524567998275998],[-121.781538817666998,47.524646939977202],[-121.781740857227007,47.524767001456901],[-121.781885759746004,47.524833434942501],[-121.781922969370001,47.524848505201],[-121.782319827340999,47.524969894402602],[-121.782652270168995,47.525059202493203],[-121.782717441754997,47.525076709258201],[-121.783103253777,47.525146825040402],[-121.783444065967004,47.525190841997698],[-121.784267756863002,47.5252727158678],[-121.784689377305995,47.525336311129699],[-121.785066730579999,47.525413986926303],[-121.785225809408999,47.525452880429803],[-121.787047065123005,47.525937668156303]]}},
{"type":"Feature","properties":{"FULLNAME_L":"NE Tolt Hill Rd","FULLNAME_R":"NE Tolt Hill Rd","CITY_L":"King County","CITY_R":"King County"},"geometry":{"type":"LineString","coordinates":[[-121.952646725899996,47.629034280229398],[-121.951105412614993,47.629786664526897],[-121.951020618285,47.629828020571999],[-121.950864098755005,47.629905685421299]]}},
{"type":"Feature","properties":{"FULLNAME_L":"West Snoqualmie Rvr Rd SE","FULLNAME_R":"West Snoqualmie Rvr Rd SE","CITY_L":"King County","CITY_R":"King County"},"geometry":{"type":"LineString","coordinates":[[-121.925361039205001,47.591193986935899],[-121.925374983056997,47.591037572371697],[-121.925420848992999,47.590813595798799],[-121.925576262931003,47.590054643921903],[-121.925652457997003,47.589629752696098],[-121.926160415506999,47.5871362511093]]}},
{"type":"Feature","properties":{"FULLNAME_L":"NE Tolt Hill Rd","FULLNAME_R":"NE Tolt Hill Rd","CITY_L":"King County","CITY_R":"King County"},"geometry":{"type":"LineString","coordinates":[[-121.958675738961006,47.626402830674401],[-121.958635807294996,47.626455193173001],[-121.958595730862001,47.626524303890399],[-121.958556178766997,47.6266176604679],[-121.958529343378999,47.626712986048297],[-121.958514697303997,47.626809520897197],[-121.958512745763997,47.626906618449198],[-121.958522866869998,47.626999525119899],[-121.958559520422,47.627498723634098],[-121.958549277668993,47.627634581456597],[-121.958531057892003,47.627706352214602],[-121.958485774318007,47.627816043365499],[-121.958418149300996,47.627900719958298],[-121.958310171456006,47.627994922703103],[-121.958179587866994,47.628075340963498],[-121.958030907489004,47.628139481701297],[-121.957937709565002,47.628166964860498],[-121.957840842048995,47.628188869025102],[-121.957741823937994,47.628205102411798],[-121.957641665045998,47.628215471342301],[-121.957539858708003,47.628219989043103],[-121.957437924638995,47.628218596634198],[-121.957336875741007,47.628211242987497],[-121.957236714711001,47.628198051459201],[-121.957096894187998,47.628174854538202],[-121.956928717270003,47.628148189330297],[-121.956764790560001,47.628124316931],[-121.956567349317993,47.628100772262201],[-121.956357525192999,47.628085846195297],[-121.956139568086996,47.628082331742],[-121.955946805039005,47.628081400670403],[-121.955749914275998,47.628083342231498],[-121.955528134920002,47.628096857848597],[-121.955291737655998,47.628119002919199],[-121.955097212951003,47.628149796453599],[-121.954944598899004,47.628183294112603]]}},
{"type":"Feature","properties":{"FULLNAME_L":"Tolt River Rd NE","FULLNAME_R":"Tolt River Rd NE","CITY_L":"King County","CITY_R":"King County"},"geometry":{"type":"LineString","coordinates":[[-121.887626041556999,47.645653763520102],[-121.887526659927005,47.6456297063188],[-121.887190959107002,47.645556173670599],[-121.887109625039002,47.6455467736915],[-121.887027393205003,47.645543123173901],[-121.886944771463007,47.645545258542803],[-121.886863281,47.645553168465],[-121.886787097855006,47.645561706440397],[-121.886680270906993,47.645586874109398],[-121.886595432901004,47.645624617560003],[-121.886159173221998,47.645919660585903],[-121.885865361482004,47.646111644718403],[-121.885787421139995,47.6461697251099],[-121.885698210141001,47.646247277280096],[-121.885634621403995,47.646312852461399],[-121.885527895731002,47.646452208957399],[-121.885475991454001,47.646543854244399],[-121.885443027831002,47.646619131775303],[-121.885351327812998,47.646974815369198],[-121.885316405471002,47.647078641531799],[-121.885252094417993,47.647208867973802],[-121.885151067576004,47.647354299238899],[-121.885086108053002,47.647427426547097],[-121.885014486499998,47.647497358151803],[-121.884879423580003,47.647589727242099],[-121.884722711641999,47.647665110805498],[-121.884549381705995,47.647721293592497],[-121.884457995286994,47.647741628208998],[-121.884173360849999,47.647786233955799],[-121.883176378982,47.647867148098001],[-121.882521578872002,47.647965502808098],[-121.882194189966,47.648002705454999],[-121.882014735979993,47.6480322444175],[-121.881699145035,47.648101036999499],[-121.881516558588999,47.648151128682798],[-121.880893226403998,47.6484271863564],[-121.880140391661996,47.648921752364302],[-121.879602155114,47.649243320329198],[-121.879472976073004,47.649326934756502],[-121.879342501083997,47.649421179695501],[-121.879135066020993,47.649597870744998],[-121.878973123324997,47.649766946640902],[-121.878754445460004,47.650015239285501],[-121.878676421804997,47.650120314340299],[-121.878505275842002,47.650412037996396],[-121.878375519694998,47.650567709340102],[-121.878283222348998,47.6506692713183],[-121.878021615603998,47.650926823157299],[-121.877913953467001,47.651021246449801],[-121.877332436744993,47.651437455805002],[-121.876929555575003,47.6517326719434],[-121.876629288727997,47.652010710046902],[-121.876575313261995,47.652076019191497],[-121.876538417299997,47.652133078249697],[-121.876486543696004,47.652252602422102],[-121.876469768876007,47.652326613017301],[-121.876484088704998,47.6526358705703],[-121.876619226144996,47.653455654459002],[-121.876643348062004,47.654025843903199],[-121.876699038642997,47.654728375723302],[-121.876721322506995,47.655383833582597],[-121.876675459731004,47.656106358989],[-121.876669807856999,47.656153319159102],[-121.876621996393993,47.656298512666602],[-121.876533309359004,47.6564542798126]]}},
{"type":"Feature","properties":{"FULLNAME_L":"SE Reinig Rd","FULLNAME_R":"SE Reinig Rd","CITY_L":"King County","CITY_R":"King County"},"geometry":{"type":"LineString","coordinates":[[-121.794591039110998,47.527796669611803],[-121.794118350838005,47.527683736867502],[-121.792166790134004,47.527217450377101],[-121.792052078648993,47.527190932824197],[-121.790853741321996,47.526913910820603],[-121.787093846876999,47.525950128537197],[-121.787047065123005,47.525937668156303]]}},
{"type":"Feature","properties":{"FULLNAME_L":"NE Tolt Hill Rd","FULLNAME_R":"NE Tolt Hill Rd","CITY_L":"King County","CITY_R":"King County"},"geometry":{"type":"LineString","coordinates":[[-121.962780657820005,47.625282128037199],[-121.962549023787005,47.625284212342798],[-121.962250906874004,47.625306361911399],[-121.962094192855005,47.625326763096503],[-121.960967752914996,47.625538124643398],[-121.960353018334999,47.625664675858602],[-121.960315589380002,47.6256742670571],[-121.960065141382998,47.6257384283021],[-121.959868105747006,47.625793201688801],[-121.959528838327998,47.6259052019861],[-121.959371969036994,47.625965400640403],[-121.959069143121994,47.626098158990303],[-121.958994963479,47.626137491392598],[-121.958816161949997,47.626261913052197],[-121.958714817238999,47.626357893117699],[-121.958675738961006,47.626402830674401]]}},
{"type":"Feature","properties":{"FULLNAME_L":"SE Reinig Rd","FULLNAME_R":"SE Reinig Rd","CITY_L":"King County","CITY_R":"King County"},"geometry":{"type":"LineString","coordinates":[[-121.805652331774994,47.530100533489801],[-121.805470002039996,47.529995399983903],[-121.805399024758998,47.529945184156901],[-121.805280321,47.529867438537103],[-121.805150948404005,47.529794990558003],[-121.805078554036996,47.5297660074948],[-121.804988985115003,47.529738840962899],[-121.804908716461,47.529721536275403],[-121.803484414169006,47.529565132713799],[-121.802764532371995,47.529504335649698],[-121.802189014871004,47.529455723769097]]}},
{"type":"Feature","properties":{"FULLNAME_L":"West Snoqualmie Rvr Rd SE","FULLNAME_R":"West Snoqualmie Rvr Rd SE","CITY_L":"King County","CITY_R":"King County"},"geometry":{"type":"LineString","coordinates":[[-121.928954021329005,47.599331105079003],[-121.929012082403005,47.599104522786597],[-121.929168601262006,47.598741101885302],[-121.929570439119004,47.598020729745897],[-121.930161266593004,47.597108408936201],[-121.930224159844997,47.596991277377398],[-121.930275850355002,47.596871509289997],[-121.930314828584002,47.5967495990553],[-121.930343640424994,47.596625944369897],[-121.930359759770994,47.596501463418299],[-121.930363716474005,47.5963766747752],[-121.930356528659999,47.596251993599097],[-121.930336180078001,47.596127910915399],[-121.930305212663001,47.596004829922897],[-121.930236540706005,47.595823636030602],[-121.930027189021999,47.595458257395201],[-121.929882302120006,47.595266743203098],[-121.929739689338007,47.595110981517003],[-121.929622926975,47.595003806930301],[-121.929498158580003,47.594901381346197],[-121.929364381734004,47.594804221623797],[-121.929221609261006,47.594712936280303],[-121.928714487226998,47.594430376192797],[-121.928677571300994,47.594409806473003],[-121.928647422563003,47.594393007318601],[-121.928508679968999,47.594300305933899],[-121.928378932417004,47.594202039745703],[-121.928259202744002,47.594097891861999],[-121.928147489988007,47.593989852902702],[-121.928046815808003,47.593876479060903],[-121.92795621,47.593760014242001],[-121.927876667386002,47.593639582499101],[-121.927777501109006,47.5934532848324],[-121.927147571727005,47.591926136200499],[-121.927087094483994,47.591845024005799],[-121.927014555271001,47.591768137660502],[-121.926933999631004,47.591695698716897],[-121.926843423500998,47.591628581854401],[-121.926778122913007,47.591590059874299],[-121.926691584945004,47.591539006477497],[-121.926581066512995,47.5914874185355],[-121.926403415387,47.591423323340699],[-121.926213965179002,47.591376348414499],[-121.925449552426997,47.591259496149704],[-121.925411713231,47.591242852251902],[-121.925381863362006,47.591220648109299],[-121.925361039205001,47.591193986935899]]}},
{"type":"Feature","properties":{"FULLNAME_L":"Meadowbrook Way SE","FULLNAME_R":"Meadowbrook Way SE","CITY_L":"King County","CITY_R":"King County"},"geometry":{"type":"LineString","coordinates":[[-121.827255725084996,47.513000393439199],[-121.827154227055999,47.513137764396902],[-121.826783661875993,47.513172130138599]]}},
{"type":"Feature","properties":{"FULLNAME_L":"West Snoqualmie Rvr Rd NE","FULLNAME_R":"West Snoqualmie Rvr Rd NE","CITY_L":"King County","CITY_R":"King County"},"geometry":{"type":"LineString","coordinates":[[-121.987735911409999,47.747562140425003],[-121.987684223539006,47.747591452100203],[-121.987630137091003,47.747650007189698],[-121.987615703683005,47.747686481824097],[-121.987770768554,47.748855053446199],[-121.987854243743001,47.749569298450801],[-121.987855587572,47.749584019189101],[-121.987922516338998,47.750422414929801],[-121.988020029023005,47.751424750285103],[-121.988160712520994,47.752197364393801],[-121.988299286932005,47.752806523697799],[-121.988807248257004,47.754667163488399],[-121.988845205914998,47.754774136322403],[-121.988872076912003,47.754885336827897],[-121.988865244684007,47.755171919435803],[-121.988701348673999,47.757078258731397],[-121.988670610567993,47.757295601092999],[-121.988647766121005,47.757388112493999],[-121.988624718232998,47.757448662266803],[-121.988482037615,47.757683158014402],[-121.988368196639001,47.757797666493801],[-121.988191202596994,47.757952054337302],[-121.988032603807,47.758065214051904],[-121.987907875787997,47.758147361304999],[-121.987551615933995,47.758354284612103],[-121.987316958118001,47.758452620049098],[-121.987226118324998,47.7584818995687],[-121.987155821181005,47.7584976873923],[-121.987030155151999,47.758514895862],[-121.986901727394994,47.758522193157503],[-121.986730917713004,47.758520662420999],[-121.986622946907005,47.758510786510101],[-121.986514804833007,47.758493202343899],[-121.985940105010002,47.758362347043096],[-121.985818481503998,47.758332730368899],[-121.985683357214,47.758290226444899],[-121.985548020102996,47.758238128284802],[-121.985364126598995,47.758150877029799],[-121.985161088710001,47.758025433810701],[-121.984930563850995,47.757852286492501],[-121.984831990497,47.757762117040599],[-121.984727918456002,47.757652810534701],[-121.984630439742006,47.757520132299803],[-121.984555517152998,47.757396137219303],[-121.984344234450006,47.7569904316369],[-121.984314866963004,47.756949598421997],[-121.984256983500003,47.7569063165095],[-121.984207701277001,47.756884191124598],[-121.984163275989999,47.756871878915497],[-121.984143266426003,47.756866333938198],[-121.984081092102997,47.7568587355901],[-121.983898408171996,47.756871544757203],[-121.980008955412998,47.757452880042102],[-121.977970394546006,47.7577536923623],[-121.977537164430998,47.757836863019001],[-121.976456440228006,47.7580594958891],[-121.976367059962996,47.758073869740599],[-121.975915539013002,47.758146483345499],[-121.975851859846998,47.758162883358999],[-121.975781247737999,47.758187580806698],[-121.975661365470003,47.758236764679303],[-121.974873534162995,47.758651113332803],[-121.974097457292999,47.759092073939499],[-121.973909388823998,47.759193156567399],[-121.973521784279001,47.759401478310203],[-121.972643494487997,47.759910623353498],[-121.972428084114995,47.7600539748952],[-121.972312070643994,47.760140813172697],[-121.972098622266998,47.760327327393298],[-121.972026024160996,47.760400705987102],[-121.971934762252999,47.760503750268398],[-121.971501062125995,47.761030383851903],[-121.971225091311993,47.761379284367202],[-121.970938567898997,47.761757077951103],[-121.970655549979995,47.762109474453702],[-121.97047094525,47.762290729936304],[-121.970163500557007,47.7624797177453],[-121.969684040214005,47.762682412796401],[-121.969280448394997,47.762821635444702],[-121.968958949143001,47.762902975373002],[-121.968564089213999,47.762976816071102],[-121.967518416323998,47.763135270741103],[-121.967154134164005,47.763212918039997],[-121.966851193680995,47.763306405555802],[-121.966508808743001,47.763455804703497],[-121.965538815919999,47.764008301419103],[-121.965218933052995,47.764164327798603],[-121.965054693558997,47.764231758915798],[-121.964617666378999,47.764377292599399],[-121.963794247451006,47.7646130180188],[-121.963211014761995,47.764720924116197],[-121.961972323374994,47.764936704010402],[-121.961913617210001,47.764946932799297],[-121.961793601783,47.764991302282802],[-121.961725234176996,47.765026250292003],[-121.961665108988996,47.765066600305097],[-121.961622252134006,47.765106094136499],[-121.961576673788997,47.765160694562297],[-121.961533888215996,47.765250224868304],[-121.961533792634995,47.765339333180101],[-121.961542010366998,47.765389971862],[-121.961566160263999,47.7654719888356],[-121.961820720424996,47.765910896397401],[-121.961838474149999,47.765979264989902],[-121.961854141920995,47.7661854279037],[-121.961851909640998,47.766269759253099],[-121.961840094191004,47.766380917564099],[-121.961796926874001,47.766593145715902],[-121.961607361714997,47.767226311134998],[-121.961352879638,47.767960192150298],[-121.961119006768001,47.768660279506598],[-121.960926376372996,47.769293479317398],[-121.960847256291004,47.769629438805403],[-121.960862969595993,47.7697910476614],[-121.960882175527999,47.769832669841499],[-121.960946734027999,47.769902632518601],[-121.961072716092005,47.769991866106203],[-121.961147816183001,47.770032250559503],[-121.961255638880004,47.770081222353802],[-121.961410486133005,47.770142067259798],[-121.961525194670998,47.770180003695103],[-121.961840248621996,47.770267367539503],[-121.962066049501004,47.770317913881499],[-121.962428513275995,47.770387668524101],[-121.962872375361997,47.770460052000601],[-121.963038542312006,47.770479911221003],[-121.963177194926999,47.770497476255997],[-121.963286445579996,47.770518326191102],[-121.963456145514002,47.7705605144115],[-121.963660990240001,47.770629086578097],[-121.963743104488998,47.770664601804299],[-121.963898378647002,47.770744631508897],[-121.964354322453005,47.770997840650502],[-121.964574163490994,47.771147830141203],[-121.964678867116007,47.771240012473498],[-121.964724731136002,47.771291654183003],[-121.964784452977,47.771372627011999],[-121.964926009164003,47.771592706372701],[-121.964972963131999,47.771670981660897],[-121.965127943892,47.771970353906497],[-121.965252190179001,47.7722590636603],[-121.965771024361004,47.773599008827198],[-121.965822296869007,47.773688465733201],[-121.965987869494001,47.7739137891148],[-121.966619143561999,47.774604105039401],[-121.967149883668,47.775160211452899],[-121.967897635765993,47.775874552235102],[-121.968115333889997,47.776111092093899]]}},
{"type":"Feature","properties":{"FULLNAME_L":"West Snoqualmie Val Rd NE","FULLNAME_R":"West Snoqualmie Val Rd NE","CITY_L":"King County","CITY_R":"King County"},"geometry":{"type":"LineString","coordinates":[[-122.001342341717006,47.764161930362697],[-122.001048954273003,47.764835559706803],[-122.000971915942003,47.765048921299801],[-122.000918513513994,47.7652283691638],[-122.000870626503001,47.7654270353326],[-122.000837095831002,47.765608596675598],[-122.000811057836003,47.765874646264997],[-122.000810613587007,47.766148568927498],[-122.000825136917996,47.766341804008398],[-122.000851827893001,47.766534311429197],[-122.000916980122994,47.766876883640002],[-122.001055780583002,47.767668352477401],[-122.001204807042996,47.768642900695703],[-122.001338512570001,47.769997948706703],[-122.001525158437005,47.772145856062799],[-122.001540451620997,47.772463746620801],[-122.001540768251999,47.772658410117103],[-122.001531662776998,47.772863621719999],[-122.001515149938001,47.7730017902283],[-122.001490595030006,47.773207280562801],[-122.001434879819996,47.773487512757903],[-122.001356527097997,47.773755896243202],[-122.001315172603,47.773861104906999],[-122.001263711876007,47.773969076484697],[-122.001052273042006,47.774333155128303],[-122.000843837228004,47.774650076839798],[-122.000553043460002,47.775030490031],[-122.000493180424002,47.775108798780103],[-122.000343204540997,47.775380400533301],[-122.000335391459004,47.775394702038497]]}},
{"type":"Feature","properties":{"FULLNAME_L":"West Snoqualmie Val Rd NE","FULLNAME_R":"West Snoqualmie Val Rd NE","CITY_L":"King County","CITY_R":"King County"},"geometry":{"type":"LineString","coordinates":[[-122.004419304327001,47.756834721416503],[-122.004388716711006,47.756911501080197],[-122.003494689231005,47.759029104992699],[-122.003278045041,47.759547558369398]]}},
{"type":"Feature","properties":{"FULLNAME_L":"West Snoqualmie Rvr Rd NE","FULLNAME_R":"West Snoqualmie Rvr Rd NE","CITY_L":"King County","CITY_R":"King County"},"geometry":{"type":"LineString","coordinates":[[-121.933930409490998,47.622628029717198],[-121.933768744754005,47.622772052411399],[-121.933711851273998,47.622838404908201],[-121.933650820184994,47.622924847930797],[-121.933610257184,47.622996353311798],[-121.933570122545007,47.623088118951401],[-121.933546359876999,47.623163017983302],[-121.933521898031003,47.6233726570375],[-121.933535056340006,47.623754192317897],[-121.933552047283001,47.624246948790898]]}},
{"type":"Feature","properties":{"FULLNAME_L":"Meadowbrook Way SE","FULLNAME_R":"Meadowbrook Way SE","CITY_L":"Snoqualmie","CITY_R":"Snoqualmie"},"geometry":{"type":"LineString","coordinates":[[-121.823320254888003,47.512876925114],[-121.823242273551998,47.512892733574802],[-121.822953463744994,47.512974546251002],[-121.822717872615002,47.513061465798401],[-121.822477161655996,47.513172071271498],[-121.822285930115996,47.5132777544936],[-121.822036200832002,47.513446400193097],[-121.821880818967003,47.513575368619698],[-121.821823633077003,47.513630240052699],[-121.821788410560004,47.513664039402101],[-121.821433662985001,47.514069788349701],[-121.821375970459997,47.514135776137202],[-121.821202180773994,47.514334647535101],[-121.821041915308996,47.514526505635203],[-121.820904609614999,47.514690941367903],[-121.820457238223,47.515226698578402],[-121.818881065539003,47.517053216359798],[-121.818193342342994,47.517858152848198],[-121.817881760068005,47.518222826166401],[-121.817849504050002,47.518261632325498],[-121.817518069562993,47.5186649628114],[-121.817383131021998,47.518842058140201]]}},
{"type":"Feature","properties":{"FULLNAME_L":"Meadowbrook Way SE","FULLNAME_R":"Meadowbrook Way SE","CITY_L":"Snoqualmie","CITY_R":"Snoqualmie"},"geometry":{"type":"LineString","coordinates":[[-121.812271919178002,47.526096670465598],[-121.812261910641993,47.526162444049],[-121.812256579074003,47.526215324864999],[-121.812254683961001,47.526301496116098],[-121.812256266039,47.526385732601],[-121.812261843781997,47.526495638908102],[-121.812325815538998,47.527207647402101],[-121.812327679831,47.527269510443404],[-121.812323878789002,47.527329042494401],[-121.812314375609006,47.527384339066003],[-121.812297169230007,47.5274385600881],[-121.812271332199998,47.527499709755901],[-121.812231931964007,47.527557168037802],[-121.812176806034003,47.527615523986597],[-121.812121654769001,47.527660628053503],[-121.812036931921,47.527714669153397],[-121.811947706663005,47.527753516695398],[-121.811852766724002,47.527784341094602],[-121.811745295662007,47.5278096377357],[-121.811559284788999,47.527843987146703],[-121.811399030939,47.527872784632599]]}},
{"type":"Feature","properties":{"FULLNAME_L":"SE Mill Pond Rd","FULLNAME_R":"SE Mill Pond Rd","CITY_L":"Snoqualmie","CITY_R":"Snoqualmie"},"geometry":{"type":"LineString","coordinates":[[-121.832687930828001,47.540710904374997],[-121.832581889029996,47.540695645589999],[-121.832470385733004,47.540687487120401],[-121.832279011813995,47.540678506935599],[-121.832121402596002,47.540670753395098],[-121.831964729131002,47.540653090367599],[-121.831827084259004,47.540630690856503],[-121.831684781364999,47.540599954081699],[-121.831575683625005,47.5405735719944]]}},
{"type":"Feature","properties":{"FULLNAME_L":"Meadowbrook Way SE","FULLNAME_R":"Meadowbrook Way SE","CITY_L":"Snoqualmie","CITY_R":"Snoqualmie"},"geometry":{"type":"LineString","coordinates":[[-121.813281694660006,47.524725104400197],[-121.812685512160002,47.525375947677603]]}},
{"type":"Feature","properties":{"FULLNAME_L":"Meadowbrook Way SE","FULLNAME_R":"Meadowbrook Way SE","CITY_L":"Snoqualmie","CITY_R":"Snoqualmie"},"geometry":{"type":"LineString","coordinates":[[-121.816244368029999,47.520576152519297],[-121.815212367711993,47.522132622323397],[-121.814561973037002,47.523119166349097],[-121.814344213552999,47.523437105648298],[-121.814210706525998,47.523631702150801],[-121.814105102962003,47.523775419505299],[-121.813986181047994,47.5239330699616],[-121.813874039504,47.524070022141203]]}},
{"type":"Feature","properties":{"FULLNAME_L":"SE Mill Pond Rd","FULLNAME_R":"SE Mill Pond Rd","CITY_L":"Snoqualmie","CITY_R":"Snoqualmie"},"geometry":{"type":"LineString","coordinates":[[-121.829898622491996,47.539994250347803],[-121.829724761034001,47.5399126856245],[-121.829549927036993,47.539827396997197],[-121.829381825433998,47.539741288269902],[-121.829135261142994,47.539610170601399],[-121.828845036914998,47.539448476740901],[-121.828059204100995,47.539008876361201],[-121.827937040917007,47.538939803502899],[-121.827828978737003,47.5388760137877],[-121.827712915440003,47.5388054403684],[-121.827601202897995,47.538730144537297],[-121.827505719369995,47.538662436901703],[-121.827425564639,47.538599279324899],[-121.827361562568001,47.5385457662885],[-121.827307072910003,47.538492817060401],[-121.827232511451001,47.5384163583225],[-121.827134915326994,47.538311541854398],[-121.826972671448004,47.538133987277902],[-121.825832122573999,47.536898108711],[-121.825587350326003,47.536626722070899],[-121.825348882738993,47.536358440404001],[-121.825246001661,47.536238359441199],[-121.825170483359997,47.536143896716297],[-121.825082347025997,47.536030351348003],[-121.825006121024998,47.535925155380497],[-121.824916371936993,47.535791975432304],[-121.824410933717999,47.535024057660898],[-121.824278036657006,47.534824614706601],[-121.823689844366996,47.5339796192794],[-121.823386579735001,47.533537466852998],[-121.823331232724996,47.533453440405196],[-121.823287441196001,47.533368143229502],[-121.823252251561001,47.533288596565598],[-121.823213714383996,47.533186956126798],[-121.823180896637993,47.533087283757098],[-121.823144888249999,47.532967647246601],[-121.822976397401007,47.532385547617402],[-121.822935854261004,47.532260923604603],[-121.822899103919994,47.532164408231203],[-121.822865386884004,47.532091398600201],[-121.822824697482005,47.5320213058639],[-121.822785576377001,47.531959768012499],[-121.822742239757005,47.531898266170799],[-121.822670323794,47.5318122616126],[-121.822601400817007,47.531735750884003],[-121.822533990953005,47.531664938626903],[-121.822459500462003,47.531591332471102],[-121.822380901982996,47.531523473711403],[-121.822278177029006,47.531443448775903],[-121.822154190009002,47.531354089543299],[-121.822027555887999,47.5312733203966],[-121.821865372065005,47.531170965730503],[-121.821058119254999,47.530703897173098],[-121.820927326022002,47.5306260191687],[-121.820815002041002,47.5305584524925],[-121.820701200729999,47.530487090985602],[-121.820610407068003,47.530425162475503],[-121.820511250690998,47.530355196553302],[-121.820434258896,47.530298302418501],[-121.820361050304001,47.530239165544003],[-121.820270376123005,47.530152879000902],[-121.820194394370006,47.530074524053902],[-121.820112540636003,47.529982892568697],[-121.820029009782999,47.529888723738203],[-121.819867975765007,47.529698201878901],[-121.819737084034998,47.529552221202898],[-121.819646304657994,47.529452610349999],[-121.819585535824004,47.529390687718497],[-121.819505425074993,47.529319870193603],[-121.819404060327997,47.529236975431999],[-121.819288678296999,47.529156105659702],[-121.819163616476999,47.529080574948097],[-121.819030679039997,47.529007854829601],[-121.818889545076004,47.528935852018101],[-121.818261166287002,47.528630687881403],[-121.818033225183001,47.528517902250101],[-121.817876545646001,47.5284372272273],[-121.817779744576995,47.528384297534103],[-121.817692198922998,47.5283332677771],[-121.817609359711,47.528281512438099],[-121.817526042802996,47.5282280853042],[-121.817462207408994,47.528182181250003],[-121.817374263722002,47.528113143684102],[-121.817285696341003,47.528037752043602],[-121.817187004740006,47.527947216405103],[-121.816814797277999,47.527588684621598],[-121.816755059789998,47.527533339254099],[-121.816680776286006,47.527470008389201],[-121.816611221364994,47.527418822793997],[-121.816552027927997,47.527380493870403],[-121.816491796633997,47.527346743652203],[-121.816422585742998,47.5273138326138],[-121.816327460547001,47.527278099702698],[-121.816231353937994,47.527249991003501],[-121.816148868184001,47.527228618000699],[-121.816024718803007,47.527207111117001],[-121.815881073048004,47.527192169814299],[-121.815730562802997,47.527185855546698],[-121.815554366713997,47.5271857791519],[-121.814689812734002,47.527192488636103],[-121.814376221922004,47.5271990051289],[-121.814169505788996,47.527208405706702],[-121.813980919882994,47.527225265216998],[-121.813803662086997,47.527246596406499],[-121.813604063792994,47.527275735872401],[-121.813420260344003,47.527307784777904],[-121.813285809902993,47.5273333156238],[-121.813135776948997,47.527367358000198],[-121.813014959905004,47.527400386059398],[-121.812890913435993,47.5274410583133],[-121.812761445430993,47.527492439692303],[-121.812647717054006,47.527543684567803],[-121.812540833406999,47.5276002015977],[-121.812255233653005,47.527780112597],[-121.812168473211997,47.527833485922301],[-121.812090472406993,47.527871285497902],[-121.811974510170003,47.527920378179097],[-121.811889567658994,47.527947765432998],[-121.811802247103003,47.527968318818999],[-121.811716961364993,47.527977430580798],[-121.811641678542998,47.527980363374503],[-121.811556121218004,47.527975007276503],[-121.811499593592998,47.527958739351298],[-121.811456429127006,47.527935502071898],[-121.811419810502002,47.527901545902502],[-121.811399030939,47.527872784632599]]}},
{"type":"Feature","properties":{"FULLNAME_L":"Meadowbrook Way SE","FULLNAME_R":"Meadowbrook Way SE","CITY_L":"Snoqualmie","CITY_R":"Snoqualmie"},"geometry":{"type":"LineString","coordinates":[[-121.817383131021998,47.518842058140201],[-121.817286773104996,47.518978456273601],[-121.816526342114003,47.520147222807502]]}},
{"type":"Feature","properties":{"FULLNAME_L":"Meadowbrook Way SE","FULLNAME_R":"Meadowbrook Way SE","CITY_L":"Snoqualmie","CITY_R":"Snoqualmie"},"geometry":{"type":"LineString","coordinates":[[-121.816526342114003,47.520147222807502],[-121.816244368029999,47.520576152519297]]}},
{"type":"Feature","properties":{"FULLNAME_L":"SE Reinig Rd","FULLNAME_R":"SE Reinig Rd","CITY_L":"Snoqualmie","CITY_R":"Snoqualmie"},"geometry":{"type":"LineString","coordinates":[[-121.811399030939,47.527872784632599],[-121.811056691011004,47.5279407378721],[-121.810873282505,47.527983041456601],[-121.810679618346001,47.5280383615113],[-121.810525041944999,47.528091405290198],[-121.810363992101003,47.528155494679503],[-121.810234492705007,47.528210933203503],[-121.810113181817997,47.528268190905202],[-121.809971373634994,47.528340517652602],[-121.809809888858993,47.528432406149399],[-121.809680654475002,47.528513674168202],[-121.809536393109994,47.528608000379997],[-121.809194274684003,47.528839776370802],[-121.808863472284003,47.529064343515799],[-121.808531663460997,47.529286332191901],[-121.808378930142993,47.529387193884403],[-121.808284564744994,47.529444889385097],[-121.808181611492998,47.529502659175002],[-121.808052069735993,47.529567767600099],[-121.807940357068006,47.529616561921998],[-121.807851281840996,47.529650940028802],[-121.807769756431995,47.529680728805801],[-121.807674894434001,47.529711924608897],[-121.807578087704002,47.529741197931799],[-121.807467884952999,47.529768646263904],[-121.807347171911005,47.529795538915799],[-121.807246365897996,47.5298151494896],[-121.807154065011005,47.529830161882899],[-121.807020777115,47.529848111573301],[-121.806928694993999,47.529855554784703]]}},
{"type":"Feature","properties":{"FULLNAME_L":"SE Mill Pond Rd","FULLNAME_R":"SE Mill Pond Rd","CITY_L":"Snoqualmie","CITY_R":"Snoqualmie"},"geometry":{"type":"LineString","coordinates":[[-121.831575683612002,47.540573571309103],[-121.831145629787997,47.540434550291998],[-121.830707127503999,47.540294649752298],[-121.830441099170002,47.540204640967801],[-121.830200427967,47.540117266012899],[-121.829898622504999,47.5399942510331]]}},
{"type":"Feature","properties":{"FULLNAME_L":"Meadowbrook Way SE","FULLNAME_R":"Meadowbrook Way SE","CITY_L":"Snoqualmie","CITY_R":"Snoqualmie"},"geometry":{"type":"LineString","coordinates":[[-121.812685512160002,47.525375947677603],[-121.812589271378002,47.525482762317502],[-121.812526069105004,47.525559941392501],[-121.812467181106996,47.525642319922099],[-121.812407866849995,47.525739457310401],[-121.812367788583998,47.525813105830501],[-121.812337412719003,47.5258795299357],[-121.812308647755003,47.525956888499103],[-121.812286810266997,47.526028951375302],[-121.812271919178002,47.526096670465598]]}},
{"type":"Feature","properties":{"FULLNAME_L":"Snoqualmie River Rd","FULLNAME_R":"Snoqualmie River Rd","CITY_L":"Bellevue","CITY_R":"Bellevue"},"geometry":{"type":"LineString","coordinates":[[-122.148250095427997,47.587415623495801],[-122.150054968134995,47.587423793291897],[-122.150232297745006,47.587415928849602],[-122.150359165957994,47.587394119842997],[-122.150471379547,47.5873589196841],[-122.150563332949005,47.587315237572199],[-122.150645170432995,47.587267797565197],[-122.150708082993006,47.587207985237796],[-122.150759372893006,47.587141527482501],[-122.150793292702005,47.587067522315003],[-122.150812947985003,47.586995619514497],[-122.150825971562,47.586887956305901],[-122.150827173067995,47.584842295094397],[-122.150841628899002,47.583886136573703],[-122.150836964335994,47.583192685042],[-122.150845923942995,47.583037608098799],[-122.150856525734994,47.582664581005801],[-122.150856619029,47.582555129733102],[-122.150850542754995,47.582471553885902],[-122.150831210806004,47.5823470594162]]}},
{"type":"Feature","properties":{"FULLNAME_L":"NE Tolt Hill Rd","FULLNAME_R":"NE Tolt Hill Rd","CITY_L":"King County","CITY_R":"King County"},"geometry":{"type":"LineString","coordinates":[[-121.954944598899004,47.628183294112603],[-121.954704596632993,47.628243504701999],[-121.954490082608004,47.628301719973898],[-121.954318723396995,47.628353000888801],[-121.954097701452,47.628424516809702],[-121.953877176120997,47.628511959885103],[-121.953558048716005,47.628645253079199],[-121.952646725899996,47.629034280229398]]}},
{"type":"Feature","properties":{"FULLNAME_L":"West Snoqualmie Rvr Rd NE","FULLNAME_R":"West Snoqualmie Rvr Rd NE","CITY_L":"King County","CITY_R":"King County"},"geometry":{"type":"LineString","coordinates":[[-121.933045508592002,47.608198439607001],[-121.933118118346002,47.6082050227322],[-121.933247428130997,47.608232734181797],[-121.933312779898003,47.608255580233298],[-121.933364467454993,47.608279326039401],[-121.933449474807006,47.608344948272702],[-121.933481063716997,47.608383578742099],[-121.933513464200004,47.608423199360601],[-121.933556991529002,47.608516212543698],[-121.933566453284001,47.608556433302397],[-121.933578317306001,47.608973753064497],[-121.933583257579002,47.610046167790898],[-121.933620763044999,47.610286137732103],[-121.933665927324995,47.610432898424897]]}},
{"type":"Feature","properties":{"FULLNAME_L":"West Snoqualmie Val Rd NE","FULLNAME_R":"West Snoqualmie Val Rd NE","CITY_L":"King County","CITY_R":"King County"},"geometry":{"type":"LineString","coordinates":[[-122.008156752241007,47.716993533853298],[-122.008249413586,47.717542482375499],[-122.008328140085993,47.7178570629465],[-122.008396655713995,47.718034573791599],[-122.008902785898002,47.719371212288301],[-122.009015819628999,47.719877276875501],[-122.009030061274999,47.7200350411645],[-122.009030953993999,47.720231670978102],[-122.009023369911006,47.720435069947101],[-122.008989650695,47.720987116692399],[-122.008980753301998,47.721491444246702],[-122.008998328356,47.721751733853999],[-122.009028039672998,47.721987222156102],[-122.009125740719,47.722435296657601],[-122.009180500059003,47.7226864345742],[-122.010001879005998,47.725379749458803],[-122.010561884184995,47.727250475943997],[-122.010587782423002,47.727384553970097],[-122.010618519917998,47.727620034040399],[-122.010608749987995,47.727973226349903],[-122.010587728724005,47.728099050574301],[-122.010520649987001,47.728375109914801],[-122.010353557035003,47.729062725243701],[-122.010355547670002,47.729284790291999],[-122.010372498264999,47.7293602725208],[-122.010390036879997,47.729419207414999],[-122.010424735857995,47.729535803422202],[-122.010633064440995,47.729919136212402],[-122.010957861674996,47.730465253085598],[-122.012277679101004,47.7325260491953],[-122.012345998528005,47.732603996979101],[-122.012499157229001,47.732749099923304],[-122.012758779942999,47.732973984903801],[-122.013672036759999,47.733713602845199],[-122.013858562517001,47.733864659391998],[-122.013959785515993,47.733959577417401],[-122.014058236093007,47.734066601677803],[-122.014101193521995,47.734123732031897],[-122.014174510523006,47.734242499022997],[-122.014238724560002,47.734363076578099],[-122.014289569390002,47.734476587068499],[-122.014396662896999,47.734784788788502],[-122.014531521148001,47.735286630331203],[-122.014949486453006,47.736841924329703],[-122.014970455088005,47.736959604465703],[-122.014975873878996,47.737153015131902],[-122.014963989937996,47.7372557034385],[-122.014941409564003,47.737357553879498],[-122.014908639148999,47.7374581389657],[-122.014865675096004,47.737556946008503],[-122.014812497362001,47.737653632478803],[-122.014750116179997,47.737747584703399],[-122.014618024314998,47.737904209736797],[-122.014507111724001,47.738009031115901],[-122.01403587643,47.738426594021],[-122.013443319466006,47.738951649201901],[-122.013268350648005,47.739144359507698],[-122.013210231214003,47.739220184599802],[-122.013129200075994,47.739325901898901],[-122.013063347663007,47.739423829002],[-122.012981339166998,47.7395668721555],[-122.012942633864,47.739634394329897],[-122.012754413394006,47.739991107062899],[-122.012656703489,47.740176286460297],[-122.012484471473996,47.7404674141386],[-122.012354646719004,47.740657166755],[-122.012197437327998,47.740849261288702],[-122.011992858558003,47.741058638518503],[-122.011473508663002,47.741525225381501],[-122.011085395603004,47.7418643296471],[-122.010583682597002,47.742325156120401],[-122.009560705034005,47.743237248408199],[-122.009245698357006,47.743529313616897],[-122.009121768149001,47.743644216377398],[-122.008929697165001,47.743846003990797]]}},
{"type":"Feature","properties":{"FULLNAME_L":"SE Reinig Rd","FULLNAME_R":"SE Reinig Rd","CITY_L":"King County","CITY_R":"King County"},"geometry":{"type":"LineString","coordinates":[[-121.769552978888001,47.523570072142498],[-121.772297132025997,47.523450862204101],[-121.772396624177006,47.523440874362201],[-121.772505106300002,47.5234243883205],[-121.772690518344007,47.523381252891497],[-121.774229782625,47.523065595897897],[-121.775884368510006,47.522726268129801],[-121.776315425790997,47.522669995506199],[-121.776730197974004,47.522636480965303],[-121.777004353874005,47.522622620310102]]}},
{"type":"Feature","properties":{"FULLNAME_L":"Meadowbrook Way SE","FULLNAME_R":"Meadowbrook Way SE","CITY_L":"Snoqualmie","CITY_R":"Snoqualmie"},"geometry":{"type":"LineString","coordinates":[[-121.826783661875993,47.513172130138599],[-121.826672602288994,47.513192400428203],[-121.826554531905003,47.513196018389401],[-121.826375018817998,47.513176926386002],[-121.826225805164995,47.513147243923797],[-121.825629445708998,47.513001921350103],[-121.825623090273993,47.513000331841297],[-121.825298549223007,47.512919182305502],[-121.825104016938994,47.512876961469502],[-121.824918748909994,47.512844356886298],[-121.824755950337007,47.512821612502698],[-121.824648313946994,47.512811639930703],[-121.824440249334998,47.512792369106798],[-121.824108724726997,47.512782452156102],[-121.823950511801996,47.512788462894001],[-121.823806043941005,47.512799486048301],[-121.823655002796002,47.512818966956502],[-121.823520436493993,47.512836338227899],[-121.823320254888003,47.512876925114]]}},
{"type":"Feature","properties":{"FULLNAME_L":"Neal Rd SE","FULLNAME_R":"Neal Rd SE","CITY_L":"King County","CITY_R":"King County"},"geometry":{"type":"LineString","coordinates":[[-121.913436849777995,47.597256342547396],[-121.913645411185001,47.596136653408799],[-121.913654228518993,47.595798609301902],[-121.913657486250997,47.595531780383901],[-121.913650813553005,47.595295033774299],[-121.913643981576001,47.595220128636299],[-121.913601785216002,47.595051787682301],[-121.913550609758005,47.594959453383197],[-121.913494554235001,47.594886205555298],[-121.913429778109005,47.594816610271501],[-121.913302256688993,47.594690491539097],[-121.913048178140997,47.594484652916499],[-121.912624430468995,47.5941559497547],[-121.912105498695993,47.593817914118198],[-121.911836092659996,47.593636018752697],[-121.911640953981006,47.593472458959603],[-121.911479110846997,47.593302632981498],[-121.911382842635007,47.593156223052702],[-121.911271908128995,47.592981154637897],[-121.911141883697994,47.592733676171598],[-121.911071349516007,47.592555606404197],[-121.911034631806999,47.592396494910503],[-121.911020605673997,47.592228837597801],[-121.911043391570004,47.592054881914002],[-121.911069635595993,47.591963002987796],[-121.911125595350995,47.591777070906303],[-121.911280637391002,47.591363862175598],[-121.911428957487004,47.591050914523699],[-121.911515695861993,47.590907291976698],[-121.911586468761996,47.590824204529]]}},
{"type":"Feature","properties":{"FULLNAME_L":"Neal Rd SE","FULLNAME_R":"Neal Rd SE","CITY_L":"King County","CITY_R":"King County"},"geometry":{"type":"LineString","coordinates":[[-121.891362806535994,47.57551546429],[-121.891446501136002,47.575596724224802],[-121.891544394104002,47.575678622409903],[-121.891651290656,47.575754953221796],[-121.891767201216993,47.575826229245301],[-121.891954484341994,47.575920452719799],[-121.892325945815998,47.576055748676097],[-121.892473698027004,47.576098797254403],[-121.892625851055001,47.576134094846097],[-121.892860633354005,47.576173033887002],[-121.893019981522002,47.576188556211299],[-121.893174116403003,47.576196973671102],[-121.893791199267994,47.5762218826316],[-121.893967048595997,47.5762214325906],[-121.894145450287994,47.576216793062301],[-121.894330978460005,47.576216649039502],[-121.894506512567006,47.5762007314557],[-121.894717308354004,47.576189244178202],[-121.894898432990999,47.576188743459703],[-121.895042682200994,47.576190966575403],[-121.895172790467996,47.576206887737499],[-121.895316768824003,47.576230295813097],[-121.895511616937,47.576264651406198],[-121.89562472755,47.5762921550131],[-121.895769133583997,47.576336502086797],[-121.895899512531003,47.576382883506803],[-121.896050011121005,47.576450021011397],[-121.896235046553997,47.576554915726597],[-121.896474815822998,47.576722129849401],[-121.896900130435995,47.577018984233298],[-121.897171200252998,47.5772030401465],[-121.897465478138002,47.577421150185401],[-121.897677706044007,47.577617179712199],[-121.897902888496006,47.577922905098802],[-121.898392474543002,47.578631733559],[-121.898486382970006,47.578790388473898],[-121.898570705481006,47.578950852184903],[-121.898895681561001,47.579658991314098],[-121.898966785970003,47.579767438665002],[-121.899090532691005,47.579923672215102],[-121.899871500358998,47.580934098446598],[-121.900775161512996,47.582170933750902],[-121.900842787312001,47.582307000179398],[-121.900873719413994,47.582382752412997],[-121.900907355271997,47.5824915475647],[-121.901014689698002,47.582884283420903],[-121.901036542309001,47.583011271026997],[-121.901070516271005,47.583136516233402],[-121.901115610191994,47.5832605850077],[-121.901171283519005,47.583381815425497],[-121.901238571025999,47.583501261556897],[-121.901722424260996,47.584246842477398],[-121.901812291133993,47.584355671228998],[-121.901911709198998,47.584461106363896],[-121.902273661511003,47.584770268067203],[-121.902422805008001,47.5848796496565],[-121.902580454420999,47.5849834648401],[-121.902746068439995,47.585080613744999],[-121.902892999835998,47.585156001312697],[-121.903039075825006,47.585214389628398],[-121.903190081245995,47.585266134728002],[-121.903346534804996,47.585311829414401],[-121.903506387723993,47.5853503797887],[-121.903752981186997,47.585394671928199],[-121.904210714661005,47.585434231322303],[-121.904409801428002,47.585459212222297],[-121.904705647639005,47.5855090785805],[-121.905713269827999,47.585709028404104],[-121.906317335807998,47.585794366052198],[-121.907093892776004,47.585842985981898],[-121.907678108674006,47.585825389052502],[-121.908422108172999,47.585793683301603],[-121.908846925041999,47.585808859403997],[-121.909319783192998,47.5858200234008],[-121.909689922805995,47.585836527895097],[-121.910757202165001,47.585907304865401],[-121.911086184637,47.585942572700297],[-121.911317876621993,47.585976017201901],[-121.911489744714999,47.586007292046901],[-121.911658716136003,47.586045448496201],[-121.911826845107996,47.586091832481699],[-121.912047145700996,47.5861624000256],[-121.912453450567,47.586310713641403],[-121.912864413807995,47.586488323936699],[-121.913138748034996,47.586623624969597],[-121.913497546841995,47.586825850240501],[-121.913928308544001,47.587102534205997],[-121.914493258468994,47.587473856213997]]}},
{"type":"Feature","properties":{"FULLNAME_L":"NE Tolt Hill Rd","FULLNAME_R":"NE Tolt Hill Rd","CITY_L":"King County","CITY_R":"King County"},"geometry":{"type":"LineString","coordinates":[[-121.966913512694006,47.622799226174301],[-121.965933069038996,47.622820894097899],[-121.965687242949002,47.622846047447901],[-121.965512107161999,47.622881247670499],[-121.96545451675,47.622913734891803],[-121.965416942301999,47.622957508342402],[-121.965407789829001,47.622979533657997],[-121.965404053236995,47.623017484232001],[-121.965412871801007,47.623050001834898]]}},
{"type":"Feature","properties":{"FULLNAME_L":"Mill Pond Dr SE","FULLNAME_R":"Mill Pond Dr SE","CITY_L":"Auburn","CITY_R":"Auburn"},"geometry":{"type":"LineString","coordinates":[[-122.217941746365,47.263885325537103],[-122.217706087121002,47.263834718701403]]}},
{"type":"Feature","properties":{"FULLNAME_L":"Mill Pond Dr SE","FULLNAME_R":"Mill Pond Dr SE","CITY_L":"Auburn","CITY_R":"Auburn"},"geometry":{"type":"LineString","coordinates":[[-122.221140896121,47.267750865874099],[-122.221051273675002,47.267719236616898],[-122.220959398003004,47.2676723810306],[-122.220872283790001,47.267615184776098],[-122.220796824382006,47.267554418028602],[-122.220729542363003,47.267485554100602],[-122.220655034480998,47.2673973565118],[-122.220571774926,47.267295556737899],[-122.220508152372005,47.267238071936397],[-122.220431166964005,47.267183035762201],[-122.220342617900997,47.267134996186698],[-122.220224049202002,47.267094180296603],[-122.220116975685002,47.267070088051597],[-122.219159669670006,47.2668819078608],[-122.218768114140005,47.2667998807405],[-122.218460754354993,47.2667282448135],[-122.218190458083001,47.266661866092498],[-122.217960974947005,47.266601570839001]]}},
{"type":"Feature","properties":{"FULLNAME_L":"Mill Pond Dr SE","FULLNAME_R":"Mill Pond Dr SE","CITY_L":"Auburn","CITY_R":"Auburn"},"geometry":{"type":"LineString","coordinates":[[-122.217013634713993,47.266015934221301],[-122.216960314543002,47.265903483983102],[-122.216936632195001,47.265832940856498],[-122.216919148637999,47.265742900945597],[-122.216911421337997,47.265626720262198]]}},
{"type":"Feature","properties":{"FULLNAME_L":"West Snoqualmie Val Rd NE","FULLNAME_R":"West Snoqualmie Val Rd NE","CITY_L":"King County","CITY_R":"King County"},"geometry":{"type":"LineString","coordinates":[[-122.003584344860997,47.704891786614297],[-122.004599299570003,47.706459387836702],[-122.005047476708,47.707172151899599],[-122.005187177653994,47.707400168847798],[-122.005392136639998,47.707774845270897],[-122.005483250726002,47.707964765081798],[-122.005920418906996,47.7089984246753]]}},
{"type":"Feature","properties":{"FULLNAME_L":"Mill Pond Loop SE","FULLNAME_R":"Mill Pond Loop SE","CITY_L":"Auburn","CITY_R":"Auburn"},"geometry":{"type":"LineString","coordinates":[[-122.219901239693002,47.262971000162999],[-122.219786469260001,47.262608343867598],[-122.219760109120003,47.262542404239298],[-122.219738807891005,47.262498490663901],[-122.219710776403005,47.262453897382301],[-122.219674533120994,47.262407926922997]]}},
{"type":"Feature","properties":{"FULLNAME_L":"Mill Pond Loop SE","FULLNAME_R":"Mill Pond Loop SE","CITY_L":"Auburn","CITY_R":"Auburn"},"geometry":{"type":"LineString","coordinates":[[-122.219674533120994,47.262407926922997],[-122.219622971530995,47.262349106560897],[-122.219561043111995,47.2622919809981],[-122.219507327120994,47.2622492264694],[-122.219441287215005,47.262205861477298],[-122.219367499556,47.262165637708598],[-122.219299606923002,47.262136765760197],[-122.219226369381005,47.262109106106998],[-122.219150539723998,47.262084516903599],[-122.219076157808004,47.262064102960103],[-122.218597572730999,47.261958892539703]]}},
{"type":"Feature","properties":{"FULLNAME_L":"Mill Pond Dr SE","FULLNAME_R":"Mill Pond Dr SE","CITY_L":"Auburn","CITY_R":"Auburn"},"geometry":{"type":"LineString","coordinates":[[-122.219286530752996,47.260530955932602],[-122.219571240310998,47.259941899188597],[-122.219617186899995,47.259881356500898],[-122.219663585744996,47.259837945152803],[-122.219718523373004,47.2598001411247],[-122.219809381901001,47.259745712355198]]}},
{"type":"Feature","properties":{"FULLNAME_L":"Mill Pond Dr SE","FULLNAME_R":"Mill Pond Dr SE","CITY_L":"Auburn","CITY_R":"Auburn"},"geometry":{"type":"LineString","coordinates":[[-122.218291821332997,47.2626045074351],[-122.218597572730999,47.261958892539703]]}},
{"type":"Feature","properties":{"FULLNAME_L":"Mill Pond Dr SE","FULLNAME_R":"Mill Pond Dr SE","CITY_L":"Auburn","CITY_R":"Auburn"},"geometry":{"type":"LineString","coordinates":[[-122.218932464161,47.261275937425197],[-122.219286530752996,47.260530955932602]]}},
{"type":"Feature","properties":{"FULLNAME_L":"Mill Pond Dr SE","FULLNAME_R":"Mill Pond Dr SE","CITY_L":"Auburn","CITY_R":"Auburn"},"geometry":{"type":"LineString","coordinates":[[-122.218513366598998,47.262653984908901],[-122.218291821332997,47.2626045074351]]}},
{"type":"Feature","properties":{"FULLNAME_L":"Mill Pond Dr SE","FULLNAME_R":"Mill Pond Dr SE","CITY_L":"Auburn","CITY_R":"Auburn"},"geometry":{"type":"LineString","coordinates":[[-122.217960974947005,47.266601570839001],[-122.217821882829995,47.266560131924003],[-122.217701610044998,47.266518191611901],[-122.217587987721004,47.266473884359698],[-122.217450302922998,47.266408165329999],[-122.217353067325007,47.266348804991502],[-122.217240158213002,47.266267930162599],[-122.217152507275003,47.266190173411204],[-122.217067300021,47.266094477931802],[-122.217013634713993,47.266015934221301]]}}
]
}
