{
"type": "FeatureCollection",
"name": "aoi",
"crs": { "type": "name", "properties": { "name": "urn:ogc:def:crs:OGC:1.3:CRS84" } },
"features": [
{"type":"Feature","properties":{},"geometry":{"type":"Polygon","coordinates":[[[-121.998722731247483,47.691032552089375],[-122.003718519117726,47.694559435758109],[-122.005929311277171,47.697010870799396],[-122.006927135387954,47.699669006680786],[-122.010233176056985,47.70321891112998],[-122.010718092345982,47.706850485988809],[-122.015701066742665,47.712468242870763],[-122.019784734984697,47.718996764531511],[-122.020412556114607,47.726962854823263],[-122.017765220910931,47.733043108417974],[-122.018921158223876,47.737654859971755],[-122.015192876032913,47.742679158976024],[-122.011810708772202,47.745719264438527],[-122.009394773231563,47.746526807685903],[-122.006152264701001,47.745789129166297],[-122.004928716560357,47.743895335293132],[-122.00976702097806,47.737841375773982],[-122.003458032500333,47.738367162195118],[-122.002896146399934,47.743526585690809],[-121.999099887078444,47.747173638450207],[-121.999340275249224,47.750907773527935],[-121.998225270839825,47.753976381325344],[-121.994546487809359,47.757030819248989],[-121.987994361421499,47.758636790243543],[-121.984485695827928,47.758415625629496],[-121.980240413430664,47.757078871398122],[-121.977077188768504,47.754748280135438],[-121.975477563433714,47.751778765936329],[-121.975080831700851,47.744422759849755],[-121.977269478967074,47.739058275529672],[-121.979350030524699,47.736304939538314],[-121.98176899146371,47.729424110367852],[-121.985267928887211,47.725731886220942],[-121.990573013657752,47.723497952973766],[-121.987262222763789,47.722944035186018],[-121.98330937258946,47.721384674282504],[-121.980407147154324,47.719320029983983],[-121.978273276394788,47.716616799945157],[-121.977064339615751,47.714003007446557],[-121.976897975141924,47.711117204235165],[-121.977560717896878,47.708678924166968],[-121.979373390233818,47.706327369037382],[-121.975709286318462,47.703002722135196],[-121.974139636587822,47.699637042153405],[-121.969970333524415,47.700317623933465],[-121.963382724287754,47.700101194776252],[-121.95958156420042,47.699222555635437],[-121.952989169103887,47.696395872649028],[-121.946844680727494,47.696304166836207],[-121.941476120839965,47.69514191010051],[-121.93634345542705,47.692110349606651],[-121.930914071663793,47.684447986338427],[-121.926128489905977,47.681185112328627],[-121.916682684499122,47.681178373173076],[-121.91248898857117,47.679986238660298],[-121.909227908328631,47.677958372275938],[-121.906732512056536,47.67430488659295],[-121.906626534006477,47.669730288033243],[-121.908852518046217,47.665985592290269],[-121.914516842100042,47.661784211802292],[-121.911115614661412,47.65589182686297],[-121.912029558860539,47.648385843688807],[-121.907159756761473,47.649765492649578],[-121.901248275496357,47.649995396104252],[-121.897017304518329,47.65132192858713],[-121.891120791967637,47.65147246269202],[-121.886623976249794,47.655831640218693],[-121.885540648376704,47.661407168986898],[-121.881069204535095,47.665937154571608],[-121.880424482454472,47.668631111866475],[-121.878784319516058,47.670887741852461],[-121.871918015268164,47.6762191981],[-121.865676094502192,47.678544206864842],[-121.864252092912452,47.681399371616955],[-121.862166426915749,47.683335630601292],[-121.858812323745184,47.68506433606283],[-121.854948992471193,47.686020040843907],[-121.846491655438598,47.692160703274396],[-121.845253414129985,47.696986068530002],[-121.841287602622089,47.700345762241568],[-121.836473708575227,47.701946611706234],[-121.821239978045753,47.703774470605879],[-121.816666535233622,47.703103096000639],[-121.812047293355562,47.700703065459521],[-121.809915361702778,47.697890586116813],[-121.809461336617446,47.695534254706914],[-121.810456272331052,47.692447155414143],[-121.812387537012384,47.690326019208982],[-121.815816166285558,47.688392998161603],[-121.821041632601791,47.687336062144148],[-121.827180788261416,47.680782257784962],[-121.833292871729014,47.677418671478499],[-121.834387458588481,47.674278885821678],[-121.836909992179116,47.671325025440233],[-121.840246560348987,47.669500269789168],[-121.844106212911015,47.668396227158752],[-121.848897152027305,47.664222618076927],[-121.854126157166021,47.662423276044947],[-121.855776608232503,47.658445719453418],[-121.859731185349759,47.655117633321581],[-121.859678269092996,47.651963489473708],[-121.861613100081669,47.648409182802197],[-121.866578788918659,47.644462035080629],[-121.869946664801077,47.642797860351131],[-121.876142648310562,47.637215323822012],[-121.87960330181447,47.635680017854476],[-121.886327011497229,47.634176611418042],[-121.899574558519348,47.633355111900862],[-121.905929726253561,47.630184741695174],[-121.904923689198739,47.625105902416756],[-121.90560093108877,47.62155608931451],[-121.911391366719258,47.615226806390133],[-121.914027492612803,47.613540397236015],[-121.913267666926615,47.612480008730948],[-121.909059651061312,47.611405564275174],[-121.906098894952734,47.609902928993847],[-121.902192604497969,47.605110036189672],[-121.902326501355915,47.595354180659363],[-121.904929571646846,47.591466911262948],[-121.898365914875356,47.58810720698736],[-121.894493806173799,47.583774036516331],[-121.890243033721958,47.58262305100375],[-121.886930808766152,47.580916394709575],[-121.883187157455836,47.576834558891662],[-121.869931113475104,47.574931066523149],[-121.864570803584272,47.572702997761809],[-121.862151987482221,47.570530323596707],[-121.860687615628166,47.567770969253793],[-121.860687974485941,47.564937028665859],[-121.861695019842074,47.562531956775366],[-121.856512011772935,47.562990077165658],[-121.851638142078073,47.562339711749672],[-121.844951452657071,47.558828228625224],[-121.840224736001247,47.557849024220118],[-121.836561452600606,47.555966147143643],[-121.83297068832988,47.552607050515419],[-121.830996970652237,47.548341788511316],[-121.829143060038675,47.5473212905057],[-121.82230534843346,47.545709619435172],[-121.818681393918112,47.543567111282805],[-121.816473009293972,47.540988269196006],[-121.815523634465052,47.537274096393496],[-121.814351082567214,47.536023422894765],[-121.808554133766719,47.537593401431067],[-121.803037278995035,47.537357210126572],[-121.798125831803546,47.535667998088613],[-121.795367218175215,47.533561334264824],[-121.791515720635545,47.532923951676835],[-121.787627731587946,47.531177981063109],[-121.785022533644963,47.528557179915154],[-121.784150124629761,47.524666829918068],[-121.7854885502896,47.521640286727489],[-121.788434706017597,47.51919101014402],[-121.793676821951806,47.517495935417138],[-121.801391494993723,47.517030720762342],[-121.805139363035508,47.517667091818666],[-121.808959655727406,47.519146435409461],[-121.817960180612033,47.518513185435694],[-121.824110253875759,47.51930958360154],[-121.827326879442012,47.520416410419131],[-121.832159581930924,47.523553493056397],[-121.834689194521701,47.526945643520094],[-121.837754489397781,47.52922383431094],[-121.83942013438633,47.532476210737101],[-121.848442092471046,47.536114839253315],[-121.85106085898785,47.537771807738672],[-121.852906726894872,47.539992726310935],[-121.853784752988162,47.542799130877256],[-121.859874064450338,47.545636266851837],[-121.864974445150963,47.545122173047034],[-121.877965548965946,47.546340534837881],[-121.88367657405567,47.547525918171019],[-121.887683388693759,47.549339986481762],[-121.892067594179508,47.553724458140991],[-121.892870142438426,47.557079860877337],[-121.892517570391931,47.560501374906544],[-121.89733284571976,47.561739162833312],[-121.900928291820193,47.563644346262492],[-121.904968153088092,47.568813470237316],[-121.911502912140136,47.571689280984472],[-121.916499961379671,47.577257893440859],[-121.92241498498349,47.578179683519132],[-121.927606650950111,47.580723514195377],[-121.930617389225304,47.584482660042333],[-121.933457197750911,47.586713060680808],[-121.935185718371955,47.591194836614186],[-121.938038992991238,47.593301038822617],[-121.939861961048948,47.595905532987238],[-121.940407760388297,47.599370374356212],[-121.939069385441712,47.604043937712149],[-121.942834829923413,47.606934630884325],[-121.944581389041986,47.609203090020728],[-121.946253871206821,47.616579429946839],[-121.945228003291632,47.62087528850752],[-121.942097143466697,47.62403261009382],[-121.944564768391331,47.626103247749612],[-121.946081455511461,47.628732582177015],[-121.954947912845469,47.62542629215514],[-121.957401062750989,47.62361807205717],[-121.960482708199009,47.622827975376204],[-121.96125100714697,47.620665338107855],[-121.963908221413149,47.619645525713089],[-121.968319913048106,47.620273119718419],[-121.969915147309294,47.621019606490272],[-121.972224804969642,47.626162971459046],[-121.971761730693387,47.627909696957133],[-121.969930706078102,47.629248688049913],[-121.966323103873293,47.62959951124936],[-121.962490675218802,47.628053542293671],[-121.96032761525295,47.630350614289945],[-121.956063160601047,47.63078333130531],[-121.949963943662027,47.633687330939949],[-121.946095604416527,47.634131136238295],[-121.942699851702727,47.636897145359242],[-121.939860987251222,47.640662229755392],[-121.936033836654076,47.648564933321047],[-121.935360727596503,47.653118154316758],[-121.937656627467092,47.655702053465248],[-121.939367555507957,47.660392186387263],[-121.937820573271807,47.665988009883321],[-121.940949809158383,47.667641116131911],[-121.943270192779394,47.669814446199055],[-121.950843026130414,47.673600033550073],[-121.955635647257779,47.679399001545605],[-121.963323491986912,47.679107826089563],[-121.970856398187152,47.677063366021962],[-121.977371209715116,47.677564406983237],[-121.973952119221309,47.67300513913532],[-121.967976948062059,47.666978368588843],[-121.966279078539813,47.664107965590603],[-121.963277514658714,47.663184595274295],[-121.961979879745329,47.661885714071012],[-121.962099517895197,47.660068902189479],[-121.964257575226256,47.658570857738482],[-121.967057848519914,47.658206877253086],[-121.970056800071006,47.65907425965537],[-121.973511560954748,47.661725073089428],[-121.975359975651827,47.664837351500353],[-121.988802321787261,47.679147210105178],[-121.989809108344943,47.681493899378658],[-121.993872565154049,47.682973864577484],[-121.997019145155775,47.685444369724706],[-121.998449637180968,47.688089467828313],[-121.998722731247483,47.691032552089375]]]}}
]
}
