{
"type": "FeatureCollection",
"name": "roads_exposed",
"crs": { "type": "name", "properties": { "name": "urn:ogc:def:crs:OGC:1.3:CRS84" } },
"features": [
{"type":"Feature","properties":{"FULLNAME_L":"310th Ave NE","FULLNAME_R":"310th Ave NE"},"geometry":{"type":"LineString","coordinates":[[-121.924125686848996,47.665796548105583],[-121.923721757821994,47.666364321241808],[-121.923162458467019,47.666896085780294],[-121.922575744916003,47.6672009794747]]}},
{"type":"Feature","properties":{"FULLNAME_L":"West Snoqualmie Val Rd NE","FULLNAME_R":"West Snoqualmie Val Rd NE"},"geometry":{"type":"LineString","coordinates":[[-121.979580628576016,47.674629898322003],[-121.980122829822989,47.675446378257497],[-121.980654215843018,47.676025032245001],[-121.984902920772981,47.6800235663368],[-121.985401523977984,47.680584023300099],[-121.985668585573009,47.681138591825118],[-121.986342101430012,47.6838173629435],[-121.987274103000999,47.685470825337291],[-121.988073283521018,47.68658069547589]]}},
{"type":"Feature","properties":{"FULLNAME_L":"SE 42nd St","FULLNAME_R":"SE 42nd St"},"geometry":{"type":"LineString","coordinates":[[-121.898085294083998,47.568910379999295],[-121.900099515517013,47.56892307452469]]}},
{"type":"Feature","properties":{"FULLNAME_L":"SE 43rd St","FULLNAME_R":"SE 43rd St"},"geometry":{"type":"LineString","coordinates":[[-121.888029580671997,47.566580135657098],[-121.886814432986,47.566456195928495]]}},
{"type":"Feature","properties":{"FULLNAME_L":"SE Park St","FULLNAME_R":"SE Park St"},"geometry":{"type":"LineString","coordinates":[[-121.800310188388991,47.519628265013303],[-121.801414816475997,47.520752460018386],[-121.801834830988994,47.521045181902593],[-121.802181479577015,47.521170743634201],[-121.804401592445998,47.521623019066503],[-121.805173964633994,47.521968649963299],[-121.805815555913981,47.522429952194592]]}},
{"type":"Feature","properties":{"FULLNAME_L":"Preston Fall City Rd SE","FULLNAME_R":"Preston Fall City Rd SE"},"geometry":{"type":"LineString","coordinates":[[-121.887969624887987,47.566938001323003],[-121.887919337759982,47.567212618656185],[-121.888020218338013,47.567532119354297]]}},
{"type":"Feature","properties":{"FULLNAME_L":"NE 124th St","FULLNAME_R":"NE 124th St"},"geometry":{"type":"LineString","coordinates":[[-121.989058770342993,47.709026396942377],[-122.00592041890701,47.708998424675293]]}},
{"type":"Feature","properties":{"FULLNAME_L":"SE 44th Pl","FULLNAME_R":"SE 44th Pl"},"geometry":{"type":"LineString","coordinates":[[-121.891596706914001,47.565243803220696],[-121.890909048398001,47.565068616308295]]}},
{"type":"Feature","properties":{"FULLNAME_L":"NE Tolt Hill Rd","FULLNAME_R":"NE Tolt Hill Rd"},"geometry":{"type":"LineString","coordinates":[[-121.940402624797002,47.634359011474501],[-121.938300828042998,47.634807445477286],[-121.937617250614011,47.635066493597293],[-121.937075322338998,47.6355494610861],[-121.936040003151987,47.636924406635785]]}},
{"type":"Feature","properties":{"FULLNAME_L":"338th Aly SE","FULLNAME_R":"337th Aly SE"},"geometry":{"type":"LineString","coordinates":[[-121.890426449078021,47.5659901642425],[-121.890909048398001,47.565068616308295]]}},
{"type":"Feature","properties":{"FULLNAME_L":"324th Ave SE","FULLNAME_R":"324th Ave SE"},"geometry":{"type":"LineString","coordinates":[[-121.908776180304997,47.572575014618906],[-121.908744893112015,47.580550574446796]]}},
{"type":"Feature","properties":{"FULLNAME_L":"332nd Ave SE","FULLNAME_R":"332nd Ave SE"},"geometry":{"type":"LineString","coordinates":[[-121.898091127177011,47.567907704375891],[-121.898085294083998,47.568910379999295]]}},
{"type":"Feature","properties":{"FULLNAME_L":"334th Pl SE","FULLNAME_R":"334th Pl SE"},"geometry":{"type":"LineString","coordinates":[[-121.894194769528994,47.568986508898682],[-121.894102533752985,47.569115113126095],[-121.894462384326985,47.569715977276708]]}},
{"type":"Feature","properties":{"FULLNAME_L":"SE Fish Hatchery Rd","FULLNAME_R":"SE Fish Hatchery Rd"},"geometry":{"type":"LineString","coordinates":[[-121.865437870367003,47.561383663067005],[-121.868561894498015,47.563421288661985],[-121.870340906206991,47.564271468624788],[-121.871752881732988,47.564792403665116],[-121.87190514139499,47.5650385839253],[-121.871767089982995,47.565454231645596]]}},
{"type":"Feature","properties":{"FULLNAME_L":"Neal Rd SE","FULLNAME_R":"Neal Rd SE"},"geometry":{"type":"LineString","coordinates":[[-121.914493258469008,47.587473856214004],[-121.915631728558012,47.5883107874186],[-121.915807995833006,47.588553129650784],[-121.915695800999003,47.588809737739588],[-121.915152532546998,47.58928785980271],[-121.914547113018983,47.589652276888707],[-121.914002536385993,47.589824266151602],[-121.912745149653986,47.5900202867197],[-121.912138997797996,47.590252791616408],[-121.911818491142,47.590481469458091],[-121.911586468747998,47.590824203843688]]}},
{"type":"Feature","properties":{"FULLNAME_L":"Neal Rd SE","FULLNAME_R":"Neal Rd SE"},"geometry":{"type":"LineString","coordinates":[[-121.887421058453995,47.570315201248903],[-121.889885969759021,47.570564198951303]]}},
{"type":"Feature","properties":{"FULLNAME_L":"SE 24th St","FULLNAME_R":"SE 24th St"},"geometry":{"type":"LineString","coordinates":[[-121.920400328401001,47.586957196306798],[-121.92066272699698,47.587123605571705],[-121.926160415507013,47.587136251109293]]}},
{"type":"Feature","properties":{"FULLNAME_L":"NE Tolt Hill Rd","FULLNAME_R":"NE Tolt Hill Rd"},"geometry":{"type":"LineString","coordinates":[[-121.93096675812599,47.637856610689504],[-121.926978339431017,47.638260445796],[-121.926012783136002,47.638261550762984],[-121.924550171736016,47.638116464745003]]}},
{"type":"Feature","properties":{"FULLNAME_L":"SE 44th Pl","FULLNAME_R":"SE 44th Pl"},"geometry":{"type":"LineString","coordinates":[[-121.890909048398001,47.565068616308295],[-121.890267150667015,47.5649025699662]]}},
{"type":"Feature","properties":{"FULLNAME_L":"West Snoqualmie Val Rd NE","FULLNAME_R":"West Snoqualmie Val Rd NE"},"geometry":{"type":"LineString","coordinates":[[-121.978839814948017,47.673517602756],[-121.979580628576016,47.674629898322003]]}},
{"type":"Feature","properties":{"FULLNAME_L":"SE David Powell Rd","FULLNAME_R":"SE David Powell Rd"},"geometry":{"type":"LineString","coordinates":[[-121.862724082472994,47.553088853369914],[-121.861224622934998,47.553552623862899],[-121.857969135657996,47.55425785323051],[-121.856742252971998,47.554323740328897],[-121.855819818271002,47.554166980787699],[-121.855140726168003,47.553872867412295],[-121.853835979858005,47.552547993704898],[-121.852127700016993,47.551397267177101],[-121.851030105161996,47.550537329207202]]}},
{"type":"Feature","properties":{"FULLNAME_L":"Cedar Pl SE","FULLNAME_R":"Cedar Pl SE"},"geometry":{"type":"LineString","coordinates":[[-121.832235572249004,47.530701342155098],[-121.832145400691005,47.530832257708177],[-121.831458507790003,47.531252598987884],[-121.831454705716993,47.531523757888898]]}},
{"type":"Feature","properties":{"FULLNAME_L":"NE 80th St","FULLNAME_R":"NE 80th St"},"geometry":{"type":"LineString","coordinates":[[-121.978839814948017,47.673517602756],[-121.97743827011702,47.673502754358992]]}},
{"type":"Feature","properties":{"FULLNAME_L":"WJ Adair Rd","FULLNAME_R":"WJ Adair Rd"},"geometry":{"type":"LineString","coordinates":[[-121.967651527845007,47.686616832606092],[-121.968058820050985,47.688370601978086],[-121.969088922875017,47.689287062760791],[-121.969521261105996,47.690163547843802]]}},
{"type":"Feature","properties":{"FULLNAME_L":"298th Pl NE","FULLNAME_R":"298th Pl NE"},"geometry":{"type":"LineString","coordinates":[[-121.936040003151987,47.636924406635785],[-121.935428479833021,47.63645750705809],[-121.935028467468996,47.636461510134701]]}},
{"type":"Feature","properties":{"FULLNAME_L":"West Snoqualmie Val Rd NE","FULLNAME_R":"West Snoqualmie Val Rd NE"},"geometry":{"type":"LineString","coordinates":[[-121.970760417631993,47.664339699966995],[-121.971143239715005,47.665260201005104],[-121.971971604371021,47.666274502953101],[-121.974302517599995,47.668278375162302],[-121.975109805898995,47.669475145802501],[-121.977282928617981,47.671507577459103],[-121.978421828616007,47.672878855316192],[-121.978839814948017,47.673517602756]]}},
{"type":"Feature","properties":{"FULLNAME_L":"337th Pl SE","FULLNAME_R":"337th Pl SE"},"geometry":{"type":"LineString","coordinates":[[-121.891596706914001,47.565243803220696],[-121.892617796475008,47.563339530522683]]}},
{"type":"Feature","properties":{"FULLNAME_L":"SE Park St","FULLNAME_R":"SE Park St"},"geometry":{"type":"LineString","coordinates":[[-121.805815555913981,47.522429952194592],[-121.806259587464979,47.522703414014593],[-121.807742301600996,47.5232959855472]]}},
{"type":"Feature","properties":{"FULLNAME_L":"SE 42nd St","FULLNAME_R":"SE 42nd St"},"geometry":{"type":"LineString","coordinates":[[-121.896911799110015,47.568902472164289],[-121.898085294083998,47.568910379999295]]}},
{"type":"Feature","properties":{"FULLNAME_L":"West Snoqualmie Val Rd NE","FULLNAME_R":"West Snoqualmie Val Rd NE"},"geometry":{"type":"LineString","coordinates":[[-122.006558937132013,47.710605145591003],[-122.00752568866902,47.713071892831188],[-122.008156752241007,47.716993533853284]]}},
{"type":"Feature","properties":{"FULLNAME_L":"NE Tolt Hill Rd","FULLNAME_R":"NE Tolt Hill Rd"},"geometry":{"type":"LineString","coordinates":[[-121.932260588545006,47.637721331655101],[-121.93096675812599,47.637856610689504]]}},
{"type":"Feature","properties":{"FULLNAME_L":"NE 100th St","FULLNAME_R":"NE 100th St"},"geometry":{"type":"LineString","coordinates":[[-121.988073283521018,47.68658069547589],[-121.987579099865997,47.686634368666375],[-121.978985687248993,47.6866362599743]]}},
{"type":"Feature","properties":{"FULLNAME_L":"NE Stella St","FULLNAME_R":"NE Stella St"},"geometry":{"type":"LineString","coordinates":[[-121.983264511266995,47.740835266579793],[-121.981831416022004,47.740822200442992]]}},
{"type":"Feature","properties":{"FULLNAME_L":"NE Carnation Farm Rd","FULLNAME_R":"NE Carnation Farm Rd"},"geometry":{"type":"LineString","coordinates":[[-121.959764116086006,47.678609567495883],[-121.959147927274003,47.678862074610784],[-121.958111483150006,47.679018266134499],[-121.957637428004006,47.678968194159594],[-121.956618800778003,47.678704616819992],[-121.95570746508902,47.678403483382397],[-121.954382213754002,47.677686787307216],[-121.953058498250002,47.676662815118377]]}},
{"type":"Feature","properties":{"FULLNAME_L":"SE 43rd St","FULLNAME_R":"SE 43rd St"},"geometry":{"type":"LineString","coordinates":[[-121.889271871366006,47.566737096586699],[-121.888591038517006,47.566574413357792]]}},
{"type":"Feature","properties":{"FULLNAME_L":"NE 138th St","FULLNAME_R":"NE 138th St"},"geometry":{"type":"LineString","coordinates":[[-122.007465435418013,47.72462499180201],[-122.007059113130012,47.724648281923898],[-122.006714682461009,47.724488774364595],[-122.006075788560992,47.723547885605477],[-122.005842823276012,47.723375661564091],[-122.005035661105012,47.723079360487297],[-122.002788632275013,47.722447481929592],[-121.997758944015004,47.722453540154611],[-121.997294413817016,47.722394957993487],[-121.989376848818992,47.722437132022606]]}},
{"type":"Feature","properties":{"FULLNAME_L":"Snoqualmie Elem School AcRd","FULLNAME_R":"Snoqualmie Elem School AcRd"},"geometry":{"type":"LineString","coordinates":[[-121.808426500466993,47.523583713980109],[-121.808797861109994,47.523174851275499]]}},
{"type":"Feature","properties":{"FULLNAME_L":"Preston Fall City Rd SE","FULLNAME_R":"Preston Fall City Rd SE"},"geometry":{"type":"LineString","coordinates":[[-121.888052565923005,47.566464900585487],[-121.888029580671997,47.566580135657098]]}},
{"type":"Feature","properties":{"FULLNAME_L":"SE Redmond Fall City Aly","FULLNAME_R":"SE 43rd Aly"},"geometry":{"type":"LineString","coordinates":[[-121.889022674081005,47.567211321237203],[-121.887969624887987,47.566938001323003]]}},
{"type":"Feature","properties":{"FULLNAME_L":"Preston Fall City Aly SE","FULLNAME_R":"338th Aly SE"},"geometry":{"type":"LineString","coordinates":[[-121.888591038517006,47.566574413357792],[-121.889077882400002,47.565660705034382]]}},
{"type":"Feature","properties":{"FULLNAME_L":"West Snoqualmie Rvr Rd NE","FULLNAME_R":"West Snoqualmie Rvr Rd NE"},"geometry":{"type":"LineString","coordinates":[[-121.933552047283015,47.624246948790898],[-121.933578714892008,47.625028481753397],[-121.933676384164016,47.625283978029302],[-121.936761933854001,47.628162743269577],[-121.936997269629003,47.628597387610981],[-121.937044647961017,47.62918182464179],[-121.935439015209013,47.633968100841102],[-121.935016567180995,47.634395192500484],[-121.934049723230984,47.634902265892997],[-121.933566112932994,47.635315118549997],[-121.933377879019005,47.635669169677698],[-121.933197307976997,47.636577537378898],[-121.933057060772001,47.636779298923798],[-121.931088155769018,47.637562192559997],[-121.930992428118003,47.637621764636592],[-121.93096675812599,47.637856610689504]]}},
{"type":"Feature","properties":{"FULLNAME_L":"316th Ave SE","FULLNAME_R":"316th Ave SE"},"geometry":{"type":"LineString","coordinates":[[-121.920211999087002,47.583663436456497],[-121.920365954646002,47.583973668103887],[-121.920400328401001,47.586957196306798]]}},
{"type":"Feature","properties":{"FULLNAME_L":"NE Tolt Hill Rd","FULLNAME_R":"NE Tolt Hill Rd"},"geometry":{"type":"LineString","coordinates":[[-121.936040003151987,47.636924406635785],[-121.935432096187,47.63732653603288],[-121.934783747333995,47.637527519643506],[-121.932260588545006,47.637721331655101]]}},
{"type":"Feature","properties":{"FULLNAME_L":"Unnamed","FULLNAME_R":"Unnamed"},"geometry":{"type":"LineString","coordinates":[[-121.932260588545006,47.637721331655101],[-121.932568638660996,47.638021323212506],[-121.933574290146993,47.637882960248803],[-121.934963358234981,47.637843783189098],[-121.935887500873008,47.637448889754801],[-121.936243787078993,47.637200996484097],[-121.937060003392986,47.636189552389489],[-121.938526853083005,47.6363770154016],[-121.938650626051,47.636426882043779],[-121.938578478685997,47.636587117864011],[-121.937761402286,47.636792838230377],[-121.937622805339984,47.636928230494881],[-121.937589745710994,47.637592232218509],[-121.937202349285002,47.638476606938802],[-121.938006647484016,47.639004868813593],[-121.938329866838984,47.639109944567878]]}},
{"type":"Feature","properties":{"FULLNAME_L":"SE 28th St","FULLNAME_R":"SE 28th St"},"geometry":{"type":"LineString","coordinates":[[-121.913547640382021,47.583517157474688],[-121.919830265844993,47.583548332431199],[-121.920211999087002,47.583663436456497]]}},
{"type":"Feature","properties":{"FULLNAME_L":"Railroad Way NE","FULLNAME_R":"Railroad Way NE"},"geometry":{"type":"LineString","coordinates":[[-121.989902653162005,47.730206257777994],[-121.989644562229998,47.7294520278544],[-121.988895133728008,47.728874137508186],[-121.988548765313013,47.728907634581617],[-121.988390898307998,47.729042038700776],[-121.988253606898013,47.729815984637987]]}},
{"type":"Feature","properties":{"FULLNAME_L":"Private Rd","FULLNAME_R":"Private Rd"},"geometry":{"type":"LineString","coordinates":[[-121.928954021329019,47.59933110507901],[-121.935487661953005,47.599270440455498],[-121.935738960730021,47.59874295918199],[-121.93543439098201,47.597711831720289],[-121.935382373165993,47.596893426059388]]}},
{"type":"Feature","properties":{"FULLNAME_L":"310th Ave NE","FULLNAME_R":"310th Ave NE"},"geometry":{"type":"LineString","coordinates":[[-121.922575744916003,47.6672009794747],[-121.922149807639997,47.667406526748707],[-121.921726084389988,47.667742202546982],[-121.920203786697002,47.668266618461203],[-121.91909396408002,47.669034307583402],[-121.918406041544003,47.669402902681703]]}},
{"type":"Feature","properties":{"FULLNAME_L":"West Snoqualmie Rvr Rd NE","FULLNAME_R":"West Snoqualmie Rvr Rd NE"},"geometry":{"type":"LineString","coordinates":[[-121.933665927325009,47.610432898424897],[-121.93447579322401,47.611845046562799],[-121.934568624799994,47.615058056738093],[-121.934833925681986,47.615283741596002],[-121.935408504085004,47.615418011918699],[-121.935651334862996,47.615707269351702],[-121.935744639106019,47.621594276466396],[-121.935470973605007,47.621908674259984],[-121.933930409491012,47.622628029717205]]}},
{"type":"Feature","properties":{"FULLNAME_L":"SE Redmond Fall City Aly","FULLNAME_R":"SE 43rd Aly"},"geometry":{"type":"LineString","coordinates":[[-121.89035800940799,47.567535105670501],[-121.889022674081005,47.567211321237203]]}},
{"type":"Feature","properties":{"FULLNAME_L":"321st Ave SE","FULLNAME_R":"321st Ave SE"},"geometry":{"type":"LineString","coordinates":[[-121.912921719234021,47.581434418906198],[-121.913535345858989,47.582641563983003],[-121.913547640382021,47.583517157474688]]}},
{"type":"Feature","properties":{"FULLNAME_L":"NE 80th St","FULLNAME_R":"NE 80th St"},"geometry":{"type":"LineString","coordinates":[[-121.97743827011702,47.673502754358992],[-121.962749147959997,47.673311347193184]]}},
{"type":"Feature","properties":{"FULLNAME_L":"Preston Fall City Rd SE","FULLNAME_R":"Preston Fall City Rd SE"},"geometry":{"type":"LineString","coordinates":[[-121.888029580671997,47.566580135657098],[-121.887969624887987,47.566938001323003]]}},
{"type":"Feature","properties":{"FULLNAME_L":"NE Woodinville Duvall Rd","FULLNAME_R":"NE Woodinville Duvall Rd"},"geometry":{"type":"LineString","coordinates":[[-122.008929697165001,47.743846003990797],[-122.001342159903004,47.743764743203506],[-121.992914393763016,47.743849859445717],[-121.991681893220004,47.743767442943394]]}},
{"type":"Feature","properties":{"FULLNAME_L":"332nd Ave SE","FULLNAME_R":"332nd Ave SE"},"geometry":{"type":"LineString","coordinates":[[-121.898085294083998,47.568910379999295],[-121.898075651395004,47.571262426220301]]}},
{"type":"Feature","properties":{"FULLNAME_L":"NE Woodinville Duvall Rd","FULLNAME_R":"NE Woodinville Duvall Rd"},"geometry":{"type":"LineString","coordinates":[[-122.017339812357008,47.752386873178587],[-122.017191479203007,47.751208923923677],[-122.016912648182995,47.7506814515081],[-122.014733745751997,47.748882193895],[-122.014273164445996,47.748315982886595],[-122.01411982440402,47.747897129154197],[-122.013816394120994,47.745638119704203],[-122.013524095620994,47.745096554395296],[-122.013119399058994,47.7447514160067],[-122.012442749498021,47.744446106958172],[-122.008929697165001,47.743846003990797]]}},
{"type":"Feature","properties":{"FULLNAME_L":"SR 202","FULLNAME_R":"SR 202"},"geometry":{"type":"LineString","coordinates":[[-121.868278457228996,47.564384064016302],[-121.866373791830014,47.563040417109598],[-121.865387508010002,47.562509040339997]]}},
{"type":"Feature","properties":{"FULLNAME_L":"SE Park St","FULLNAME_R":"SE Park St"},"geometry":{"type":"LineString","coordinates":[[-121.808426500466993,47.523583713980109],[-121.810607065547984,47.524520258327406]]}},
{"type":"Feature","properties":{"FULLNAME_L":"Lake Langlois Rd NE","FULLNAME_R":"Lake Langlois Rd NE"},"geometry":{"type":"LineString","coordinates":[[-121.877431556645988,47.642759112417394],[-121.876668149313005,47.6431792132936],[-121.875593969933007,47.643604764070503]]}},
{"type":"Feature","properties":{"FULLNAME_L":"SE Northern St","FULLNAME_R":"SE Northern St"},"geometry":{"type":"LineString","coordinates":[[-121.828165164457019,47.531968054668198],[-121.828273291754002,47.531962347599901]]}},
{"type":"Feature","properties":{"FULLNAME_L":"West Snoqualmie Rvr Rd SE","FULLNAME_R":"West Snoqualmie Rvr Rd SE"},"geometry":{"type":"LineString","coordinates":[[-121.928644401344002,47.600557858006084],[-121.928954021329019,47.59933110507901]]}},
{"type":"Feature","properties":{"FULLNAME_L":"Mountain Ave SE","FULLNAME_R":"Mountain Ave SE"},"geometry":{"type":"LineString","coordinates":[[-121.808639563547999,47.526645167566578],[-121.809214907809007,47.526011353015207]]}},
{"type":"Feature","properties":{"FULLNAME_L":"West Snoqualmie Rvr Rd SE","FULLNAME_R":"West Snoqualmie Rvr Rd SE"},"geometry":{"type":"LineString","coordinates":[[-121.929654218760007,47.608180444068402],[-121.929187005586016,47.608062420428801],[-121.928719650790001,47.607816991800597],[-121.928407435881013,47.607501993020477],[-121.928257291595017,47.607158449525009],[-121.928263734454021,47.602262018518701],[-121.928391215341009,47.6013847968497],[-121.928644401344002,47.600557858006084]]}},
{"type":"Feature","properties":{"FULLNAME_L":"NE 100th St","FULLNAME_R":"NE 100th St"},"geometry":{"type":"LineString","coordinates":[[-121.967651527845007,47.686616832606092],[-121.964971774295989,47.686646558728505],[-121.963980608648001,47.686300653711008],[-121.963660334211994,47.6862770957569],[-121.962887393950993,47.686303266634809],[-121.961786112295016,47.68649513434049],[-121.959869225353003,47.686384720520884]]}},
{"type":"Feature","properties":{"FULLNAME_L":"NE 32nd St","FULLNAME_R":"NE 32nd St"},"geometry":{"type":"LineString","coordinates":[[-121.901026494839996,47.639368020776587],[-121.900501330444996,47.639548750813908],[-121.89995627110099,47.639591949364807],[-121.899187780486997,47.639332381862296],[-121.898158611235004,47.638822962604003],[-121.896988524793983,47.638612547199486],[-121.896782977073016,47.638653537184702],[-121.895984651823994,47.639116077415885],[-121.895045591124003,47.63951652414049],[-121.894285138098994,47.640122169213384],[-121.893514035129002,47.640242067769996]]}},
{"type":"Feature","properties":{"FULLNAME_L":"SE 19th Way","FULLNAME_R":"SE 19th Way"},"geometry":{"type":"LineString","coordinates":[[-121.925361039205001,47.591193986935899],[-121.924436072737009,47.59178000468949],[-121.923846023266009,47.592005818379597],[-121.922738703169998,47.592256075146786],[-121.921913024881988,47.592795325317709],[-121.920284224927002,47.593112494410093],[-121.919301873823002,47.593914805575999],[-121.917677137317014,47.594867427676796]]}},
{"type":"Feature","properties":{"FULLNAME_L":"284th Ave NE","FULLNAME_R":"284th Ave NE"},"geometry":{"type":"LineString","coordinates":[[-121.959764116086006,47.678609567495883],[-121.959972049952,47.678814173172192],[-121.960061464853013,47.679146414995387],[-121.959793976040999,47.6863318297288],[-121.959869225353003,47.686384720520884]]}},
{"type":"Feature","properties":{"FULLNAME_L":"E Main St","FULLNAME_R":"E Main St"},"geometry":{"type":"LineString","coordinates":[[-121.933045508591988,47.608198439607001],[-121.929654218760007,47.608180444068402]]}},
{"type":"Feature","properties":{"FULLNAME_L":"NE 100th St","FULLNAME_R":"NE 100th St"},"geometry":{"type":"LineString","coordinates":[[-121.978985687248993,47.6866362599743],[-121.976254344180006,47.686581944711499],[-121.974754185552996,47.685388538599405],[-121.973289035822987,47.684769852305202],[-121.972210758819003,47.684711403625712],[-121.971540517368013,47.684790757264089],[-121.970751535135008,47.685126319054888],[-121.968956772474002,47.685609594834197],[-121.968444173399007,47.685842955120897],[-121.967651527845007,47.686616832606092]]}},
{"type":"Feature","properties":{"FULLNAME_L":"SE Walnut St","FULLNAME_R":"SE Walnut St"},"geometry":{"type":"LineString","coordinates":[[-121.811171824231991,47.526820969752208],[-121.809214907809007,47.526011353015207]]}},
{"type":"Feature","properties":{"FULLNAME_L":"NE 133rd St","FULLNAME_R":"NE 133rd St"},"geometry":{"type":"LineString","coordinates":[[-122.010424628454999,47.716580897540702],[-122.010034254253014,47.716789873449002],[-122.009369550450018,47.716726044628103],[-122.008900577655012,47.716761040298287],[-122.009220108622017,47.717056604413891],[-122.009186493851018,47.717186928761585],[-122.008156752241007,47.716993533853284]]}},
{"type":"Feature","properties":{"FULLNAME_L":"West Snoqualmie Val Rd NE","FULLNAME_R":"West Snoqualmie Val Rd NE"},"geometry":{"type":"LineString","coordinates":[[-121.988073283521018,47.68658069547589],[-121.997633389574005,47.69621885535161],[-121.999657397359002,47.69807290682008],[-122.000456818353982,47.699150393327507],[-122.002086168388999,47.701776832297085],[-122.002507663472997,47.703202272197409],[-122.003584343845006,47.704891786624692]]}},
{"type":"Feature","properties":{"FULLNAME_L":"330th Pl SE","FULLNAME_R":"330th Pl SE"},"geometry":{"type":"LineString","coordinates":[[-121.900099515517013,47.56892307452469],[-121.900099840573006,47.570244079105393]]}},
{"type":"Feature","properties":{"FULLNAME_L":"354th Ave SE","FULLNAME_R":"354th Ave SE"},"geometry":{"type":"LineString","coordinates":[[-121.869208657183989,47.555256793750281],[-121.869887478490014,47.555430749175201],[-121.870010182008002,47.555592761041297],[-121.868858586022995,47.556900100314309]]}},
{"type":"Feature","properties":{"FULLNAME_L":"SR 202","FULLNAME_R":"SR 202"},"geometry":{"type":"LineString","coordinates":[[-121.887070123375992,47.568842169789789],[-121.887614801347979,47.56781694346828],[-121.888020219349997,47.567532119344897]]}},
{"type":"Feature","properties":{"FULLNAME_L":"West Snoqualmie Val Rd NE","FULLNAME_R":"West Snoqualmie Val Rd NE"},"geometry":{"type":"LineString","coordinates":[[-122.008929697165001,47.743846003990797],[-122.008304280071002,47.744455471515401],[-122.006961926671991,47.746123357152797],[-122.004644837374002,47.748038752734303],[-122.00432005002402,47.748553515571501],[-122.004129851449989,47.749290437358795]]}},
{"type":"Feature","properties":{"FULLNAME_L":"Private Rd","FULLNAME_R":"Private Rd"},"geometry":{"type":"LineString","coordinates":[[-121.938468199650998,47.663756550372497],[-121.936460745022003,47.663639306714309],[-121.934868590708021,47.664206450784796],[-121.933918322273996,47.664348696588604],[-121.931296263915996,47.666167031405493],[-121.931135302173999,47.666377039008701],[-121.931311471917994,47.667103194503497],[-121.931575625395993,47.667430773061596],[-121.933512700110001,47.6686032501825],[-121.933928492554017,47.668998503529593],[-121.934055413238994,47.669265627556697],[-121.934736497125982,47.669896678113503],[-121.935813616483998,47.670682484895508],[-121.936327257851005,47.671335580897711],[-121.937420634473995,47.671642434578899],[-121.937544357887006,47.671877329027502]]}},
{"type":"Feature","properties":{"FULLNAME_L":"SE Northern St","FULLNAME_R":"SE Northern St"},"geometry":{"type":"LineString","coordinates":[[-121.82775422132201,47.532089698075296],[-121.827867008981016,47.532049383679599]]}},
{"type":"Feature","properties":{"FULLNAME_L":"Private Rd","FULLNAME_R":"Private Rd"},"geometry":{"type":"LineString","coordinates":[[-121.990768245558996,47.725994238792609],[-121.997429560379999,47.725228596155098]]}},
{"type":"Feature","properties":{"FULLNAME_L":"Private Rd","FULLNAME_R":"Private Rd"},"geometry":{"type":"LineString","coordinates":[[-121.877820051740997,47.561735476496587],[-121.876514959031013,47.562884468480007],[-121.875315862917006,47.563538359396901],[-121.872884739773994,47.564545927863399],[-121.872409691046983,47.564896974582901],[-121.871954650955999,47.565413752948693],[-121.871767089982995,47.565454231645596]]}},
{"type":"Feature","properties":{"FULLNAME_L":"Private Rd","FULLNAME_R":"Private Rd"},"geometry":{"type":"LineString","coordinates":[[-121.93096675812599,47.637856610689504],[-121.930968834793021,47.638030598940794],[-121.929659004831009,47.638501859581318],[-121.92921785010401,47.63895905180221],[-121.928483365868018,47.639430121563002],[-121.927845492016999,47.640323898834794],[-121.927569019657994,47.640849248924901],[-121.926966549187,47.64316287613071],[-121.926843764123007,47.643762955324988],[-121.927014444302017,47.644114019361787]]}},
{"type":"Feature","properties":{"FULLNAME_L":"Private Rd","FULLNAME_R":"Private Rd"},"geometry":{"type":"LineString","coordinates":[[-121.933648401349004,47.657898769459003],[-121.932990142449981,47.657910552627001],[-121.932771238333984,47.658002187267115]]}},
{"type":"Feature","properties":{"FULLNAME_L":"Private Rd","FULLNAME_R":"Private Rd"},"geometry":{"type":"LineString","coordinates":[[-121.928644401344002,47.600557858006084],[-121.931183772859001,47.600592931129498],[-121.932536421058998,47.601011699451696],[-121.935851243770998,47.601053653416685]]}},
{"type":"Feature","properties":{"FULLNAME_L":"Private Rd","FULLNAME_R":"Private Rd"},"geometry":{"type":"LineString","coordinates":[[-121.922575744916003,47.6672009794747],[-121.920250777058001,47.666194853931103]]}},
{"type":"Feature","properties":{"FULLNAME_L":"Private Rd","FULLNAME_R":"Private Rd"},"geometry":{"type":"LineString","coordinates":[[-121.904357075025999,47.638792542976802],[-121.904434372308984,47.640083609269098],[-121.90413413333502,47.640151495081412],[-121.903274883625997,47.640170745346502],[-121.902695467537995,47.640131498090007],[-121.902787045160011,47.638957488762706],[-121.902906605694014,47.638746133582494]]}},
{"type":"Feature","properties":{"FULLNAME_L":"Private Rd","FULLNAME_R":"Private Rd"},"geometry":{"type":"LineString","coordinates":[[-121.926230612222,47.666179455892902],[-121.925496634195994,47.666080849656893],[-121.924984263979994,47.667228562369296],[-121.923736551454994,47.668674751362701],[-121.923042345723999,47.669153108084622],[-121.922336198259998,47.669352896709391],[-121.921421961608999,47.669356102161899],[-121.920422690124994,47.6699998900447]]}},
{"type":"Feature","properties":{"FULLNAME_L":"Private Rd","FULLNAME_R":"Private Rd"},"geometry":{"type":"LineString","coordinates":[[-121.978985687248993,47.6866362599743],[-121.979017558812004,47.6847439340427],[-121.979216323230006,47.684643225741702],[-121.979770885012016,47.684658216906875]]}},
{"type":"Feature","properties":{"FULLNAME_L":"Private Rd","FULLNAME_R":"Private Rd"},"geometry":{"type":"LineString","coordinates":[[-121.910717095129002,47.627453992613894],[-121.913966466348995,47.627375564807686],[-121.915067306448009,47.627198253667999]]}},
{"type":"Feature","properties":{"FULLNAME_L":"Private Rd","FULLNAME_R":"Private Rd"},"geometry":{"type":"LineString","coordinates":[[-121.907180148535005,47.590737023440084],[-121.908230605842988,47.590331734963392],[-121.910759440936019,47.589050710934195],[-121.91178675867998,47.588411741559099],[-121.912456115758999,47.5883944262293],[-121.913847135267005,47.588097448709107],[-121.914493258469008,47.587473856214004]]}},
{"type":"Feature","properties":{"FULLNAME_L":"Private Rd","FULLNAME_R":"Private Rd"},"geometry":{"type":"LineString","coordinates":[[-121.862724082472994,47.553088853369914],[-121.863331826910013,47.552691836168087],[-121.863430727785001,47.552419507948798],[-121.862010202376013,47.5513929991236],[-121.861844001155021,47.550974715829199],[-121.861977033798993,47.550713044267184],[-121.862166773775996,47.550657054318492],[-121.863390054526988,47.550772092395896],[-121.863498311082012,47.550717093587799],[-121.863466109726986,47.55057344147621],[-121.862704861853004,47.550117541084077],[-121.862665442392995,47.549864843971783],[-121.862826246441998,47.5497024394218]]}},
{"type":"Feature","properties":{"FULLNAME_L":"SE 49th St","FULLNAME_R":"SE 49th St"},"geometry":{"type":"LineString","coordinates":[[-121.868858586022995,47.556900100314309],[-121.865671110291999,47.555626765497003],[-121.865029749708,47.555503169914587],[-121.864140402150014,47.555486005796695],[-121.86306666338001,47.555616930410395],[-121.861996155989999,47.555860481775298],[-121.857504773550019,47.557315770910407]]}},
{"type":"Feature","properties":{"FULLNAME_L":"Meadowbrook Way SE","FULLNAME_R":"Meadowbrook Way SE"},"geometry":{"type":"LineString","coordinates":[[-121.813874039504,47.524070022141203],[-121.81328169466002,47.524725104400197]]}},
{"type":"Feature","properties":{"FULLNAME_L":"Dike Rd","FULLNAME_R":"Dike Rd"},"geometry":{"type":"LineString","coordinates":[[-121.889501523218001,47.564018448903795],[-121.889211515707999,47.563937897592801],[-121.889007324825997,47.563977018480699],[-121.888562031321996,47.564331394304595],[-121.887610857135996,47.564581473163003],[-121.886341668118007,47.565065835745692],[-121.884519147720994,47.565232800359183],[-121.883747946214996,47.565480083042296],[-121.883390530940019,47.565718535942686],[-121.883161279267014,47.566080888325288],[-121.883139046311015,47.566811568928287],[-121.882849709757011,47.567001391661897],[-121.882765539225986,47.567570664202698],[-121.882267016707999,47.567560099744178],[-121.876599433031998,47.566825427312189]]}},
{"type":"Feature","properties":{"FULLNAME_L":"Private Rd","FULLNAME_R":"Private Rd"},"geometry":{"type":"LineString","coordinates":[[-121.986218796219021,47.749928730480597],[-121.986523261168003,47.749977489822491],[-121.986704868633012,47.750214616883603],[-121.986757500061998,47.751507862801496],[-121.986665563252004,47.752173246256298],[-121.986347928339995,47.75263022104361],[-121.986516843540997,47.752821806860901]]}},
{"type":"Feature","properties":{"FULLNAME_L":"Private Rd","FULLNAME_R":"Private Rd"},"geometry":{"type":"LineString","coordinates":[[-121.928341677489016,47.610952328389693],[-121.925299312909004,47.610060373789686],[-121.924269076803995,47.609992542710302],[-121.923341240211016,47.609708021394106],[-121.922721577878988,47.609933340400694],[-121.915155359079009,47.609925924408991],[-121.915054009393003,47.609999588407398],[-121.915094610065992,47.610782446662107],[-121.915025929576998,47.610843034416192],[-121.91349672433401,47.610860000309593],[-121.913016349685009,47.611303668309304],[-121.911420753963995,47.611321408786395]]}},
{"type":"Feature","properties":{"FULLNAME_L":"Peggy's Pl SE","FULLNAME_R":"Peggy's Pl SE"},"geometry":{"type":"LineString","coordinates":[[-121.826570443584998,47.525982093492395],[-121.826863255818012,47.525884001411399],[-121.826875479381002,47.525463496953492],[-121.826757452373982,47.525347244440496],[-121.826475265608011,47.525332809562002]]}},
{"type":"Feature","properties":{"FULLNAME_L":"NE 80th St","FULLNAME_R":"NE 80th St"},"geometry":{"type":"LineString","coordinates":[[-121.97743827011702,47.673502754358992],[-121.977988842282002,47.673618504406797],[-121.978760809273993,47.6739253661395],[-121.979580628576016,47.674629898322003]]}},
{"type":"Feature","properties":{"FULLNAME_L":"Private Rd","FULLNAME_R":"Private Rd"},"geometry":{"type":"LineString","coordinates":[[-121.944142104690997,47.612555479137377],[-121.944008581340995,47.612390227793298],[-121.943154799420995,47.611949212191988],[-121.942867584225013,47.611688725802999],[-121.942816709338999,47.611504360423915],[-121.942944877946005,47.611040022272199],[-121.942766841932993,47.610201478280395],[-121.942455456272,47.609713418049388],[-121.942109749894996,47.609558065771211],[-121.939889005113002,47.609504059162091],[-121.939256691692009,47.609201479889492],[-121.938541125507001,47.609206636267999],[-121.936340124758004,47.610046830583094],[-121.934944691335019,47.610294933950001],[-121.933665927325009,47.610432898424897]]}},
{"type":"Feature","properties":{"FULLNAME_L":"SE David Powell Rd","FULLNAME_R":"SE David Powell Rd"},"geometry":{"type":"LineString","coordinates":[[-121.877353487126015,47.55308458902379],[-121.876865805429006,47.552874098018499],[-121.876099169900016,47.552738562822185],[-121.875564759574004,47.552292192359999],[-121.875247074871993,47.552151974843106],[-121.874069101573014,47.551849908927899],[-121.873503352030014,47.551936997074598],[-121.871801436278005,47.552777351154603],[-121.870874745487001,47.552967324996999],[-121.869897080914996,47.553267296823378],[-121.868322926073006,47.5531282321597],[-121.867118000291015,47.55261496815141],[-121.866691943806018,47.552522881352985],[-121.866278348969004,47.552548574492903],[-121.865326343002991,47.552790269456004],[-121.864151244976,47.552810528082411],[-121.862724082472994,47.553088853369914]]}},
{"type":"Feature","properties":{"FULLNAME_L":"Unnamed","FULLNAME_R":"Unnamed"},"geometry":{"type":"LineString","coordinates":[[-121.839274100468003,47.694359164789105],[-121.838571926266994,47.694430820950295],[-121.838290197584996,47.694535818035007],[-121.837981183390994,47.695093654535398],[-121.837997012146005,47.695282180669402],[-121.838438092748007,47.695856922830899],[-121.838464976787009,47.69609200171061],[-121.838216988921999,47.696183680580596],[-121.837858694418017,47.696188508458185],[-121.837572736835995,47.696626788153104],[-121.837760809751998,47.6969545645184],[-121.838180621972,47.697268991087505]]}},
{"type":"Feature","properties":{"FULLNAME_L":"NE Cherry St","FULLNAME_R":"NE Cherry St"},"geometry":{"type":"LineString","coordinates":[[-121.983260487007001,47.741593925010399],[-121.981865459896014,47.741580044903486]]}},
{"type":"Feature","properties":{"FULLNAME_L":"West Snoqualmie Rvr Rd SE","FULLNAME_R":"West Snoqualmie Rvr Rd SE"},"geometry":{"type":"LineString","coordinates":[[-121.925361039205001,47.591193986935899],[-121.926160415507013,47.587136251109293]]}},
{"type":"Feature","properties":{"FULLNAME_L":"NE 126th St","FULLNAME_R":"NE 126th St"},"geometry":{"type":"LineString","coordinates":[[-122.013216438696006,47.710328582127595],[-122.012623449828993,47.710311154227007],[-122.012174647427997,47.710471521631476],[-122.011506651842993,47.710147225137696],[-122.011407268551011,47.710243099215106],[-122.011502239960009,47.710736201328096],[-122.01130617105801,47.71080073209059],[-122.010882396564,47.710519962439996],[-122.010685392767002,47.710207246505107],[-122.010549876276983,47.710142842633999],[-122.010438206181007,47.710211984037798],[-122.01043843737898,47.710468638834406],[-122.010286306623001,47.710612226406091],[-122.009559935525004,47.710714572221889],[-122.009249155694008,47.710512143012885],[-122.008799350225004,47.710381917743597],[-122.008679330725002,47.709880292623993],[-122.008536177310006,47.709814849209693],[-122.008408145464003,47.7099017239658],[-122.008278279509,47.710400997774002],[-122.008048778675999,47.710559088597094],[-122.007684278816001,47.710518418220417],[-122.007159941090009,47.709988607741487],[-122.007008024900003,47.710029672810109],[-122.006838032890002,47.710371959476511],[-122.006558937132013,47.710605145591003]]}},
{"type":"Feature","properties":{"FULLNAME_L":"298th Pl NE","FULLNAME_R":"298th Pl NE"},"geometry":{"type":"LineString","coordinates":[[-121.943558756068001,47.630659460380301],[-121.942562634211995,47.630775751790203],[-121.941869312598996,47.631780968444488],[-121.940919434883014,47.632293501920486],[-121.940523043145021,47.632322033733196],[-121.940400101473003,47.632405951354301],[-121.940322559943013,47.632979094110695],[-121.940402624797002,47.634359011474501]]}},
{"type":"Feature","properties":{"FULLNAME_L":"Private Rd","FULLNAME_R":"Private Rd"},"geometry":{"type":"LineString","coordinates":[[-121.926230612222,47.666179455892902],[-121.926090697101003,47.665484991160596],[-121.926845715892014,47.664524509354401],[-121.926776983533998,47.664078862375298],[-121.927060313632012,47.663005144207794],[-121.927842393586985,47.66198317726748],[-121.927996902545985,47.660840348718601],[-121.927632786935007,47.659087018987393],[-121.927050134933012,47.658277456355307],[-121.926168508670017,47.657409539104201]]}},
{"type":"Feature","properties":{"FULLNAME_L":"Private Rd","FULLNAME_R":"Private Rd"},"geometry":{"type":"LineString","coordinates":[[-121.984537366463002,47.695159198269295],[-121.983625579220003,47.695385558856096],[-121.983288847319983,47.695722127749804],[-121.983170747371986,47.696166120637713],[-121.983302543762989,47.697418942200997],[-121.983211656511997,47.697555665323897],[-121.982278119905004,47.697787808081493],[-121.981047810863018,47.697800202675189]]}},
{"type":"Feature","properties":{"FULLNAME_L":"NE Carnation Farm Rd","FULLNAME_R":"NE Carnation Farm Rd"},"geometry":{"type":"LineString","coordinates":[[-121.937544357887006,47.671877329027502],[-121.931655836760001,47.671851222894901],[-121.931086455145987,47.671823894383692],[-121.930339098223996,47.6716341576819],[-121.929619714756981,47.671158619788976],[-121.928031626199996,47.669572229798909],[-121.927718209624999,47.66900088299699],[-121.927184205506009,47.667181199129892],[-121.926782736983014,47.66657132642478],[-121.926230612222,47.666179455892902]]}},
{"type":"Feature","properties":{"FULLNAME_L":"West Snoqualmie Rvr Rd SE","FULLNAME_R":"West Snoqualmie Rvr Rd SE"},"geometry":{"type":"LineString","coordinates":[[-121.928954021329019,47.59933110507901],[-121.929168601261992,47.598741101885288],[-121.930275850355002,47.596871509289997],[-121.930363716474019,47.596376674775208],[-121.930236540706019,47.595823636030602],[-121.929622926975014,47.595003806930308],[-121.928508679968999,47.594300305933892],[-121.928046815808003,47.593876479060903],[-121.927014555271001,47.591768137660495],[-121.926403415387,47.591423323340699],[-121.925361039205001,47.591193986935899]]}},
{"type":"Feature","properties":{"FULLNAME_L":"SE 43rd St","FULLNAME_R":"SE 43rd St"},"geometry":{"type":"LineString","coordinates":[[-121.888591038517006,47.566574413357792],[-121.888052565923005,47.566464900585487]]}},
{"type":"Feature","properties":{"FULLNAME_L":"Private Rd","FULLNAME_R":"Private Rd"},"geometry":{"type":"LineString","coordinates":[[-122.013686853341994,47.715819933394386],[-122.013639773953003,47.715702668600699],[-122.013425082914992,47.715608547965793],[-122.013020078216002,47.7155423533885],[-122.012272314826006,47.715982088103402],[-122.011928267533008,47.716285013746187],[-122.011763762707005,47.716286713989696],[-122.011444598625005,47.7160301442362],[-122.011255869856001,47.716016153210902],[-122.010424628454999,47.716580897540702]]}},
{"type":"Feature","properties":{"FULLNAME_L":"Old Leary Rd","FULLNAME_R":"Old Leary Rd"},"geometry":{"type":"LineString","coordinates":[[-121.921725421659005,47.596398686073009],[-121.921675904242008,47.596623299056191],[-121.921776005923007,47.596855089772113],[-121.923362972007013,47.5985514013177],[-121.923586875138,47.599080944487113],[-121.923546029072,47.599743469504702],[-121.922487700562016,47.601446906258609],[-121.921837974902999,47.602023153433606],[-121.920563894744006,47.602718462416099],[-121.91869346553699,47.6033222022077],[-121.917735094928005,47.604337523133488],[-121.916801695838004,47.604728504325692],[-121.916746806383003,47.604818178110101],[-121.917020051625002,47.605251551757476],[-121.916978456401992,47.605409813067418],[-121.916845331575999,47.605483940412093],[-121.916263912231997,47.605586621620297],[-121.913981388729013,47.605595932479289]]}},
{"type":"Feature","properties":{"FULLNAME_L":"West Snoqualmie Rvr Rd NE","FULLNAME_R":"West Snoqualmie Rvr Rd NE"},"geometry":{"type":"LineString","coordinates":[[-121.987735911409999,47.747562140425003],[-121.987615703682991,47.747686481824097],[-121.988020029022991,47.751424750285089],[-121.988872076912003,47.754885336827897],[-121.988647766121005,47.757388112493999],[-121.988482037614986,47.757683158014402],[-121.988032603807014,47.758065214051896],[-121.987551615933981,47.758354284612103],[-121.987030155151999,47.758514895861992],[-121.986622946907005,47.758510786510101],[-121.985818481503998,47.758332730368899],[-121.985364126598981,47.75815087702982],[-121.984930563850995,47.757852286492515],[-121.984630439741991,47.757520132299796],[-121.984314866963004,47.756949598421997],[-121.984081092103011,47.756858735590093],[-121.977970394546006,47.757753692362286],[-121.975851859847012,47.758162883358999],[-121.973521784279015,47.75940147831021],[-121.972312070643994,47.76014081317269],[-121.970655549980009,47.762109474453702],[-121.970163500556993,47.7624797177453],[-121.968958949143016,47.762902975373002],[-121.966851193681009,47.763306405555795],[-121.965054693559011,47.764231758915798],[-121.963794247451006,47.764613018018807],[-121.961913617210001,47.764946932799305],[-121.961576673788997,47.765160694562304],[-121.961566160264013,47.765471988835586],[-121.961838474149999,47.765979264989909],[-121.961840094191004,47.766380917564099],[-121.960926376372996,47.769293479317405],[-121.960882175527985,47.769832669841506],[-121.961525194671012,47.770180003695103],[-121.963660990239987,47.770629086578104],[-121.96457416349098,47.771147830141203],[-121.965127943892,47.771970353906497],[-121.965822296869021,47.773688465733201],[-121.968115333889997,47.776111092093906]]}},
{"type":"Feature","properties":{"FULLNAME_L":"SE Cedar St","FULLNAME_R":"SE Cedar St"},"geometry":{"type":"LineString","coordinates":[[-121.830850853496997,47.529790188675101],[-121.831007257628002,47.529885332269394]]}},
{"type":"Feature","properties":{"FULLNAME_L":"347th Pl SE","FULLNAME_R":"347th Pl SE"},"geometry":{"type":"LineString","coordinates":[[-121.877353487126015,47.55308458902379],[-121.878228522628987,47.552490887435788],[-121.880031227214999,47.552263187397685]]}},
{"type":"Feature","properties":{"FULLNAME_L":"SE Park St","FULLNAME_R":"SE Park St"},"geometry":{"type":"LineString","coordinates":[[-121.807742301600996,47.5232959855472],[-121.808426500466993,47.523583713980109]]}},
{"type":"Feature","properties":{"FULLNAME_L":"Snoqualmie Pkwy","FULLNAME_R":"Snoqualmie Pkwy"},"geometry":{"type":"LineString","coordinates":[[-121.839378912200019,47.534468277923999],[-121.838455427398998,47.5344777616898],[-121.83742871543302,47.534657318039507],[-121.834345475381994,47.535825813914499]]}},
{"type":"Feature","properties":{"FULLNAME_L":"Preston Fall City Rd SE","FULLNAME_R":"Preston Fall City Rd SE"},"geometry":{"type":"LineString","coordinates":[[-121.888290931041013,47.565683089248409],[-121.888052565923005,47.566464900585487]]}},
{"type":"Feature","properties":{"FULLNAME_L":"Silva Ave","FULLNAME_R":"Silva Ave"},"geometry":{"type":"LineString","coordinates":[[-121.827854854785997,47.525052809322602],[-121.827854933177989,47.52684582269189]]}},
{"type":"Feature","properties":{"FULLNAME_L":"Olmstead Ave","FULLNAME_R":"Olmstead Ave"},"geometry":{"type":"LineString","coordinates":[[-121.826589528195996,47.526848430840488],[-121.826572398536996,47.528245399264605],[-121.826492750110006,47.528464798427805]]}},
{"type":"Feature","properties":{"FULLNAME_L":"SE Cedar St","FULLNAME_R":"SE Cedar St"},"geometry":{"type":"LineString","coordinates":[[-121.831007257628002,47.529885332269394],[-121.831819929284009,47.530516923631993],[-121.832235572249004,47.530701342155098]]}},
{"type":"Feature","properties":{"FULLNAME_L":"SE Fir St","FULLNAME_R":"SE Fir St"},"geometry":{"type":"LineString","coordinates":[[-121.832055174366999,47.529793488971798],[-121.831182745337003,47.529799330396479],[-121.831007257628002,47.529885332269394]]}},
{"type":"Feature","properties":{"FULLNAME_L":"Meadowbrook Way SE","FULLNAME_R":"Meadowbrook Way SE"},"geometry":{"type":"LineString","coordinates":[[-121.812271919178016,47.526096670465591],[-121.812271332200012,47.527499709755894],[-121.811947706663005,47.527753516695398],[-121.811399030939,47.527872784632599]]}},
{"type":"Feature","properties":{"FULLNAME_L":"NE 45th St","FULLNAME_R":"NE 45th St"},"geometry":{"type":"LineString","coordinates":[[-121.897613625161,47.647664000988399],[-121.896226080599007,47.647932095195308]]}},
{"type":"Feature","properties":{"FULLNAME_L":"E Entwistle St","FULLNAME_R":"E Entwistle St"},"geometry":{"type":"LineString","coordinates":[[-121.900460252426001,47.64715603163252],[-121.899627252635995,47.647204960899103],[-121.897613625161,47.647664000988399]]}},
{"type":"Feature","properties":{"FULLNAME_L":"SE River St","FULLNAME_R":"SE River St"},"geometry":{"type":"LineString","coordinates":[[-121.824189509123983,47.527220093140784],[-121.823540439801008,47.5274409988413]]}},
{"type":"Feature","properties":{"FULLNAME_L":"Meadowbrook Way SE","FULLNAME_R":"Meadowbrook Way SE"},"geometry":{"type":"LineString","coordinates":[[-121.816244368030013,47.520576152519311],[-121.813874039504,47.524070022141203]]}},
{"type":"Feature","properties":{"FULLNAME_L":"SE Mill Pond Rd","FULLNAME_R":"SE Mill Pond Rd"},"geometry":{"type":"LineString","coordinates":[[-121.829898622491982,47.539994250347803],[-121.827937040917007,47.538939803502913],[-121.827307072910003,47.538492817060408],[-121.825006121024998,47.535925155380497],[-121.823331232724996,47.533453440405196],[-121.82289910391998,47.532164408231196],[-121.822670323794,47.531812261612608],[-121.822154190009002,47.531354089543299],[-121.820434258896,47.530298302418501],[-121.819288678297013,47.529156105659688],[-121.81752604280301,47.528228085304207],[-121.816552027927997,47.527380493870389],[-121.816024718803007,47.527207111117001],[-121.813803662086983,47.52724659640652],[-121.812890913436007,47.5274410583133],[-121.811889567659009,47.527947765432998],[-121.811556121218018,47.527975007276503],[-121.811399030939,47.527872784632599]]}},
{"type":"Feature","properties":{"FULLNAME_L":"SE River St","FULLNAME_R":"SE River St"},"geometry":{"type":"LineString","coordinates":[[-121.825306335830007,47.526862999753597],[-121.824189509123983,47.527220093140784]]}},
{"type":"Feature","properties":{"FULLNAME_L":"SE Cedar St","FULLNAME_R":"SE Cedar St"},"geometry":{"type":"LineString","coordinates":[[-121.827861769297016,47.529266275914203],[-121.829241739268014,47.5292877065528],[-121.830683552791996,47.529725845066302]]}},
{"type":"Feature","properties":{"FULLNAME_L":"Pine Ave SE","FULLNAME_R":"Pine Ave SE"},"geometry":{"type":"LineString","coordinates":[[-121.830797098313994,47.528832217621392],[-121.830787732321994,47.529519298632408],[-121.830683552791996,47.529725845066302]]}},
{"type":"Feature","properties":{"FULLNAME_L":"SR 202","FULLNAME_R":"SR 202"},"geometry":{"type":"LineString","coordinates":[[-121.82775422132201,47.532089698075296],[-121.831332938604007,47.536942728588997]]}},
{"type":"Feature","properties":{"FULLNAME_L":"Olmstead Pl SE","FULLNAME_R":"Olmstead Pl SE"},"geometry":{"type":"LineString","coordinates":[[-121.826570443584998,47.525982093492395],[-121.826361895158996,47.525949311214987],[-121.826281025388994,47.525835780160406],[-121.826289090436006,47.525438964284596],[-121.826475265608011,47.525332809562002]]}},
{"type":"Feature","properties":{"FULLNAME_L":"SE Fir St","FULLNAME_R":"SE Fir St"},"geometry":{"type":"LineString","coordinates":[[-121.830850853496997,47.529790188675101],[-121.83044689311501,47.530046550061897],[-121.829854977061018,47.530075454188498],[-121.829785840038994,47.530158099709411]]}},
{"type":"Feature","properties":{"FULLNAME_L":"SE Alder St","FULLNAME_R":"SE Alder St"},"geometry":{"type":"LineString","coordinates":[[-121.813206444381009,47.523773460914306],[-121.813874039504,47.524070022141203]]}},
{"type":"Feature","properties":{"FULLNAME_L":"Maple Ave SE","FULLNAME_R":"Maple Ave SE"},"geometry":{"type":"LineString","coordinates":[[-121.825306335830007,47.526862999753597],[-121.826492750110006,47.528464798427805]]}},
{"type":"Feature","properties":{"FULLNAME_L":"Fir St","FULLNAME_R":"Fir St"},"geometry":{"type":"LineString","coordinates":[[-121.826963367257008,47.530327931575975],[-121.827677264480002,47.530084070173196]]}},
{"type":"Feature","properties":{"FULLNAME_L":"Snoqualmie Pkwy","FULLNAME_R":"Snoqualmie Pkwy"},"geometry":{"type":"LineString","coordinates":[[-121.839404259782,47.534343340605098],[-121.838498710595019,47.534346244817797],[-121.837369373081003,47.534537106424906],[-121.834258748733006,47.5357247639637]]}},
{"type":"Feature","properties":{"FULLNAME_L":"SE Newton St","FULLNAME_R":"SE Newton St"},"geometry":{"type":"LineString","coordinates":[[-121.82858041158201,47.525011422537503],[-121.827854854785997,47.525052809322602]]}},
{"type":"Feature","properties":{"FULLNAME_L":"SE Reinig Rd","FULLNAME_R":"SE Reinig Rd"},"geometry":{"type":"LineString","coordinates":[[-121.811399030939,47.527872784632599],[-121.810679618346001,47.528038361511307],[-121.810113181818011,47.528268190905187],[-121.808052069735993,47.529567767600099],[-121.807578087704002,47.529741197931791],[-121.806928694993985,47.52985555478471]]}},
{"type":"Feature","properties":{"FULLNAME_L":"Fir St","FULLNAME_R":"Fir St"},"geometry":{"type":"LineString","coordinates":[[-121.826577919786018,47.53045924820281],[-121.826963367257008,47.530327931575975]]}},
{"type":"Feature","properties":{"FULLNAME_L":"SE Newton St","FULLNAME_R":"SE Newton St"},"geometry":{"type":"LineString","coordinates":[[-121.827854854785997,47.525052809322602],[-121.826478991464001,47.525072460267616]]}},
{"type":"Feature","properties":{"FULLNAME_L":"331st Ave NE","FULLNAME_R":"331st Ave NE"},"geometry":{"type":"LineString","coordinates":[[-121.897613625161,47.647664000988399],[-121.897726570055994,47.646554840022603],[-121.897576694967995,47.643665710553599]]}},
{"type":"Feature","properties":{"FULLNAME_L":"Railroad Pl SE","FULLNAME_R":"Railroad Pl SE"},"geometry":{"type":"LineString","coordinates":[[-121.828273291754002,47.531962347599901],[-121.828302326181998,47.532010644438991]]}},
{"type":"Feature","properties":{"FULLNAME_L":"Park Aly SE","FULLNAME_R":"Falls Aly SE"},"geometry":{"type":"LineString","coordinates":[[-121.822979901859995,47.527628320890706],[-121.821791396399007,47.526009625454797]]}},
{"type":"Feature","properties":{"FULLNAME_L":"SE Cedar St","FULLNAME_R":"SE Cedar St"},"geometry":{"type":"LineString","coordinates":[[-121.830683551781007,47.529725845075205],[-121.830850853496997,47.529790188675101]]}},
{"type":"Feature","properties":{"FULLNAME_L":"SE David Powell Rd","FULLNAME_R":"SE David Powell Rd"},"geometry":{"type":"LineString","coordinates":[[-121.890490395266994,47.562879251476502],[-121.890182922628,47.562648222368509],[-121.890120570030021,47.562494704651293],[-121.890185395944016,47.561622225516594],[-121.890075667983012,47.560206876600084],[-121.889188582085012,47.558832163927597],[-121.888986084509,47.558137223359687],[-121.888656066790006,47.558038187462905],[-121.88503132772,47.558004863928602],[-121.884494690823999,47.557981340531605],[-121.884159622856984,47.557885861513498],[-121.880705318395016,47.555223546879994],[-121.879413894328991,47.554319139063701],[-121.877353487126015,47.55308458902379]]}},
{"type":"Feature","properties":{"FULLNAME_L":"West Snoqualmie Val Rd NE","FULLNAME_R":"West Snoqualmie Val Rd NE"},"geometry":{"type":"LineString","coordinates":[[-122.008156752241007,47.716993533853284],[-122.008328140086007,47.717857062946486],[-122.009015819629013,47.719877276875494],[-122.008980753301984,47.721491444246702],[-122.009180500059003,47.722686434574193],[-122.010587782423016,47.727384553970083],[-122.010608749988009,47.72797322634991],[-122.010353557035003,47.729062725243701],[-122.01042473585801,47.729535803422195],[-122.012277679101004,47.7325260491953],[-122.013858562517001,47.733864659392005],[-122.014174510523006,47.734242499023004],[-122.014970455088019,47.736959604465703],[-122.014941409564017,47.737357553879498],[-122.014750116180011,47.737747584703392],[-122.013268350648005,47.739144359507705],[-122.012197437327998,47.740849261288687],[-122.008929697165001,47.743846003990797]]}},
{"type":"Feature","properties":{"FULLNAME_L":"NE 80th St","FULLNAME_R":"NE 80th St"},"geometry":{"type":"LineString","coordinates":[[-121.863220476205996,47.672612543750198],[-121.857687638551994,47.67257923137889]]}},
{"type":"Feature","properties":{"FULLNAME_L":"NE Novelty Hill Rd","FULLNAME_R":"NE Novelty Hill Rd"},"geometry":{"type":"LineString","coordinates":[[-122.015066654601,47.702237878869283],[-122.013656652280005,47.701961299328076],[-122.012824639047011,47.701886609726898],[-122.009684702192018,47.702342701980996],[-122.008425482454015,47.702319988361801],[-122.006543875348001,47.701981174165304],[-122.005058383762005,47.702042064140301],[-122.004436751653003,47.702243614649092],[-122.004197050520006,47.702433623447007],[-122.004222153954998,47.703109294885998],[-122.003881699725994,47.703584989842206],[-122.003965335727003,47.704081094875207],[-122.003893069796021,47.70459019910988],[-122.003766954585018,47.704814265044888],[-122.003584344860997,47.704891786614297]]}},
{"type":"Feature","properties":{"FULLNAME_L":"SR 202","FULLNAME_R":"SR 202"},"geometry":{"type":"LineString","coordinates":[[-121.822976826857015,47.525609597061795],[-121.824189509123983,47.527220093140784]]}},
{"type":"Feature","properties":{"FULLNAME_L":"SR 203","FULLNAME_R":"SR 203"},"geometry":{"type":"LineString","coordinates":[[-121.985776410898012,47.749893613728887],[-121.985141581202015,47.750827088398196],[-121.984005873083007,47.751724827445102],[-121.963079501600021,47.763256754688392],[-121.960660807336012,47.764324598207587],[-121.957469651113016,47.766485052844089],[-121.956673242962012,47.767266923559703]]}},
{"type":"Feature","properties":{"FULLNAME_L":"SR 202","FULLNAME_R":"SR 202"},"geometry":{"type":"LineString","coordinates":[[-121.826577919786018,47.53045924820281],[-121.82775422132201,47.532089698075296]]}},
{"type":"Feature","properties":{"FULLNAME_L":"SR 202","FULLNAME_R":"SR 202"},"geometry":{"type":"LineString","coordinates":[[-121.836082422985001,47.546908814760201],[-121.835589978789997,47.546192814144497],[-121.835524131246999,47.545576506832802],[-121.835829586238006,47.544966064485401],[-121.836774009451005,47.544126834583693],[-121.836869993768019,47.543737576508605],[-121.836768777168999,47.543329496026004],[-121.836115550239001,47.542349763841308],[-121.834455287207987,47.5410794163923],[-121.833849700626999,47.540805240443596],[-121.833173914039008,47.540773287846797]]}},
{"type":"Feature","properties":{"FULLNAME_L":"Neal Rd SE","FULLNAME_R":"Neal Rd SE"},"geometry":{"type":"LineString","coordinates":[[-121.891362806535994,47.575515464289985],[-121.891954484342008,47.575920452719792],[-121.892625851055016,47.576134094846097],[-121.893791199267994,47.576221882631593],[-121.895042682201009,47.57619096657541],[-121.895769133583997,47.576336502086804],[-121.896235046554011,47.576554915726611],[-121.897465478138002,47.577421150185394],[-121.898392474543016,47.578631733558986],[-121.898966785970003,47.579767438665009],[-121.90077516151301,47.582170933750895],[-121.901115610191994,47.5832605850077],[-121.901722424260996,47.584246842477391],[-121.902273661511003,47.584770268067203],[-121.90274606844001,47.585080613745006],[-121.903506387723993,47.5853503797887],[-121.906317335807998,47.585794366052198],[-121.909319783192998,47.5858200234008],[-121.911489744714999,47.586007292046901],[-121.912864413807995,47.586488323936678],[-121.914493258469008,47.587473856214004]]}},
{"type":"Feature","properties":{"FULLNAME_L":"SR 202","FULLNAME_R":"SR 202"},"geometry":{"type":"LineString","coordinates":[[-121.894462384326985,47.569715977276708],[-121.893847900215007,47.569239523048786],[-121.893086694511993,47.568805653364301]]}},
{"type":"Feature","properties":{"FULLNAME_L":"SR 202","FULLNAME_R":"SR 202"},"geometry":{"type":"LineString","coordinates":[[-121.905096242455997,47.572514696995789],[-121.898075651395004,47.571262426220301]]}},
{"type":"Feature","properties":{"FULLNAME_L":"SR 202","FULLNAME_R":"SR 202"},"geometry":{"type":"LineString","coordinates":[[-121.824189509123983,47.527220093140784],[-121.825384026191998,47.528839156055703]]}},
{"type":"Feature","properties":{"FULLNAME_L":"SR 202","FULLNAME_R":"SR 202"},"geometry":{"type":"LineString","coordinates":[[-121.825384026191998,47.528839156055703],[-121.826577919786018,47.53045924820281]]}},
{"type":"Feature","properties":{"FULLNAME_L":"SR 202","FULLNAME_R":"SR 202"},"geometry":{"type":"LineString","coordinates":[[-121.898075651395004,47.571262426220301],[-121.897023599902013,47.571042835040302],[-121.896117617479007,47.5707371475211],[-121.89531342557602,47.5703316846894],[-121.894462384326985,47.569715977276708]]}},
{"type":"Feature","properties":{"FULLNAME_L":"SR 202","FULLNAME_R":"SR 202"},"geometry":{"type":"LineString","coordinates":[[-121.888020219349997,47.567532119344897],[-121.888800926423002,47.567611072707997]]}},
{"type":"Feature","properties":{"FULLNAME_L":"SR 203","FULLNAME_R":"SR 203"},"geometry":{"type":"LineString","coordinates":[[-121.887441583137999,47.570192142258101],[-121.887385802409995,47.569523632948297],[-121.886908572281015,47.569328023408801]]}},
{"type":"Feature","properties":{"FULLNAME_L":"SE Northern St","FULLNAME_R":"SE Northern St"},"geometry":{"type":"LineString","coordinates":[[-121.828273291754002,47.531962347599901],[-121.830196348959007,47.531954895666502]]}},
{"type":"Feature","properties":{"FULLNAME_L":"SE Northern St","FULLNAME_R":"SE Northern St"},"geometry":{"type":"LineString","coordinates":[[-121.827867008981016,47.532049383679599],[-121.828165164457019,47.531968054668198]]}},
{"type":"Feature","properties":{"FULLNAME_L":"West Snoqualmie Val Rd NE","FULLNAME_R":"West Snoqualmie Val Rd NE"},"geometry":{"type":"LineString","coordinates":[[-122.003584344860997,47.704891786614297],[-122.005187177653994,47.707400168847791],[-122.00592041890701,47.708998424675293]]}},
{"type":"Feature","properties":{"FULLNAME_L":"Railroad Pl SE","FULLNAME_R":"Railroad Pl SE"},"geometry":{"type":"LineString","coordinates":[[-121.828302326181998,47.532010644438991],[-121.829704392333994,47.533931605909707],[-121.829981705067993,47.534172405749992]]}},
{"type":"Feature","properties":{"FULLNAME_L":"Railroad Pl SE","FULLNAME_R":"Railroad Pl SE"},"geometry":{"type":"LineString","coordinates":[[-121.828165164457019,47.531968054668198],[-121.826963367257008,47.530327931575975]]}},
{"type":"Feature","properties":{"FULLNAME_L":"Harding Pl SE","FULLNAME_R":"Harding Pl SE"},"geometry":{"type":"LineString","coordinates":[[-121.83244390998901,47.531670619004792],[-121.832463765661998,47.532339691422678]]}}
]
}
